Date/Time,Temp_C,Dew Point Temp_C,Rel Hum_%,Wind Speed_km/h,Visibility_km,Press_kPa,Weather,rain
1/1/2012 0:00,-1.8,-3.9,86,4,8,101.24,2,18.5356
1/1/2012 1:00,-1.8,-3.7,87,4,8,101.24,2,16.2548
1/1/2012 2:00,-1.8,-3.4,89,7,4,101.26,3,70.7981
1/1/2012 3:00,-1.5,-3.2,88,6,4,101.27,3,66.1616
1/1/2012 4:00,-1.5,-3.3,88,7,4.8,101.23,2,267.215
1/1/2012 5:00,-1.4,-3.3,87,9,6.4,101.27,2,341.042
1/1/2012 6:00,-1.5,-3.1,89,7,6.4,101.29,2,540.907
1/1/2012 7:00,-1.4,-3.6,85,7,8,101.26,2,493.21
1/1/2012 8:00,-1.4,-3.6,85,9,8,101.23,2,291.549
1/1/2012 9:00,-1.3,-3.1,88,15,4,101.2,2,199.171
1/1/2012 10:00,-1,-2.3,91,9,1.2,101.15,2,126.285
1/1/2012 11:00,-0.5,-2.1,89,7,4,100.98,2,1.69035
1/1/2012 12:00,-0.2,-2,88,9,4.8,100.79,2,1.29152
1/1/2012 13:00,0.2,-1.7,87,13,4.8,100.58,2,0.14722
1/1/2012 14:00,0.8,-1.1,87,20,4.8,100.31,2,62.7686
1/1/2012 15:00,1.8,-0.4,85,22,6.4,100.07,2,229.589
1/1/2012 16:00,2.6,-0.2,82,13,12.9,99.93,2,302.197
1/1/2012 17:00,3,0,81,13,16.1,99.81,2,528.775
1/1/2012 18:00,3.8,1,82,15,12.9,99.74,3,415.257
1/1/2012 19:00,3.1,1.3,88,15,12.9,99.68,3,435.166
1/1/2012 20:00,3.2,1.3,87,19,25,99.5,2,282.872
1/1/2012 21:00,4,1.7,85,20,25,99.39,2,76.6518
1/1/2012 22:00,4.4,1.9,84,24,19.3,99.32,3,4.48053
1/1/2012 23:00,5.3,2,79,30,25,99.31,2,6.51869
1/2/2012 0:00,5.2,1.5,77,35,25,99.26,3,2.4001
1/2/2012 1:00,4.6,0,72,39,25,99.26,2,16.7112
1/2/2012 2:00,3.9,-0.9,71,32,25,99.26,2,35.0165
1/2/2012 3:00,3.7,-1.5,69,33,25,99.3,2,79.8924
1/2/2012 4:00,2.9,-2.3,69,32,25,99.26,2,206.714
1/2/2012 5:00,2.6,-2.3,70,32,25,99.21,2,606.088
1/2/2012 6:00,2.3,-2.6,70,26,25,99.18,2,376.786
1/2/2012 7:00,2,-2.9,70,33,25,99.14,2,401.075
1/2/2012 8:00,1.9,-3.3,68,39,24.1,99.14,2,288.777
1/2/2012 9:00,1.8,-3.7,67,44,24.1,99.14,2,190.116
1/2/2012 10:00,1.5,-4.1,66,43,24.1,99.18,2,53.8007
1/2/2012 11:00,2.2,-3.5,66,30,24.1,99.19,2,0.0104
1/2/2012 12:00,1.7,-6.2,56,48,24.1,99.21,1,0.3257
1/2/2012 13:00,1.1,-6.5,57,37,24.1,99.27,2,40.4723
1/2/2012 14:00,1.1,-6.8,56,33,24.1,99.33,2,32.017
1/2/2012 15:00,0,-7,59,33,24.1,99.41,2,169.242
1/2/2012 16:00,-0.7,-8.7,55,24,24.1,99.5,2,317.756
1/2/2012 17:00,-2.1,-9.5,57,22,25,99.66,3,525.691
1/2/2012 18:00,-4.1,-11.4,57,28,25,99.86,2,707.404
1/2/2012 19:00,-4.8,-12.1,57,24,25,100,2,367.376
1/2/2012 20:00,-5.6,-13.4,54,24,25,100.07,3,181.867
1/2/2012 21:00,-5.8,-12.8,58,26,25,100.15,3,72.9881
1/2/2012 22:00,-7,-14.7,54,20,25,100.26,2,32.9518
1/2/2012 23:00,-7.4,-14.1,59,17,19.3,100.27,3,1.97838
1/3/2012 0:00,-9,-16,57,28,25,100.35,3,7.07224
1/3/2012 1:00,-9.7,-17.2,54,20,25,100.43,2,22.9071
1/3/2012 2:00,-10.5,-15.8,65,22,12.9,100.53,3,78.9631
1/3/2012 3:00,-11.3,-18.7,54,33,25,100.61,3,203.005
1/3/2012 4:00,-12.6,-20.1,53,24,25,100.68,2,315.752
1/3/2012 5:00,-12.9,-19.1,60,22,25,100.76,3,224.887
1/3/2012 6:00,-13.3,-19.3,61,19,25,100.85,3,559.799
1/3/2012 7:00,-14,-19.5,63,19,25,100.95,3,624.073
1/3/2012 8:00,-14.8,-21.3,58,26,24.1,101.07,2,623.689
1/3/2012 9:00,-15,-21.9,56,19,24.1,101.2,2,133.63
1/3/2012 10:00,-15.3,-22.2,56,24,24.1,101.29,2,4.91701
1/3/2012 11:00,-14.9,-22.2,54,22,24.1,101.33,2,7.61877
1/3/2012 12:00,-14.9,-22.6,52,20,24.1,101.34,1,13.9546
1/3/2012 13:00,-15.1,-22.4,54,22,24.1,101.34,1,65.6833
1/3/2012 14:00,-14.9,-22.9,50,22,24.1,101.38,1,53.425
1/3/2012 15:00,-14.8,-22.2,53,19,24.1,101.44,1,29.6299
1/3/2012 16:00,-15.3,-22.9,52,22,24.1,101.51,1,229.508
1/3/2012 17:00,-15.8,-23.2,53,22,24.1,101.58,1,357.968
1/3/2012 18:00,-16.3,-23.8,52,24,25,101.64,1,487.922
1/3/2012 19:00,-16.9,-24.8,50,24,25,101.74,1,388.641
1/3/2012 20:00,-17.3,-25.4,49,24,25,101.82,1,212.273
1/3/2012 21:00,-17,-24.6,52,15,25,101.86,2,185.89
1/3/2012 22:00,-17.1,-24.6,52,20,25,101.86,2,48.9485
1/3/2012 23:00,-17.3,-24.2,55,17,25,101.87,2,0.01352
1/4/2012 0:00,-17.5,-24.2,56,13,25,101.88,2,10.7854
1/4/2012 1:00,-17.9,-24.1,58,11,25,101.86,1,28.6799
1/4/2012 2:00,-18.1,-23.8,61,15,25,101.89,1,123.023
1/4/2012 3:00,-18.5,-24.6,59,13,25,101.88,1,115.429
1/4/2012 4:00,-18.5,-24.6,59,13,25,101.82,1,234.761
1/4/2012 5:00,-18.6,-24,62,9,25,101.77,1,549.54
1/4/2012 6:00,-18.5,-24.1,61,11,25,101.74,2,327.091
1/4/2012 7:00,-18.2,-24.1,60,11,25,101.75,2,223.517
1/4/2012 8:00,-17.8,-24.2,57,17,24.1,101.73,2,269.975
1/4/2012 9:00,-16.8,-22.5,61,9,24.1,101.68,2,51.2185
1/4/2012 10:00,-15.2,-20.6,63,7,24.1,101.54,2,9.41034
1/4/2012 11:00,-14.2,-21.1,56,13,24.1,101.41,2,13.5853
1/4/2012 12:00,-13.7,-21.7,51,11,24.1,101.25,3,7.99686
1/4/2012 13:00,-12.4,-20.1,53,11,24.1,101.07,2,12.5831
1/4/2012 14:00,-11.3,-19,53,7,19.3,100.97,3,8.35921
1/4/2012 15:00,-10.2,-16.3,61,11,9.7,100.89,3,44.7567
1/4/2012 16:00,-9.4,-15.5,61,13,19.3,100.79,3,281.536
1/4/2012 17:00,-8.9,-13.2,71,9,4.8,100.76,3,786.245
1/4/2012 18:00,-8.9,-12.6,75,11,9.7,100.69,3,454.244
1/4/2012 19:00,-8.4,-12.7,71,9,16.1,100.65,3,696.272
1/4/2012 20:00,-7.8,-12.1,71,9,16.1,100.61,3,239.95
1/4/2012 21:00,-7.6,-11.6,73,7,11.3,100.54,3,70.0824
1/4/2012 22:00,-9.5,-12.7,77,6,9.7,100.5,3,3.32205
1/4/2012 23:00,-9.6,-12.6,79,6,9.7,100.42,3,0.06706
1/5/2012 0:00,-8.8,-11.7,79,4,9.7,100.32,3,3.05691
1/5/2012 1:00,-7.5,-10.2,81,0,9.7,100.29,3,5.51192
1/5/2012 2:00,-5.4,-8.3,80,9,8,100.28,3,0.05684
1/5/2012 3:00,-5,-7.7,81,11,9.7,100.24,3,297.624
1/5/2012 4:00,-4.1,-6.5,83,9,4.8,100.21,3,209.147
1/5/2012 5:00,-7,-9.5,82,4,4,100.19,3,732.781
1/5/2012 6:00,-8.2,-10.7,82,6,6.4,100.26,3,353.252
1/5/2012 7:00,-7.1,-9.7,82,9,9.7,100.31,3,407.441
1/5/2012 8:00,-6.1,-9.1,79,11,9.7,100.39,3,193.233
1/5/2012 9:00,-6.6,-10.1,76,9,24.1,100.42,1,162.603
1/5/2012 10:00,-6,-10,73,17,48.3,100.45,1,15.8119
1/5/2012 11:00,-5.6,-10.2,70,22,48.3,100.41,1,10.6704
1/5/2012 12:00,-4.7,-9.6,69,20,48.3,100.38,1,8.7212
1/5/2012 13:00,-4.4,-9.7,66,26,48.3,100.4,1,23.461
1/5/2012 14:00,-5.1,-10.7,65,22,48.3,100.46,1,42.3547
1/5/2012 15:00,-4.3,-12,55,26,48.3,100.52,1,118.086
1/5/2012 16:00,-5,-12.7,55,19,24.1,100.6,1,266.631
1/5/2012 17:00,-6.7,-14.1,56,11,25,100.65,1,547.481
1/5/2012 18:00,-7.1,-14.4,56,11,25,100.71,1,767.513
1/5/2012 19:00,-9.2,-15.4,61,7,25,100.8,1,306.786
1/5/2012 20:00,-9.8,-15.7,62,9,25,100.83,1,273.808
1/5/2012 21:00,-9,-14.8,63,13,25,100.83,1,177.51
1/5/2012 22:00,-9.9,-15.7,63,7,25,100.85,2,25.508
1/5/2012 23:00,-9.4,-15.5,61,9,25,100.83,2,0.04428
1/6/2012 0:00,-9.6,-16.8,56,13,25,100.81,2,14.8878
1/6/2012 1:00,-10,-17.3,55,17,25,100.81,2,5.67389
1/6/2012 2:00,-10.5,-16.5,61,9,25,100.84,2,53.2531
1/6/2012 3:00,-10.6,-16,64,0,9.7,100.76,3,120.237
1/6/2012 4:00,-11.3,-16.1,68,15,3.2,100.7,3,326.943
1/6/2012 5:00,-11.8,-16,71,19,2.8,100.61,3,605.515
1/6/2012 6:00,-12,-16.2,71,22,4.8,100.58,3,495.969
1/6/2012 7:00,-14.4,-16.3,85,22,2.4,100.52,3,737.185
1/6/2012 8:00,-12.3,-16.2,73,24,11.3,100.51,3,383.276
1/6/2012 9:00,-12.5,-16.7,71,26,19.3,100.53,3,153.624
1/6/2012 10:00,-12.3,-16.3,72,28,16.1,100.47,3,15.4586
1/6/2012 11:00,-12,-16,72,17,24.1,100.36,3,0.00822
1/6/2012 12:00,-11.7,-15.4,74,28,19.3,100.23,3,2.25106
1/6/2012 13:00,-11.9,-15.6,74,20,24.1,100.13,3,29.7185
1/6/2012 14:00,-11.2,-14.8,75,19,19.3,100.07,3,76.6334
1/6/2012 15:00,-11.5,-14.4,79,19,12.9,100.06,3,162.34
1/6/2012 16:00,-11.6,-14.7,78,19,19.3,100.1,3,280.501
1/6/2012 17:00,-11.2,-14.3,78,17,25,100.15,3,432.564
1/6/2012 18:00,-10.5,-13.6,78,17,19.3,100.12,2,468.194
1/6/2012 19:00,-10.5,-13.4,79,15,25,100.13,2,334.72
1/6/2012 20:00,-10.2,-13,80,11,25,100.15,2,185.82
1/6/2012 21:00,-9.5,-12.5,79,9,25,100.13,2,218.287
1/6/2012 22:00,-9.3,-12.2,79,11,19.3,100.16,2,130.107
1/6/2012 23:00,-9,-12,79,7,16.1,100.15,2,4.99061
1/7/2012 0:00,-8.7,-11.7,79,6,16.1,100.13,2,1.3331
1/7/2012 1:00,-8.5,-11.4,80,0,19.3,100.11,2,52.7534
1/7/2012 2:00,-8.1,-11.1,79,4,19.3,100.15,2,65.26
1/7/2012 3:00,-7.8,-10.8,79,4,19.3,100.12,2,109.438
1/7/2012 4:00,-7.5,-10.5,79,6,19.3,100.1,2,320.563
1/7/2012 5:00,-6.9,-9.7,80,4,19.3,100.12,2,766.414
1/7/2012 6:00,-6.7,-9.5,80,7,16.1,100.12,2,632.049
1/7/2012 7:00,-7,-9.7,81,7,16.1,100.16,2,608.192
1/7/2012 8:00,-6.4,-9,82,9,8,100.1,3,201.041
1/7/2012 9:00,-6.1,-8.7,82,7,9.7,100.15,3,244.715
1/7/2012 10:00,-5.7,-8,84,7,8,100.13,3,21.013
1/7/2012 11:00,-5.4,-7.7,84,9,9.7,100.08,3,19.4961
1/7/2012 12:00,-5.5,-7.8,84,13,9.7,100.05,3,0.29132
1/7/2012 13:00,-4.8,-7.2,83,15,9.7,100.07,3,33.7543
1/7/2012 14:00,-4.4,-6.9,83,6,8,100.09,3,13.1223
1/7/2012 15:00,-3.7,-6.1,83,11,8,100.09,3,227.216
1/7/2012 16:00,-3.6,-5.9,84,0,8,100.15,3,354.499
1/7/2012 17:00,-3.1,-5.4,84,13,8,100.27,3,522.397
1/7/2012 18:00,-3.2,-5.3,85,6,9.7,100.33,3,624.896
1/7/2012 19:00,-3,-5,86,6,8,100.41,3,358.844
1/7/2012 20:00,-1.8,-3.7,87,4,9.7,100.48,3,195.451
1/7/2012 21:00,-1.3,-3.1,88,0,6.4,100.5,3,55.233
1/7/2012 22:00,-1.5,-3,89,4,4,100.54,2,8.40755
1/7/2012 23:00,0.4,-1.5,87,22,9.7,100.62,3,16.6593
1/8/2012 0:00,0.6,-3.2,76,32,25,100.72,2,5.29986
1/8/2012 1:00,-0.6,-4.6,74,32,25,100.8,2,32.7776
1/8/2012 2:00,-1.7,-6.2,71,30,25,100.98,2,81.4802
1/8/2012 3:00,-3.5,-8.3,69,32,25,101.13,1,144.341
1/8/2012 4:00,-4.4,-9.2,69,22,25,101.21,1,438.896
1/8/2012 5:00,-5.9,-10.5,70,13,25,101.33,1,644.838
1/8/2012 6:00,-5.8,-10.8,68,13,25,101.47,2,604.175
1/8/2012 7:00,-5.6,-10.3,69,11,25,101.59,2,423.692
1/8/2012 8:00,-5.9,-10.7,69,11,24.1,101.7,3,247.244
1/8/2012 9:00,-6.4,-11.9,65,17,24.1,101.81,3,140.361
1/8/2012 10:00,-6.5,-11.6,67,17,9.7,101.89,3,52.6143
1/8/2012 11:00,-7.1,-12.6,65,22,24.1,101.92,3,0.92268
1/8/2012 12:00,-6.7,-11.9,66,15,24.1,101.9,3,0.81033
1/8/2012 13:00,-6.5,-12.4,63,15,24.1,101.94,2,7.77238
1/8/2012 14:00,-6.5,-12,65,19,24.1,101.97,2,10.455
1/8/2012 15:00,-6.6,-12.9,61,20,48.3,102.04,2,330.499
1/8/2012 16:00,-6.6,-13.3,59,20,24.1,102.09,2,197.267
1/8/2012 17:00,-7.2,-13.8,59,17,25,102.17,1,603.185
1/8/2012 18:00,-8.1,-14.1,62,17,25,102.23,1,276.94
1/8/2012 19:00,-8,-13.9,62,15,25,102.26,2,437.713
1/8/2012 20:00,-8.3,-13.7,65,15,25,102.28,2,342.129
1/8/2012 21:00,-8.3,-13.9,64,11,25,102.26,2,333.453
1/8/2012 22:00,-8.7,-14,65,7,25,102.22,2,89.3188
1/8/2012 23:00,-9,-13.9,68,7,25,102.22,2,2.12559
1/9/2012 0:00,-9.2,-14.3,66,6,25,102.17,2,0.37143
1/9/2012 1:00,-9.8,-14.5,68,0,25,102.13,2,37.7137
1/9/2012 2:00,-9,-14.1,66,4,25,102.15,2,25.2565
1/9/2012 3:00,-8.8,-13.2,70,0,25,102.11,2,149.653
1/9/2012 4:00,-8.5,-13.2,69,9,25,102.02,2,307.686
1/9/2012 5:00,-8.4,-12.7,71,11,25,101.93,2,570.203
1/9/2012 6:00,-7.7,-11.9,72,11,25,101.86,2,479.862
1/9/2012 7:00,-6.8,-11,72,15,25,101.8,2,340.538
1/9/2012 8:00,-5.9,-10.5,70,13,16.1,101.74,3,319.17
1/9/2012 9:00,-5.4,-9.2,75,11,12.9,101.68,3,298.594
1/9/2012 10:00,-4.8,-8.3,76,9,16.1,101.64,3,74.9472
1/9/2012 11:00,-3.7,-7.2,77,7,24.1,101.54,3,0.08277
1/9/2012 12:00,-2.5,-6.6,73,9,24.1,101.4,2,0.83205
1/9/2012 13:00,-1.7,-5.8,74,7,24.1,101.27,2,4.45144
1/9/2012 14:00,-1.4,-5.1,76,7,24.1,101.2,2,26.2286
1/9/2012 15:00,-1,-5.1,74,9,24.1,101.13,2,186.424
1/9/2012 16:00,-1.3,-5.7,72,11,24.1,101.05,2,300.067
1/9/2012 17:00,-1.4,-5.8,72,15,24.1,100.96,2,583.023
1/9/2012 18:00,-1,-5.6,71,20,25,100.9,2,506.578
1/9/2012 19:00,-1.1,-5.8,70,19,25,100.83,2,478.53
1/9/2012 20:00,-1.5,-6.2,70,15,25,100.77,2,230.131
1/9/2012 21:00,-1.7,-6.3,71,11,25,100.64,2,83.0429
1/9/2012 22:00,-0.3,-6.3,64,19,25,100.54,2,4.25047
1/9/2012 23:00,-0.2,-6.1,64,17,25,100.45,2,5.10306
1/10/2012 0:00,2.5,-5.2,57,30,25,100.38,2,10.3983
1/10/2012 1:00,2.3,-3.4,66,35,25,100.28,3,10.9028
1/10/2012 2:00,1.4,-2.5,75,19,6.4,100.23,3,7.77532
1/10/2012 3:00,1.6,-2,77,28,25,100.16,3,135.889
1/10/2012 4:00,1.2,-1.7,81,26,25,100.07,2,350.062
1/10/2012 5:00,0.8,-1.2,86,30,9.7,100.02,3,429.508
1/10/2012 6:00,0.7,-1.2,87,30,8,100.04,3,316.506
1/10/2012 7:00,1.5,-0.7,85,20,8,100.08,3,806.554
1/10/2012 8:00,1.2,-1.1,85,24,16.1,100.11,2,527.605
1/10/2012 9:00,1.6,-0.8,84,17,19.3,100.23,2,77.1145
1/10/2012 10:00,2,-0.9,81,24,24.1,100.27,2,58.0797
1/10/2012 11:00,2.6,-1.1,77,22,24.1,100.29,1,1.20948
1/10/2012 12:00,1.4,-3.1,72,30,24.1,100.32,2,2.20118
1/10/2012 13:00,0.7,-5.4,64,26,24.1,100.36,2,25.7535
1/10/2012 14:00,-0.2,-6.2,64,26,24.1,100.45,1,103.99
1/10/2012 15:00,-1.4,-7.9,61,30,24.1,100.65,1,82.0514
1/10/2012 16:00,-3.1,-10.9,55,30,24.1,100.81,2,273.926
1/10/2012 17:00,-4,-12,54,17,24.1,100.91,2,434.396
1/10/2012 18:00,-4.9,-12.7,54,15,25,101.04,2,462.428
1/10/2012 19:00,-5.7,-13.8,53,15,25,101.15,2,519.612
1/10/2012 20:00,-6.4,-14.3,53,13,25,101.24,2,306.14
1/10/2012 21:00,-6.6,-13.6,57,9,25,101.32,2,121.032
1/10/2012 22:00,-7.3,-14.7,55,13,25,101.34,2,3.84201
1/10/2012 23:00,-8.6,-15.6,57,19,25,101.44,2,0.70148
1/11/2012 0:00,-9.5,-16.8,55,17,25,101.43,2,25.5379
1/11/2012 1:00,-10.7,-17.8,56,17,25,101.49,1,6.73176
1/11/2012 2:00,-12,-18.9,56,19,25,101.57,1,35.4543
1/11/2012 3:00,-12.7,-19.4,57,19,25,101.64,1,280.166
1/11/2012 4:00,-13.4,-20.1,57,17,25,101.66,1,168.951
1/11/2012 5:00,-13.9,-21,55,19,25,101.66,1,559.224
1/11/2012 6:00,-14.4,-21.1,57,20,25,101.72,1,563.936
1/11/2012 7:00,-14.4,-21,57,13,25,101.77,2,452.636
1/11/2012 8:00,-14.7,-21.4,57,15,24.1,101.8,2,239.818
1/11/2012 9:00,-14.3,-20.8,58,15,24.1,101.81,2,102.363
1/11/2012 10:00,-13.9,-20.9,55,11,19.3,101.89,2,12.7244
1/11/2012 11:00,-13.4,-20.8,54,15,24.1,101.78,2,1.9763
1/11/2012 12:00,-12.7,-20.4,53,17,24.1,101.68,2,6.28317
1/11/2012 13:00,-12.2,-20,52,19,24.1,101.63,2,2.50415
1/11/2012 14:00,-11.4,-19.4,52,20,24.1,101.56,2,35.1278
1/11/2012 15:00,-11.6,-19.9,50,20,24.1,101.61,2,89.4853
1/11/2012 16:00,-11.8,-20.9,47,20,24.1,101.6,2,291.993
1/11/2012 17:00,-11.9,-20.1,51,26,24.1,101.56,2,628.946
1/11/2012 18:00,-12,-19.9,52,24,25,101.51,2,637.45
1/11/2012 19:00,-11.8,-19.2,54,30,25,101.43,2,414.03
1/11/2012 20:00,-11.2,-18.1,57,24,25,101.4,2,658.105
1/11/2012 21:00,-11.2,-16.5,65,19,25,101.32,2,90.2567
1/11/2012 22:00,-10.8,-16,65,22,25,101.29,2,3.28945
1/11/2012 23:00,-10.7,-15.7,67,20,25,101.19,2,5.05268
1/12/2012 0:00,-10,-15.2,66,19,25,101.17,2,0.2034
1/12/2012 1:00,-9.8,-15.2,65,24,25,101.13,2,51.6389
1/12/2012 2:00,-9.4,-15,64,26,25,101.08,2,37.3254
1/12/2012 3:00,-9,-14.7,63,33,25,101.02,2,225.583
1/12/2012 4:00,-8.5,-14.1,64,22,25,100.93,2,217.668
1/12/2012 5:00,-8,-13.7,64,30,25,100.81,2,375.707
1/12/2012 6:00,-7.6,-13.1,65,28,25,100.76,2,264.157
1/12/2012 7:00,-7.3,-12.7,65,28,16.1,100.69,3,741.587
1/12/2012 8:00,-7.1,-11.3,72,33,6.4,100.61,3,163.07
1/12/2012 9:00,-6.8,-10.5,75,33,3.2,100.54,3,111.23
1/12/2012 10:00,-6.2,-9.6,77,35,4.8,100.46,3,21.4818
1/12/2012 11:00,-6,-9.5,76,32,2,100.35,3,5.71822
1/12/2012 12:00,-5.8,-8.9,79,32,4.8,100.22,3,3.75275
1/12/2012 13:00,-5.8,-8.6,81,33,1.2,100.09,3,10.9122
1/12/2012 14:00,-5.7,-8.5,81,28,1.2,99.97,3,0.77195
1/12/2012 15:00,-5.2,-7.6,83,26,0.8,99.9,3,109.904
1/12/2012 16:00,-4.9,-7.3,83,33,0.6,99.88,3,258.384
1/12/2012 17:00,-5.1,-7.6,83,33,1,99.83,3,642.036
1/12/2012 18:00,-5.4,-8.1,81,35,1.2,99.76,3,572.381
1/12/2012 19:00,-5,-7.6,82,30,4,99.72,3,683.449
1/12/2012 20:00,-5,-7.8,81,28,6.4,99.64,3,317.495
1/12/2012 21:00,-4.7,-7.6,80,24,6.4,99.56,3,119.125
1/12/2012 22:00,-4.1,-6.8,81,26,25,99.47,3,143.815
1/12/2012 23:00,-4.6,-7,83,28,3.2,99.4,3,0.42203
1/13/2012 0:00,-5.1,-7.5,83,28,2.4,99.3,3,7.44247
1/13/2012 1:00,-5,-7.7,81,24,4.8,99.24,3,9.08182
1/13/2012 2:00,-4.8,-7.5,81,22,25,99.22,3,18.3886
1/13/2012 3:00,-4.5,-6.9,83,19,4.8,99.19,3,347.585
1/13/2012 4:00,-5,-7.4,83,24,11.3,99.13,2,249.362
1/13/2012 5:00,-5.1,-7.7,82,20,12.9,99.06,2,528.94
1/13/2012 6:00,-5.4,-7.8,83,22,16.1,98.94,2,670.233
1/13/2012 7:00,-5.1,-7.7,82,22,16.1,98.84,2,469.48
1/13/2012 8:00,-5.1,-7.5,83,26,8,98.69,3,219.913
1/13/2012 9:00,-5,-7.3,84,32,4.8,98.56,3,130.232
1/13/2012 10:00,-4.8,-7.2,83,26,12.9,98.44,3,8.96177
1/13/2012 11:00,-4.8,-7.3,83,28,9.7,98.22,3,0.20418
1/13/2012 12:00,-4.8,-7.5,81,24,2,98.07,3,14.6215
1/13/2012 13:00,-4.9,-7.3,83,20,1.2,97.99,3,8.2562
1/13/2012 14:00,-4.8,-7,85,6,2,98.07,3,95.8359
1/13/2012 15:00,-4.3,-6.5,85,13,8,98.1,3,109.066
1/13/2012 16:00,-3.7,-6,84,11,6.4,98.16,3,227.869
1/13/2012 17:00,-2.9,-4.8,87,15,1.6,98.23,3,277.9
1/13/2012 18:00,-1.7,-3.3,89,26,16.1,98.32,3,796.267
1/13/2012 19:00,-2.5,-4.5,86,33,2,98.6,3,341.633
1/13/2012 20:00,-3.2,-5.1,87,32,2,98.89,3,258.316
1/13/2012 21:00,-4.8,-7.9,79,37,4.8,99.09,3,179.601
1/13/2012 22:00,-5.5,-10.1,70,32,12.9,99.28,3,9.40578
1/13/2012 23:00,-7.6,-11.2,75,35,9.7,99.51,3,25.1592
1/14/2012 0:00,-8.9,-13.1,72,39,9.7,99.67,3,17.809
1/14/2012 1:00,-9.7,-14.3,69,24,12.9,99.85,3,38.0801
1/14/2012 2:00,-11.2,-15.5,70,28,9.7,100.01,3,28.5818
1/14/2012 3:00,-12,-16.2,71,24,8,100.16,3,85.4605
1/14/2012 4:00,-13.4,-18.9,63,20,16.1,100.26,3,260.88
1/14/2012 5:00,-14.3,-19.8,63,24,25,100.39,2,675.394
1/14/2012 6:00,-15.2,-20.6,63,24,25,100.6,2,656.572
1/14/2012 7:00,-16.8,-22.2,63,26,25,100.73,2,457.57
1/14/2012 8:00,-17.9,-23.5,62,20,24.1,100.84,2,272.553
1/14/2012 9:00,-18,-23.6,61,19,24.1,100.97,2,150.797
1/14/2012 10:00,-18,-23.9,60,22,24.1,101.08,2,24.6582
1/14/2012 11:00,-17.8,-23.9,59,20,24.1,101.14,2,0
1/14/2012 12:00,-17.5,-23.8,58,20,48.3,101.16,2,6.30357
1/14/2012 13:00,-17.1,-24.1,55,17,48.3,101.18,1,10.4603
1/14/2012 14:00,-16.7,-23.4,56,17,48.3,101.2,2,4.49918
1/14/2012 15:00,-16.7,-23.4,56,22,48.3,101.24,2,133.607
1/14/2012 16:00,-16.7,-24.3,52,19,24.1,101.3,2,311.074
1/14/2012 17:00,-17.4,-24.4,54,13,25,101.36,2,586.373
1/14/2012 18:00,-17.7,-24.3,56,20,25,101.46,1,589.271
1/14/2012 19:00,-18.3,-24.4,59,17,25,101.56,1,495.89
1/14/2012 20:00,-19.6,-25.8,58,13,25,101.62,1,233.426
1/14/2012 21:00,-20,-25.9,59,11,25,101.65,2,267.452
1/14/2012 22:00,-19.9,-26,58,13,25,101.74,2,10.2458
1/14/2012 23:00,-20.3,-26.2,59,9,25,101.79,2,0.49404
1/15/2012 0:00,-21.2,-26.8,61,11,25,101.81,2,16.7175
1/15/2012 1:00,-21.1,-26.6,61,9,25,101.86,2,3.23819
1/15/2012 2:00,-21.4,-26.6,63,9,25,101.99,2,60.8157
1/15/2012 3:00,-20.7,-26.1,62,4,25,102.04,2,168.841
1/15/2012 4:00,-21,-26.6,61,0,25,102.12,2,242.222
1/15/2012 5:00,-21.3,-26.5,63,6,25,102.19,2,539.79
1/15/2012 6:00,-23.2,-28.5,62,7,25,102.28,2,611.303
1/15/2012 7:00,-22.8,-28,62,9,25,102.37,1,332.066
1/15/2012 8:00,-23.3,-28.5,62,7,24.1,102.45,1,250.144
1/15/2012 9:00,-22.2,-27.8,60,9,48.3,102.57,1,240.915
1/15/2012 10:00,-20.6,-26.8,58,9,48.3,102.66,1,6.37303
1/15/2012 11:00,-19.3,-26.1,55,9,48.3,102.68,1,6.42947
1/15/2012 12:00,-18,-25.5,52,13,48.3,102.67,1,5.29223
1/15/2012 13:00,-16.8,-24.2,53,20,48.3,102.65,1,23.9319
1/15/2012 14:00,-16,-23.4,53,26,48.3,102.66,1,46.8843
1/15/2012 15:00,-15.4,-22.8,53,24,48.3,102.71,1,73.9789
1/15/2012 16:00,-15.1,-22.8,52,24,48.3,102.79,1,249.852
1/15/2012 17:00,-16.2,-23.2,55,15,25,102.85,1,356.157
1/15/2012 18:00,-16.3,-22.9,57,17,25,102.89,1,701.185
1/15/2012 19:00,-16.3,-22.7,58,20,25,102.94,1,364.867
1/15/2012 20:00,-16.7,-22.4,61,17,25,102.98,1,221.913
1/15/2012 21:00,-16.9,-22.2,63,15,25,103.02,1,111.791
1/15/2012 22:00,-16.9,-21.7,66,17,25,103.07,1,139.852
1/15/2012 23:00,-16.9,-21.4,68,15,25,103.09,1,1.11792
1/16/2012 0:00,-17.1,-21.9,66,15,25,103.09,1,2.36234
1/16/2012 1:00,-17.8,-22.7,65,6,25,103.05,1,29.9072
1/16/2012 2:00,-18.5,-23,68,6,25,103.08,1,58.5361
1/16/2012 3:00,-19.2,-23.8,67,6,25,103.07,1,195.949
1/16/2012 4:00,-18.7,-23.5,66,0,25,103.05,1,293.215
1/16/2012 5:00,-19.1,-23.3,69,0,25,103.02,1,281.272
1/16/2012 6:00,-18.7,-23.2,68,0,25,103.01,1,461.884
1/16/2012 7:00,-17.9,-21.5,73,4,48.3,102.96,1,276.823
1/16/2012 8:00,-17.9,-22.6,67,9,48.3,102.9,2,347.207
1/16/2012 9:00,-14.4,-20.7,59,22,48.3,102.75,2,129.201
1/16/2012 10:00,-13.6,-18.7,65,19,48.3,102.62,2,33.165
1/16/2012 11:00,-12.7,-17.7,66,20,48.3,102.44,2,6.29039
1/16/2012 12:00,-10.7,-16.9,60,19,48.3,102.17,2,1.61393
1/16/2012 13:00,-10.1,-16.1,61,13,48.3,101.92,2,21.3381
1/16/2012 14:00,-9,-13.8,68,13,48.3,101.71,2,19.255
1/16/2012 15:00,-8,-13.8,63,17,48.3,101.49,2,195.019
1/16/2012 16:00,-7.1,-14.1,57,9,48.3,101.41,2,382.466
1/16/2012 17:00,-7.6,-14.8,56,4,25,101.34,2,589.857
1/16/2012 18:00,-12.5,-17.5,66,15,25,101.31,1,566.606
1/16/2012 19:00,-14.8,-19.1,70,15,25,101.23,1,261.476
1/16/2012 20:00,-14,-18.3,70,13,25,101.19,2,288.672
1/16/2012 21:00,-12.9,-17.1,71,11,25,101.12,2,86.9181
1/16/2012 22:00,-12.2,-16.5,70,9,25,101.05,2,119.142
1/16/2012 23:00,-11.5,-15.7,71,7,25,100.98,2,6.31867
1/17/2012 0:00,-10.8,-15,71,9,25,100.94,2,10.6943
1/17/2012 1:00,-10.4,-14.6,71,9,25,100.88,2,18.6183
1/17/2012 2:00,-9.7,-13.7,73,9,25,100.84,2,4.25047
1/17/2012 3:00,-9.2,-13.2,73,6,25,100.84,2,157.455
1/17/2012 4:00,-9,-12.2,78,6,6.4,100.8,3,329.327
1/17/2012 5:00,-8.3,-10.4,85,6,3.6,100.75,3,429.113
1/17/2012 6:00,-7.7,-9.9,84,6,2.4,100.72,3,610.431
1/17/2012 7:00,-7.5,-9.6,85,9,2,100.69,3,411.573
1/17/2012 8:00,-7.4,-9.6,84,9,2.4,100.65,3,221.405
1/17/2012 9:00,-7,-9.5,82,15,4,100.59,3,175.592
1/17/2012 10:00,-6.5,-9,82,15,1.2,100.6,3,4.34117
1/17/2012 11:00,-6.1,-8.5,83,15,2.4,100.53,3,2.62996
1/17/2012 12:00,-5.3,-7.9,82,19,2.8,100.38,3,7.59007
1/17/2012 13:00,-5.1,-7.7,82,22,2.4,100.23,3,39.558
1/17/2012 14:00,-4.3,-6.5,85,22,1.6,100.05,3,22.8781
1/17/2012 15:00,-3.7,-6,84,24,1.2,99.9,3,133.701
1/17/2012 16:00,-3.5,-6,83,28,1.2,99.69,3,326.382
1/17/2012 17:00,-3.6,-5.9,84,22,1.6,99.57,3,371.785
1/17/2012 18:00,-3.5,-5.8,84,22,2.4,99.38,3,575.555
1/17/2012 19:00,-3.3,-5.6,84,24,4.8,99.22,3,316.366
1/17/2012 20:00,-3.6,-5.7,85,24,3.2,98.98,3,747.339
1/17/2012 21:00,-2.9,-4.9,86,26,2.8,98.71,3,223.748
1/17/2012 22:00,-1.6,-3.2,89,17,3.2,98.47,3,32.3631
1/17/2012 23:00,-0.6,-2.1,90,7,2.8,98.32,3,7.33182
1/18/2012 0:00,2.1,0.7,90,11,8,98.31,2,4.94338
1/18/2012 1:00,3.7,-2.1,66,83,25,98.36,2,25.3281
1/18/2012 2:00,0.5,-4,72,70,25,98.62,2,20.2926
1/18/2012 3:00,-3.5,-8.2,70,57,25,99,2,99.9117
1/18/2012 4:00,-6.1,-10.9,69,48,25,99.36,3,156.903
1/18/2012 5:00,-7.7,-12.4,69,46,19.3,99.7,3,552.279
1/18/2012 6:00,-8.5,-13.9,65,39,19.3,100,2,373.398
1/18/2012 7:00,-9.8,-15.4,64,39,19.3,100.22,1,633.872
1/18/2012 8:00,-10.9,-16.6,63,35,24.1,100.43,1,250.749
1/18/2012 9:00,-11.2,-17.2,61,43,24.1,100.65,1,47.22
1/18/2012 10:00,-11.2,-17.2,61,35,24.1,100.78,1,17.8729
1/18/2012 11:00,-11.1,-17.7,58,39,24.1,100.92,1,2.27944
1/18/2012 12:00,-11,-17.8,57,37,24.1,101,1,5.30771
1/18/2012 13:00,-10.6,-17.8,55,32,24.1,101.09,1,25.2687
1/18/2012 14:00,-10.3,-17.6,55,28,48.3,101.19,1,23.6988
1/18/2012 15:00,-10.4,-18,54,30,48.3,101.32,1,158.12
1/18/2012 16:00,-10.6,-18.4,53,26,48.3,101.45,1,394.917
1/18/2012 17:00,-11.3,-18.8,54,26,48.3,101.54,1,533.732
1/18/2012 18:00,-12,-18.2,60,22,25,101.67,1,570.408
1/18/2012 19:00,-12.7,-18.7,61,22,25,101.78,1,310.979
1/18/2012 20:00,-13.4,-19.2,62,17,25,101.83,1,366.703
1/18/2012 21:00,-13.7,-19.3,63,17,25,101.89,1,228.993
1/18/2012 22:00,-14.2,-19.8,62,13,25,101.92,1,7.66937
1/18/2012 23:00,-14.9,-19.9,66,6,25,101.93,1,21.5583
1/19/2012 0:00,-16.6,-20.9,69,7,25,101.94,1,0.0265
1/19/2012 1:00,-15.2,-18.4,76,4,25,101.89,1,30.1397
1/19/2012 2:00,-14.3,-17.4,77,6,25,101.86,1,5.98596
1/19/2012 3:00,-18,-21.6,73,6,25,101.83,1,103.289
1/19/2012 4:00,-15.4,-18.3,78,7,25,101.81,1,403.94
1/19/2012 5:00,-16.6,-19.9,76,6,25,101.85,1,390.076
1/19/2012 6:00,-15.3,-19.7,69,6,25,101.83,1,335.537
1/19/2012 7:00,-14.6,-19.2,68,6,24.1,101.84,1,501.751
1/19/2012 8:00,-13.7,-18.4,68,19,48.3,101.84,1,296.256
1/19/2012 9:00,-12.7,-17.2,69,17,48.3,101.73,1,180.106
1/19/2012 10:00,-11.7,-17.2,64,20,48.3,101.68,1,7.05839
1/19/2012 11:00,-11,-16.9,62,26,48.3,101.56,2,1.35544
1/19/2012 12:00,-8.8,-15.4,59,15,48.3,101.42,2,10.5036
1/19/2012 13:00,-7.3,-14.7,55,20,48.3,101.22,2,11.8401
1/19/2012 14:00,-7,-14.9,53,20,48.3,101.03,2,14.8106
1/19/2012 15:00,-6.7,-15,52,26,48.3,100.88,2,69.324
1/19/2012 16:00,-6.7,-14.9,52,24,24.1,100.76,2,465.273
1/19/2012 17:00,-6.9,-14.7,54,17,24.1,100.7,2,717.301
1/19/2012 18:00,-5,-12.9,54,19,25,100.66,2,547.367
1/19/2012 19:00,-3.6,-12.7,49,30,25,100.61,3,614.125
1/19/2012 20:00,-3.7,-11.9,53,30,16.1,100.63,3,220.827
1/19/2012 21:00,-5,-8.4,77,24,2,100.6,3,122.557
1/19/2012 22:00,-4.2,-9.3,68,32,25,100.51,3,46.7906
1/19/2012 23:00,-4.1,-8.9,69,26,25,100.47,3,0.16198
1/20/2012 0:00,-4.1,-8.6,71,26,25,100.5,2,1.57736
1/20/2012 1:00,-4.1,-8.3,73,20,25,100.54,3,15.5098
1/20/2012 2:00,-3.9,-8.1,73,22,9.7,100.64,3,15.5301
1/20/2012 3:00,-4.8,-9.9,67,19,25,100.75,2,50.3976
1/20/2012 4:00,-6,-10.2,72,19,16.1,100.87,3,321.014
1/20/2012 5:00,-6.3,-12.2,63,33,25,100.98,3,503.846
1/20/2012 6:00,-7.6,-14.3,59,28,25,101.13,2,609.832
1/20/2012 7:00,-8.6,-15.6,57,28,25,101.27,2,458.453
1/20/2012 8:00,-10.4,-16.2,62,33,24.1,101.47,1,354.547
1/20/2012 9:00,-12.2,-18.1,61,32,24.1,101.59,1,226.98
1/20/2012 10:00,-13.7,-20.3,57,33,24.1,101.72,1,7.19556
1/20/2012 11:00,-14.2,-21.2,55,32,24.1,101.84,1,2.27083
1/20/2012 12:00,-15.2,-22.1,56,30,24.1,101.88,1,0.09005
1/20/2012 13:00,-15.8,-23.7,51,30,24.1,101.96,1,28.8248
1/20/2012 14:00,-15.5,-24.1,48,30,48.3,101.98,1,123.366
1/20/2012 15:00,-15,-23.9,47,30,48.3,102.09,1,188.578
1/20/2012 16:00,-14.8,-24.1,45,24,48.3,102.15,1,356.941
1/20/2012 17:00,-15.4,-24.3,46,17,48.3,102.21,1,459.402
1/20/2012 18:00,-15.9,-24.3,48,13,25,102.27,1,345.623
1/20/2012 19:00,-16.3,-24.2,51,13,25,102.33,1,651.6
1/20/2012 20:00,-16.9,-24.8,50,9,25,102.34,1,291.108
1/20/2012 21:00,-18.5,-25.6,54,9,25,102.37,1,134.946
1/20/2012 22:00,-18.1,-25.1,54,9,25,102.36,1,4.54599
1/20/2012 23:00,-17.4,-24.5,54,6,25,102.37,2,7.21845
1/21/2012 0:00,-16.4,-23.7,53,6,25,102.29,2,9.50147
1/21/2012 1:00,-16.1,-23.6,52,0,25,102.26,2,18.1531
1/21/2012 2:00,-15.3,-22.8,53,0,25,102.27,2,11.294
1/21/2012 3:00,-15.9,-21.9,60,7,25,102.23,2,243.23
1/21/2012 4:00,-15.3,-21.8,58,7,25,102.18,2,327.274
1/21/2012 5:00,-14.8,-22.9,50,11,25,102.08,2,783.675
1/21/2012 6:00,-14.3,-22,52,9,25,101.98,2,460.039
1/21/2012 7:00,-13.9,-22.1,50,9,25,102.04,2,578.413
1/21/2012 8:00,-14,-21.8,52,9,25,102.06,2,222.544
1/21/2012 9:00,-15.9,-21,65,13,24.1,102.11,3,264.913
1/21/2012 10:00,-16.3,-21.4,65,17,24.1,102.12,3,69.0747
1/21/2012 11:00,-15.9,-21.2,64,19,24.1,102.09,3,3.15451
1/21/2012 12:00,-14.6,-20.3,62,15,24.1,102.03,2,5.14758
1/21/2012 13:00,-13.4,-19.8,59,15,24.1,102.01,1,24.3795
1/21/2012 14:00,-12.5,-19.7,55,13,24.1,102.01,1,39.3477
1/21/2012 15:00,-11.8,-18.9,56,11,24.1,102.06,1,170.641
1/21/2012 16:00,-11.6,-18.8,55,7,48.3,102.11,1,194.522
1/21/2012 17:00,-12.1,-19.8,53,11,48.3,102.16,1,269.781
1/21/2012 18:00,-13,-20.2,55,6,25,102.24,1,661.474
1/21/2012 19:00,-13.4,-19.9,58,4,25,102.27,1,443.541
1/21/2012 20:00,-18.5,-24.4,60,4,25,102.36,1,452.43
1/21/2012 21:00,-16,-20.8,66,9,25,102.47,1,81.3453
1/21/2012 22:00,-17.6,-23.3,61,0,25,102.52,1,16.4857
1/21/2012 23:00,-17.4,-21.7,69,0,25,102.54,1,0.1343
1/22/2012 0:00,-18.3,-22.5,70,0,25,102.57,1,29.3725
1/22/2012 1:00,-17.5,-21.3,72,4,25,102.64,1,25.4597
1/22/2012 2:00,-18.5,-22.6,70,0,25,102.71,1,57.1202
1/22/2012 3:00,-18.4,-23,67,0,16.1,102.75,2,333.39
1/22/2012 4:00,-17.2,-21.5,69,0,25,102.79,1,208.787
1/22/2012 5:00,-19.5,-23.4,71,6,16.1,102.84,1,442.53
1/22/2012 6:00,-19,-22.9,71,6,0.8,102.85,3,522.932
1/22/2012 7:00,-18.6,-22.8,69,6,12.9,102.91,1,509.659
1/22/2012 8:00,-18.5,-22,74,4,24.1,102.98,1,323.417
1/22/2012 9:00,-16.2,-19.2,78,7,48.3,103.01,2,64.8117
1/22/2012 10:00,-14.5,-17.2,80,9,8,103.02,2,6.26408
1/22/2012 11:00,-13,-15.5,81,6,8,103.04,2,0.82889
1/22/2012 12:00,-11.5,-15.4,73,9,8,102.97,2,27.2062
1/22/2012 13:00,-11.2,-16,68,11,8,102.86,2,15.227
1/22/2012 14:00,-9.4,-14.8,65,9,16.1,102.74,2,42.1676
1/22/2012 15:00,-8.7,-14.5,63,9,16.1,102.65,2,145.949
1/22/2012 16:00,-8,-14.7,59,6,19.3,102.6,2,198.366
1/22/2012 17:00,-9.5,-15.8,60,19,19.3,102.57,2,460.273
1/22/2012 18:00,-10.4,-16.1,63,19,19.3,102.52,2,408.849
1/22/2012 19:00,-10.4,-16.2,62,19,19.3,102.47,2,429.219
1/22/2012 20:00,-12.3,-16.8,69,15,19.3,102.44,1,230.536
1/22/2012 21:00,-12.9,-17.2,70,15,16.1,102.38,1,88.1687
1/22/2012 22:00,-13.2,-17,73,13,16.1,102.33,2,2.02702
1/22/2012 23:00,-13.3,-17.1,73,9,16.1,102.28,1,0.35446
1/23/2012 0:00,-12.9,-17,71,11,25,102.22,2,25.9673
1/23/2012 1:00,-12.9,-17.2,70,11,25,102.14,1,17.3206
1/23/2012 2:00,-13.2,-17.1,72,13,25,102.1,2,21.6969
1/23/2012 3:00,-12.1,-16,73,13,25,101.99,2,171.733
1/23/2012 4:00,-11.2,-15.2,72,11,25,101.88,2,309.845
1/23/2012 5:00,-9.9,-13.9,73,11,25,101.79,2,383.063
1/23/2012 6:00,-8.8,-12.8,73,7,25,101.76,2,451.998
1/23/2012 7:00,-8.1,-12.1,73,13,25,101.67,2,358.178
1/23/2012 8:00,-7.2,-11.1,74,11,24.1,101.69,2,297.065
1/23/2012 9:00,-4.9,-9.2,72,11,48.3,101.59,2,284.818
1/23/2012 10:00,-3.6,-7.9,72,9,48.3,101.58,2,8.55173
1/23/2012 11:00,1.2,-3.2,72,11,48.3,101.49,2,0.81369
1/23/2012 12:00,2.3,-2.4,71,6,48.3,101.33,2,0.81116
1/23/2012 13:00,2.5,-1.5,75,22,48.3,101.14,2,16.2432
1/23/2012 14:00,2.7,-1.1,76,26,48.3,101.01,3,51.7841
1/23/2012 15:00,2.7,-0.9,77,30,24.1,100.86,3,267.018
1/23/2012 16:00,3.1,-0.3,78,28,24.1,100.71,2,270.761
1/23/2012 17:00,3.1,-0.4,78,28,16.1,100.61,3,425.059
1/23/2012 18:00,3,1.2,88,19,4,100.54,3,395.186
1/23/2012 19:00,3.2,1.4,88,22,8,100.43,3,538.033
1/23/2012 20:00,2.9,1.2,89,26,9.7,100.32,3,412.309
1/23/2012 21:00,3.3,1.7,89,24,11.3,100.22,3,297.256
1/23/2012 22:00,3.6,2.2,91,28,25,100.1,2,43.8025
1/23/2012 23:00,4,2.5,90,22,25,100.08,2,0.08892
1/24/2012 0:00,3.5,2.3,92,17,12.9,100.04,3,2.18307
1/24/2012 1:00,3.1,1.9,92,19,16.1,100.04,2,5.67583
1/24/2012 2:00,3.1,2.1,93,9,9.7,100.09,3,69.8127
1/24/2012 3:00,5,3.6,91,19,9.7,100.19,3,107.859
1/24/2012 4:00,4.2,1.2,81,30,25,100.25,2,356.112
1/24/2012 5:00,3.7,-0.2,76,41,25,100.37,2,442.622
1/24/2012 6:00,3.4,-0.6,75,28,25,100.45,2,631.931
1/24/2012 7:00,2.9,-1.1,75,26,16.1,100.49,2,446.662
1/24/2012 8:00,3,-1.7,71,28,19.3,100.52,2,497.411
1/24/2012 9:00,2.9,-1.8,71,30,24.1,100.6,2,261.153
1/24/2012 10:00,3,-2,70,35,24.1,100.65,2,1.08203
1/24/2012 11:00,3.1,-1.9,70,33,24.1,100.7,2,30.1635
1/24/2012 12:00,3.2,-2.3,67,30,24.1,100.72,2,4.94443
1/24/2012 13:00,2.8,-2.4,69,39,24.1,100.73,2,53.1801
1/24/2012 14:00,2.4,-2.4,71,35,24.1,100.75,3,41.4551
1/24/2012 15:00,1.9,-2.2,74,26,19.3,100.8,3,265.178
1/24/2012 16:00,1.7,-2.4,74,30,24.1,100.82,2,338.362
1/24/2012 17:00,1.6,-2.8,73,26,24.1,100.88,3,383.859
1/24/2012 18:00,1.5,-2.9,72,22,25,100.95,3,428.44
1/24/2012 19:00,1.5,-3.2,71,32,25,101.01,3,504.491
1/24/2012 20:00,1.3,-3.2,72,19,25,101.06,2,273.255
1/24/2012 21:00,1.1,-3,74,20,25,101.11,2,238.586
1/24/2012 22:00,1.1,-3.4,72,22,25,101.13,2,45.6929
1/24/2012 23:00,1,-3.4,72,28,25,101.16,3,0.34566
1/25/2012 0:00,0.5,-4.6,69,28,25,101.2,2,8.43542
1/25/2012 1:00,-0.1,-5.2,68,22,25,101.26,2,11.1358
1/25/2012 2:00,-0.4,-5.9,66,20,25,101.37,2,66.8256
1/25/2012 3:00,-0.5,-6.2,65,24,25,101.45,2,325.503
1/25/2012 4:00,-0.7,-6,67,24,25,101.52,2,397.104
1/25/2012 5:00,-1.7,-7.7,64,33,25,101.58,2,528.721
1/25/2012 6:00,-2.8,-9,62,35,25,101.66,2,575.004
1/25/2012 7:00,-3.9,-10,63,37,25,101.79,2,448.978
1/25/2012 8:00,-4.7,-10.9,62,26,24.1,101.94,2,364.827
1/25/2012 9:00,-5.2,-11.3,62,28,24.1,102.05,2,124.113
1/25/2012 10:00,-5.3,-11.4,62,22,24.1,102.09,2,7.79009
1/25/2012 11:00,-5.3,-11.9,60,19,24.1,102.14,2,0.24329
1/25/2012 12:00,-5,-11.8,59,20,24.1,102.06,2,0.95331
1/25/2012 13:00,-4.7,-11.7,58,20,24.1,102.01,1,37.1688
1/25/2012 14:00,-4.5,-11,60,22,24.1,101.98,1,36.8968
1/25/2012 15:00,-4.4,-11.2,59,22,24.1,101.94,1,77.3122
1/25/2012 16:00,-4.4,-11.3,59,19,24.1,101.96,2,208.921
1/25/2012 17:00,-4.8,-11.4,60,20,24.1,102.01,1,562.629
1/25/2012 18:00,-5.1,-11.4,61,11,25,102.07,1,429.562
1/25/2012 19:00,-5.4,-11.5,62,13,25,102.14,2,516.673
1/25/2012 20:00,-4.9,-11.6,59,7,25,102.07,2,204.392
1/25/2012 21:00,-5.4,-11.1,64,7,25,102.01,2,194.603
1/25/2012 22:00,-5.5,-11.3,64,0,25,101.99,2,110.718
1/25/2012 23:00,-5.4,-11.4,63,6,25,102.01,2,0.81345
1/26/2012 0:00,-5.9,-11.7,64,6,25,101.99,2,1.46508
1/26/2012 1:00,-7,-12.1,67,4,25,101.95,1,0.0057
1/26/2012 2:00,-8.2,-12.6,71,6,25,101.99,1,48.0227
1/26/2012 3:00,-8.1,-12.5,71,0,25,101.97,1,134.69
1/26/2012 4:00,-8.5,-13.5,67,0,25,101.95,1,201.181
1/26/2012 5:00,-9,-13.9,68,6,25,102.02,1,424.819
1/26/2012 6:00,-11.2,-15,73,6,25,102.06,1,639.217
1/26/2012 7:00,-10.6,-14.4,74,6,24.1,102.01,1,461.463
1/26/2012 8:00,-9.2,-13.3,72,6,24.1,102.08,1,326.631
1/26/2012 9:00,-7.9,-12.4,70,11,24.1,102.01,1,261.506
1/26/2012 10:00,-5.7,-12.4,59,11,24.1,102.04,1,38.4084
1/26/2012 11:00,-5,-12.1,57,7,24.1,102.05,1,2.73628
1/26/2012 12:00,-4.6,-12.5,54,11,24.1,101.88,1,2.819
1/26/2012 13:00,-4,-12,54,15,24.1,101.71,2,2.5095
1/26/2012 14:00,-3.4,-12.5,49,11,24.1,101.6,2,58.8997
1/26/2012 15:00,-3,-14.1,42,13,24.1,101.53,2,255.301
1/26/2012 16:00,-3.8,-12.2,52,19,24.1,101.52,2,288.571
1/26/2012 17:00,-4.3,-12.2,54,20,24.1,101.4,2,504.859
1/26/2012 18:00,-4.7,-13.7,49,24,25,101.28,2,603.285
1/26/2012 19:00,-4.5,-13.5,49,17,25,101.25,2,342.201
1/26/2012 20:00,-4.6,-13,52,17,25,101.15,3,352.395
1/26/2012 21:00,-5.2,-12.1,58,20,25,100.99,3,273.719
1/26/2012 22:00,-5.3,-10.2,68,22,16.1,100.92,3,49.1966
1/26/2012 23:00,-5.8,-9.1,77,22,6.4,100.81,3,1.43815
1/27/2012 0:00,-5.7,-8.8,79,28,4.8,100.68,3,13.7329
1/27/2012 1:00,-5.5,-8.3,81,24,2.4,100.58,3,7.78775
1/27/2012 2:00,-5.5,-8.2,81,26,3.2,100.47,3,64.1822
1/27/2012 3:00,-5.3,-8.1,81,28,4,100.33,3,114.384
1/27/2012 4:00,-4.9,-7.6,81,26,2.4,100.13,3,317.316
1/27/2012 5:00,-4,-6.6,82,22,16.1,99.98,3,543.459
1/27/2012 6:00,-2.1,-4.2,86,19,19.3,99.8,3,652.124
1/27/2012 7:00,-0.8,-2.9,86,22,16.1,99.61,3,397.148
1/27/2012 8:00,0.3,-1.7,86,20,12.9,99.47,3,415.956
1/27/2012 9:00,0.7,-1.4,86,17,12.9,99.34,3,119.564
1/27/2012 10:00,0.6,-1.2,88,17,8,99.18,3,17.1858
1/27/2012 11:00,0.7,-1,88,20,2.4,99.08,3,0.75467
1/27/2012 12:00,0.7,-0.9,89,20,2.8,98.91,3,15.6634
1/27/2012 13:00,0.7,-1,88,22,3.2,98.76,3,20.5793
1/27/2012 14:00,0.5,-1.3,88,20,2.4,98.69,3,23.3158
1/27/2012 15:00,0.3,-1.6,87,19,2.4,98.65,3,91.1713
1/27/2012 16:00,-0.3,-2.3,86,19,8,98.74,3,250.974
1/27/2012 17:00,-0.6,-2.3,88,22,2.8,98.97,3,683.143
1/27/2012 18:00,-0.3,-1.8,90,11,2.4,99.13,3,466.429
1/27/2012 19:00,0.1,-1.6,88,30,12.9,99.31,3,450.3
1/27/2012 20:00,-0.7,-2.7,86,32,16.1,99.54,2,212.264
1/27/2012 21:00,-1.3,-3.9,82,19,24.1,99.75,2,177.784
1/27/2012 22:00,-1.5,-4.4,81,19,25,99.88,2,0.14087
1/27/2012 23:00,-1.6,-4.5,81,20,25,100.03,1,6.70821
1/28/2012 0:00,-1.5,-4.3,81,19,25,100.19,1,4.17168
1/28/2012 1:00,-0.2,-2.9,82,22,25,100.34,3,2.55556
1/28/2012 2:00,0.2,-2.6,81,24,25,100.49,2,63.0167
1/28/2012 3:00,0.4,-3,78,17,25,100.59,2,117.456
1/28/2012 4:00,0.1,-3.4,77,15,25,100.64,2,214.981
1/28/2012 5:00,0.3,-2.7,80,19,25,100.72,2,477.064
1/28/2012 6:00,-1.7,-5.4,76,9,25,100.79,2,548.997
1/28/2012 7:00,-1.2,-4.6,78,11,25,100.85,1,451.5
1/28/2012 8:00,-2.1,-5.1,80,7,48.3,100.91,1,265.446
1/28/2012 9:00,-1.6,-4.5,81,13,24.1,100.93,2,171.876
1/28/2012 10:00,-1.1,-4.4,78,13,48.3,100.94,2,115.431
1/28/2012 11:00,-0.6,-3.6,80,6,48.3,100.9,2,0.82756
1/28/2012 12:00,-0.3,-3.4,80,7,48.3,100.74,2,12.145
1/28/2012 13:00,0.9,-3.5,72,4,48.3,100.58,2,4.21711
1/28/2012 14:00,1.2,-3.5,71,9,48.3,100.48,2,83.9227
1/28/2012 15:00,1.2,-3.7,70,15,48.3,100.28,2,118.754
1/28/2012 16:00,1.4,-3.7,69,22,48.3,100.14,2,287.922
1/28/2012 17:00,1.2,-3.5,71,11,48.3,100.16,2,595.058
1/28/2012 18:00,1.6,-3.4,69,9,25,100.08,2,483.284
1/28/2012 19:00,2.2,-2.6,71,19,19.3,100.09,3,510.976
1/28/2012 20:00,1.7,-1.2,81,24,19.3,100.05,3,338.255
1/28/2012 21:00,2.1,-1.7,76,24,25,99.95,1,173.323
1/28/2012 22:00,2.3,-2,73,37,25,99.85,2,55.2849
1/28/2012 23:00,1.2,-1.7,81,52,16.1,99.87,3,4.08725
1/29/2012 0:00,1.5,-5,62,57,25,99.96,1,21.3908
1/29/2012 1:00,0.9,-5.3,63,52,25,100.09,1,27.3864
1/29/2012 2:00,0.3,-5.8,64,52,25,100.21,1,12.6682
1/29/2012 3:00,-0.2,-6,65,43,25,100.34,1,68.7759
1/29/2012 4:00,-0.9,-7,63,43,25,100.47,1,129.986
1/29/2012 5:00,-1.5,-7.8,62,43,25,100.59,1,412.538
1/29/2012 6:00,-2,-8.1,63,44,25,100.68,1,527.145
1/29/2012 7:00,-1.9,-8.2,62,32,24.1,100.74,1,339.035
1/29/2012 8:00,-2.2,-8.3,63,32,24.1,100.81,2,230.859
1/29/2012 9:00,-2.1,-8.5,62,32,24.1,100.88,2,78.5405
1/29/2012 10:00,-1.8,-8.3,61,24,24.1,100.87,2,0.52471
1/29/2012 11:00,-0.8,-7.7,59,33,24.1,100.84,1,1.44234
1/29/2012 12:00,0.1,-7.6,56,37,24.1,100.77,1,4.36869
1/29/2012 13:00,0.5,-8.8,50,33,24.1,100.7,2,31.3106
1/29/2012 14:00,0.4,-7.9,54,19,24.1,100.63,2,18.0814
1/29/2012 15:00,0.2,-7.5,56,17,24.1,100.65,2,137.765
1/29/2012 16:00,0.7,-8.3,51,20,24.1,100.67,2,214.459
1/29/2012 17:00,-0.7,-8.4,56,11,24.1,100.74,1,226.438
1/29/2012 18:00,-1.1,-9.3,54,17,25,100.77,1,401.132
1/29/2012 19:00,-1.6,-9.3,56,17,25,100.81,1,476.307
1/29/2012 20:00,-2,-9.1,58,17,25,100.83,1,268.075
1/29/2012 21:00,-1.7,-8.4,60,9,25,100.85,1,166.99
1/29/2012 22:00,-2.3,-7,70,15,25,100.84,1,6.81405
1/29/2012 23:00,-3.4,-7.6,73,15,25,100.85,1,2.76849
1/30/2012 0:00,-3.7,-8.8,68,11,25,100.89,1,25.2933
1/30/2012 1:00,-4.4,-10,65,15,25,100.92,1,20.4774
1/30/2012 2:00,-5.1,-10,68,15,25,100.99,1,83.1661
1/30/2012 3:00,-6.1,-10.3,72,11,25,101.07,1,122.485
1/30/2012 4:00,-7.7,-11.8,72,11,25,101.19,1,359.432
1/30/2012 5:00,-7.9,-13.8,63,13,25,101.33,1,465.967
1/30/2012 6:00,-8.9,-15.1,61,15,25,101.47,1,443.91
1/30/2012 7:00,-9.8,-16,61,15,25,101.55,1,553.256
1/30/2012 8:00,-10.5,-17,59,9,48.3,101.68,1,388.106
1/30/2012 9:00,-9.5,-16.6,56,13,48.3,101.75,1,402.994
1/30/2012 10:00,-8.8,-16,56,17,48.3,101.82,2,0.19915
1/30/2012 11:00,-7.7,-14.7,57,19,48.3,101.86,2,4.4506
1/30/2012 12:00,-7,-14.2,56,22,48.3,101.83,1,0.03981
1/30/2012 13:00,-7.5,-15.2,54,22,48.3,101.8,1,0.97754
1/30/2012 14:00,-6.7,-15,52,22,48.3,101.81,1,47.3186
1/30/2012 15:00,-6.9,-15.3,51,22,48.3,101.83,1,27.0602
1/30/2012 16:00,-7.3,-15.8,51,17,48.3,101.86,2,250.843
1/30/2012 17:00,-7.4,-15.7,51,13,48.3,101.9,2,360.87
1/30/2012 18:00,-7.4,-15.6,52,15,25,101.94,1,669.317
1/30/2012 19:00,-8.8,-15.9,56,7,25,101.96,1,347.803
1/30/2012 20:00,-9.5,-16,59,4,25,101.95,1,389.229
1/30/2012 21:00,-8.4,-15.5,57,4,25,101.96,2,134.597
1/30/2012 22:00,-7.8,-15.2,55,4,25,101.98,2,29.934
1/30/2012 23:00,-8.6,-13.8,66,6,25,101.96,2,0.58055
1/31/2012 0:00,-7,-13.1,62,7,25,101.92,2,6.16273
1/31/2012 1:00,-7.1,-13.2,62,6,25,101.88,2,22.7065
1/31/2012 2:00,-6.5,-13.1,59,11,25,101.81,3,22.3121
1/31/2012 3:00,-6.8,-12.4,64,15,19.3,101.76,3,87.3954
1/31/2012 4:00,-7.1,-12.4,66,17,8,101.71,3,192.679
1/31/2012 5:00,-7.1,-12.2,67,17,9.7,101.7,3,972.536
1/31/2012 6:00,-7,-11.8,69,13,6.4,101.65,3,294.587
1/31/2012 7:00,-9.6,-13.5,73,17,12.9,101.6,3,510.77
1/31/2012 8:00,-9.8,-13.9,72,19,16.1,101.61,3,208.662
1/31/2012 9:00,-10.1,-14.4,71,17,24.1,101.59,3,169.7
1/31/2012 10:00,-9.7,-14.2,70,19,19.3,101.54,2,5.16209
1/31/2012 11:00,-9.3,-14.2,67,20,19.3,101.46,2,0.60981
1/31/2012 12:00,-8.6,-13.3,69,22,4,101.36,3,8.66949
1/31/2012 13:00,-8.3,-12.3,73,20,1.6,101.29,3,22.2978
1/31/2012 14:00,-8.4,-12.1,75,20,1.2,101.23,3,6.04963
1/31/2012 15:00,-8.2,-12,74,17,1,101.22,3,95.3012
1/31/2012 16:00,-8,-11.5,76,20,1,101.2,3,319.335
1/31/2012 17:00,-7.7,-11.1,77,19,1,101.19,3,399.432
1/31/2012 18:00,-7.8,-11.2,77,20,1.6,101.18,3,509.042
1/31/2012 19:00,-7.7,-10.9,78,19,1.6,101.14,3,401.382
1/31/2012 20:00,-7.4,-10.7,77,20,1.6,101.09,3,207.679
1/31/2012 21:00,-7.1,-10.5,77,20,12.9,101.02,2,170.023
1/31/2012 22:00,-7.1,-10.4,77,19,9.7,100.95,3,0.1717
1/31/2012 23:00,-6.8,-9.9,79,22,9.7,100.86,3,0.7377
2/1/2012 0:00,-6.7,-9.7,79,19,11.3,100.82,3,0.58449
2/1/2012 1:00,-6.7,-9.5,80,15,9.7,100.69,3,0.9191
2/1/2012 2:00,-6.8,-9.3,82,19,4.8,100.61,3,33.631
2/1/2012 3:00,-6.5,-9,82,15,4.8,100.56,3,117.506
2/1/2012 4:00,-5.8,-8.2,83,17,8,100.48,3,272.534
2/1/2012 5:00,-5.8,-8.5,81,19,8,100.42,3,459.493
2/1/2012 6:00,-5.4,-8,82,15,8,100.34,3,572.234
2/1/2012 7:00,-5.5,-8.2,81,13,9.7,100.33,3,299.125
2/1/2012 8:00,-5.5,-8.5,79,11,11.3,100.36,2,266.525
2/1/2012 9:00,-5.7,-8.6,80,15,12.9,100.36,2,238.534
2/1/2012 10:00,-5.7,-8.5,81,13,8,100.35,2,13.3191
2/1/2012 11:00,-5.8,-8.3,82,9,4,100.36,3,0.78731
2/1/2012 12:00,-5.5,-8,83,11,2,100.31,3,5.94211
2/1/2012 13:00,-5,-7.7,81,11,2,100.28,3,19.8919
2/1/2012 14:00,-4.9,-7.4,83,9,2,100.34,3,24.7424
2/1/2012 15:00,-4.9,-7.5,82,6,2.8,100.41,3,213.125
2/1/2012 16:00,-4.5,-7.2,81,0,4.8,100.47,2,238.66
2/1/2012 17:00,-4.3,-7.1,81,0,6.4,100.61,3,502.621
2/1/2012 18:00,-4,-6.9,80,0,4,100.68,3,569.584
2/1/2012 19:00,-3.9,-6.7,81,6,4,100.78,3,326.531
2/1/2012 20:00,-3.6,-6.4,81,4,4.8,100.85,3,270.624
2/1/2012 21:00,-4.3,-7.2,80,15,4,100.99,3,316.161
2/1/2012 22:00,-5,-8.2,78,15,12.9,101.12,3,29.8628
2/1/2012 23:00,-4.9,-8.1,78,0,12.9,101.22,3,0.15303
2/2/2012 0:00,-5,-8.2,78,7,12.9,101.32,3,0.27337
2/2/2012 1:00,-5.5,-9.2,75,9,25,101.36,2,37.1055
2/2/2012 2:00,-6.3,-9.6,77,4,16.1,101.45,3,37.4934
2/2/2012 3:00,-5.6,-9.1,76,6,25,101.52,3,52.9001
2/2/2012 4:00,-5.5,-8.8,78,4,16.1,101.59,3,192.222
2/2/2012 5:00,-5.2,-9.5,72,9,16.1,101.62,3,448.92
2/2/2012 6:00,-6,-11.8,63,13,25,101.63,3,602.78
2/2/2012 7:00,-6.9,-12.8,63,22,24.1,101.67,3,556.13
2/2/2012 8:00,-7.6,-13.2,64,19,12.9,101.74,3,286.953
2/2/2012 9:00,-7.7,-13.6,63,19,19.3,101.82,3,102.255
2/2/2012 10:00,-8.2,-13.7,65,17,24.1,101.87,2,33.2288
2/2/2012 11:00,-8.3,-14.2,62,19,24.1,101.89,2,14.7019
2/2/2012 12:00,-8.1,-13.3,66,13,24.1,101.86,2,15.4377
2/2/2012 13:00,-7.4,-12.7,66,9,24.1,101.86,2,0.87698
2/2/2012 14:00,-6.7,-12,66,9,24.1,101.85,2,22.8879
2/2/2012 15:00,-6.7,-12.1,65,9,24.1,101.9,2,53.478
2/2/2012 16:00,-6.6,-11.7,67,11,24.1,101.94,2,183.664
2/2/2012 17:00,-7.1,-12,68,13,24.1,101.99,2,423.554
2/2/2012 18:00,-7.7,-12.5,68,7,25,102.08,2,429.89
2/2/2012 19:00,-7,-12.2,66,6,25,102.13,2,456.18
2/2/2012 20:00,-8.9,-12.8,73,4,25,102.22,2,318.377
2/2/2012 21:00,-7.2,-11,74,4,25,102.26,3,175.73
2/2/2012 22:00,-8,-11.5,76,7,25,102.29,3,23.6765
2/2/2012 23:00,-7.2,-11.1,74,7,25,102.31,2,29.1764
2/3/2012 0:00,-9.7,-12.5,80,4,25,102.33,2,24.1993
2/3/2012 1:00,-11,-13.5,82,0,25,102.35,1,3.72153
2/3/2012 2:00,-10.2,-12.7,82,0,25,102.39,1,95.0896
2/3/2012 3:00,-11.6,-14,82,0,25,102.4,1,145.831
2/3/2012 4:00,-12.6,-15.1,82,7,16.1,102.42,1,197.062
2/3/2012 5:00,-11.2,-13.2,85,9,9.7,102.47,2,318.576
2/3/2012 6:00,-11.8,-14.1,83,7,16.1,102.51,1,511.037
2/3/2012 7:00,-11.3,-13.7,82,9,16.1,102.59,2,377.757
2/3/2012 8:00,-10.6,-13.3,80,9,19.3,102.62,2,363.87
2/3/2012 9:00,-8.8,-11.9,78,6,24.1,102.62,2,132.535
2/3/2012 10:00,-6.8,-10.2,77,7,19.3,102.61,2,2.10312
2/3/2012 11:00,-6.3,-10,75,11,6.4,102.57,3,0.45729
2/3/2012 12:00,-6.2,-9.5,77,11,16.1,102.46,3,8.01219
2/3/2012 13:00,-4.8,-8.3,76,6,16.1,102.34,3,7.75839
2/3/2012 14:00,-3.8,-7.4,76,7,16.1,102.27,3,53.2339
2/3/2012 15:00,-2.9,-7.8,69,19,19.3,102.25,3,107.727
2/3/2012 16:00,-3.3,-7.3,74,13,16.1,102.21,3,267.954
2/3/2012 17:00,-3.4,-7,76,11,19.3,102.19,2,800.141
2/3/2012 18:00,-3.7,-7.1,77,7,19.3,102.17,3,511.001
2/3/2012 19:00,-3.8,-7.2,77,9,25,102.17,3,415.247
2/3/2012 20:00,-4.2,-7.7,77,11,25,102.16,2,199.112
2/3/2012 21:00,-4.7,-8,78,7,25,102.17,2,128.784
2/3/2012 22:00,-5.3,-8.6,78,0,25,102.1,2,23.7808
2/3/2012 23:00,-3.7,-6.7,80,6,25,102.03,3,1.31776
2/4/2012 0:00,-4.5,-6.8,84,9,2,102.02,3,3.66924
2/4/2012 1:00,-4.5,-6.7,85,11,25,101.98,2,0.74622
2/4/2012 2:00,-4,-7.4,77,20,25,102.07,2,90.9436
2/4/2012 3:00,-4.9,-10.5,65,15,25,102.11,2,157.083
2/4/2012 4:00,-7.1,-12.7,64,13,25,102.16,1,125.659
2/4/2012 5:00,-8.1,-13.3,66,15,25,102.21,1,416.228
2/4/2012 6:00,-9.4,-13.9,70,9,25,102.27,1,543.448
2/4/2012 7:00,-11,-14.7,74,7,48.3,102.25,1,539.158
2/4/2012 8:00,-11.6,-15.6,72,9,48.3,102.31,1,324.491
2/4/2012 9:00,-9.6,-14.1,70,13,48.3,102.37,1,66.7082
2/4/2012 10:00,-8.4,-13.7,66,6,48.3,102.32,1,25.0749
2/4/2012 11:00,-7.6,-13.6,62,0,48.3,102.29,1,0.59785
2/4/2012 12:00,-6.6,-13.2,59,4,48.3,102.21,1,16.7087
2/4/2012 13:00,-6.3,-12.7,60,13,48.3,102.11,1,16.3557
2/4/2012 14:00,-6,-12.7,59,6,48.3,102.05,1,30.2124
2/4/2012 15:00,-5.4,-12.6,57,11,48.3,102.01,1,88.686
2/4/2012 16:00,-5.7,-12.8,57,9,48.3,101.99,1,153.278
2/4/2012 17:00,-6.2,-13.5,56,11,48.3,101.97,1,636.673
2/4/2012 18:00,-6.6,-13.7,57,9,25,101.96,1,550.896
2/4/2012 19:00,-7.7,-14,61,7,25,101.97,1,421.068
2/4/2012 20:00,-8.8,-14.4,64,6,25,101.97,1,404.488
2/4/2012 21:00,-9.9,-14.5,69,6,25,101.97,1,296.902
2/4/2012 22:00,-10.3,-14.9,69,0,25,101.93,1,55.8865
2/4/2012 23:00,-10.1,-14.3,71,0,25,101.89,1,0.05075
2/5/2012 0:00,-11.9,-15.3,76,6,25,101.89,1,11.8691
2/5/2012 1:00,-12.1,-15,79,6,25,101.87,1,6.31247
2/5/2012 2:00,-14.4,-17.1,80,6,25,101.88,1,8.55389
2/5/2012 3:00,-12.9,-15.7,79,6,25,101.86,1,69.8946
2/5/2012 4:00,-14.9,-17.9,78,6,25,101.86,1,147.566
2/5/2012 5:00,-14.2,-17,79,7,25,101.91,1,363.691
2/5/2012 6:00,-14.7,-17.5,79,4,19.3,101.93,1,517.82
2/5/2012 7:00,-15.7,-18.6,78,4,24.1,101.93,1,478.907
2/5/2012 8:00,-15,-17.5,81,4,24.1,101.95,1,279.091
2/5/2012 9:00,-13.5,-16.1,81,0,24.1,101.97,1,160.661
2/5/2012 10:00,-11.1,-13.4,83,9,0.8,101.97,3,71.9736
2/5/2012 11:00,-10.5,-12.4,86,11,12.9,101.95,2,0.2358
2/5/2012 12:00,-8.7,-11.7,79,9,24.1,101.82,1,1.34663
2/5/2012 13:00,-7.2,-12.1,68,13,24.1,101.72,1,26.5107
2/5/2012 14:00,-5.5,-11.8,61,20,24.1,101.63,2,25.2717
2/5/2012 15:00,-5.3,-11.4,62,15,24.1,101.55,2,104.872
2/5/2012 16:00,-4.7,-10.7,63,6,19.3,101.48,2,155.076
2/5/2012 17:00,-4.2,-10,64,9,25,101.43,2,317.996
2/5/2012 18:00,-3.9,-9.7,64,15,25,101.41,2,375.331
2/5/2012 19:00,-3.1,-8.6,66,15,25,101.34,2,424.779
2/5/2012 20:00,-2.8,-8,67,24,25,101.25,2,199.335
2/5/2012 21:00,-2.5,-7.7,67,26,25,101.18,2,87.8432
2/5/2012 22:00,-2.1,-6.7,71,28,25,101.06,2,2.57908
2/5/2012 23:00,-1.5,-5.7,73,30,25,100.93,2,0.02066
2/6/2012 0:00,-0.7,-5.2,72,30,25,100.86,2,4.79803
2/6/2012 1:00,-0.8,-5.2,72,24,25,100.8,2,31.0566
2/6/2012 2:00,0.1,-4.7,70,32,25,100.75,3,46.4803
2/6/2012 3:00,0.1,-3.3,78,30,25,100.77,2,111.753
2/6/2012 4:00,0.8,-3.7,72,35,25,100.68,3,492.833
2/6/2012 5:00,1,-3.8,70,26,25,100.7,2,478.214
2/6/2012 6:00,1.1,-3.6,71,32,25,100.63,2,430.427
2/6/2012 7:00,1.2,-3.5,71,37,24.1,100.62,2,287.732
2/6/2012 8:00,1.1,-3.8,70,33,24.1,100.63,2,384.063
2/6/2012 9:00,1.1,-3.6,71,32,24.1,100.62,2,174.955
2/6/2012 10:00,1.4,-3.3,71,32,24.1,100.6,2,96.3741
2/6/2012 11:00,1.9,-2.8,71,35,24.1,100.57,2,44.2418
2/6/2012 12:00,2.6,-2.4,70,22,24.1,100.5,2,5.48967
2/6/2012 13:00,2.6,-2.9,67,32,24.1,100.47,2,0.04505
2/6/2012 14:00,3,-3.3,63,33,24.1,100.45,2,118.325
2/6/2012 15:00,3.3,-3.3,62,30,24.1,100.46,2,148.729
2/6/2012 16:00,3.3,-3.1,63,17,24.1,100.47,2,333.845
2/6/2012 17:00,2.9,-2.8,66,13,25,100.51,2,382.049
2/6/2012 18:00,3.2,-2.8,65,11,25,100.57,2,780.355
2/6/2012 19:00,3.1,-2.6,66,13,25,100.62,2,375.054
2/6/2012 20:00,2.6,-2.6,69,11,25,100.65,2,334.658
2/6/2012 21:00,3,-2.2,69,15,25,100.67,2,219.244
2/6/2012 22:00,2.7,-2.6,68,13,25,100.68,2,20.3715
2/6/2012 23:00,2.2,-2.9,69,13,25,100.7,2,0.7203
2/7/2012 0:00,1.9,-3.1,69,13,25,100.77,2,2.66038
2/7/2012 1:00,1.8,-3.4,68,15,25,100.82,2,12.4828
2/7/2012 2:00,1.5,-4.4,65,15,25,100.89,2,12.8183
2/7/2012 3:00,0.8,-5,65,19,25,100.94,3,94.5976
2/7/2012 4:00,-1,-8.3,58,19,25,101.03,2,251.874
2/7/2012 5:00,-1.9,-8.4,61,15,25,101.14,1,338.62
2/7/2012 6:00,-2.9,-8.8,64,20,25,101.27,2,682.34
2/7/2012 7:00,-5.5,-12.6,57,17,24.1,101.39,1,279.506
2/7/2012 8:00,-6.1,-12.8,59,17,24.1,101.53,1,343.686
2/7/2012 9:00,-6.2,-13.3,57,19,24.1,101.64,1,195.543
2/7/2012 10:00,-6.2,-13.4,57,19,24.1,101.69,1,51.6203
2/7/2012 11:00,-6,-13.7,54,11,24.1,101.74,1,0.85572
2/7/2012 12:00,-5.6,-13.1,55,13,24.1,101.73,1,1.18694
2/7/2012 13:00,-5.2,-14.3,49,15,24.1,101.73,1,17.157
2/7/2012 14:00,-5.1,-15.1,45,15,24.1,101.79,1,31.1362
2/7/2012 15:00,-4.8,-15.4,43,19,24.1,101.85,1,81.9646
2/7/2012 16:00,-5,-16.4,40,22,24.1,101.88,1,284.795
2/7/2012 17:00,-5.9,-17.6,39,19,48.3,101.94,1,652.306
2/7/2012 18:00,-7.3,-17.4,44,11,25,102.03,1,473.475
2/7/2012 19:00,-8.2,-17.8,46,9,25,102.09,1,435.298
2/7/2012 20:00,-9.2,-18.4,47,11,25,102.12,1,215.449
2/7/2012 21:00,-9.6,-18.9,47,13,25,102.15,1,98.277
2/7/2012 22:00,-10.8,-20.1,46,9,25,102.21,1,41.4419
2/7/2012 23:00,-11.8,-20.8,47,9,25,102.21,1,2.1749
2/8/2012 0:00,-13.8,-21.5,52,4,25,102.21,1,3.89109
2/8/2012 1:00,-11.9,-20.6,48,9,25,102.21,1,33.824
2/8/2012 2:00,-12.1,-20.4,50,6,25,102.2,1,25.9827
2/8/2012 3:00,-12.4,-20.4,51,11,25,102.15,1,304.988
2/8/2012 4:00,-14,-21,55,4,25,102.13,1,329.388
2/8/2012 5:00,-12.6,-21.2,49,0,25,102.11,1,490.912
2/8/2012 6:00,-12.4,-21.1,48,9,25,102.06,1,514.169
2/8/2012 7:00,-11.7,-18,59,15,24.1,102.07,1,287.439
2/8/2012 8:00,-10.8,-17,60,13,48.3,102.09,1,184.801
2/8/2012 9:00,-9.6,-15.1,64,15,48.3,102.07,1,149.403
2/8/2012 10:00,-8.2,-14.6,60,17,48.3,102.04,1,35.8673
2/8/2012 11:00,-6.3,-13.7,56,17,48.3,101.93,1,19.7034
2/8/2012 12:00,-4.6,-12.9,52,20,48.3,101.76,1,0.6893
2/8/2012 13:00,-3.3,-12.9,47,32,48.3,101.63,1,7.28948
2/8/2012 14:00,-2.4,-12.2,47,24,48.3,101.54,1,25.2145
2/8/2012 15:00,-1.8,-12.8,43,32,48.3,101.45,1,137.157
2/8/2012 16:00,-1.6,-11.9,45,22,48.3,101.37,1,363.313
2/8/2012 17:00,-2.1,-12,47,17,48.3,101.31,1,488.343
2/8/2012 18:00,-2.5,-12.6,46,19,24.1,101.27,1,425.095
2/8/2012 19:00,-3.2,-12.4,49,22,25,101.28,1,359.019
2/8/2012 20:00,-3.3,-12.1,51,22,25,101.26,1,372.462
2/8/2012 21:00,-3.1,-10.3,57,26,25,101.25,1,107.964
2/8/2012 22:00,-3.6,-8.6,68,17,25,101.22,1,8.64631
2/8/2012 23:00,-3.6,-8.1,71,20,25,101.19,1,0.58537
2/9/2012 0:00,-4,-8.3,72,13,25,101.17,1,11.8392
2/9/2012 1:00,-3.4,-7.9,71,13,25,101.16,1,15.3143
2/9/2012 2:00,-3.9,-8,73,11,25,101.17,1,20.5132
2/9/2012 3:00,-3.5,-7.9,72,24,25,101.12,1,80.0346
2/9/2012 4:00,-3.4,-8,70,26,25,101.1,1,116.378
2/9/2012 5:00,-4.1,-8.3,73,20,25,101.11,1,425.375
2/9/2012 6:00,-4.9,-8.9,73,20,25,101.13,1,526.512
2/9/2012 7:00,-5.4,-9.1,75,17,24.1,101.19,1,536.167
2/9/2012 8:00,-4.9,-8.8,74,20,24.1,101.23,1,417.903
2/9/2012 9:00,-3.5,-8,71,22,24.1,101.25,1,113.73
2/9/2012 10:00,-2.5,-7.8,67,28,24.1,101.26,1,25.5128
2/9/2012 11:00,-1.2,-7.3,63,24,24.1,101.27,1,40.2626
2/9/2012 12:00,-0.1,-7.3,58,24,48.3,101.19,1,3.3678
2/9/2012 13:00,0.7,-7.1,56,26,48.3,101.13,1,42.1885
2/9/2012 14:00,1.5,-6.3,56,30,24.1,101.05,1,60.7095
2/9/2012 15:00,2.4,-6.2,53,24,48.3,101.03,1,74.1954
2/9/2012 16:00,2.7,-6.5,51,22,48.3,101.01,1,347.529
2/9/2012 17:00,2,-6.3,54,20,48.3,101.02,1,340.656
2/9/2012 18:00,1.6,-6.6,54,22,24.1,101.06,1,516.119
2/9/2012 19:00,0.4,-5.9,63,20,25,101.1,1,395.61
2/9/2012 20:00,0.5,-6.6,59,17,25,101.11,1,246.292
2/9/2012 21:00,0.2,-5.5,65,22,25,101.13,1,185.85
2/9/2012 22:00,0.8,-4.7,67,28,25,101.11,1,1.61647
2/9/2012 23:00,0.1,-4.9,69,26,25,101.1,1,0.85529
2/10/2012 0:00,0.4,-3.5,75,22,25,101.12,1,23.5086
2/10/2012 1:00,0.1,-4.1,73,19,25,101.13,1,27.508
2/10/2012 2:00,0,-4.3,73,22,25,101.15,1,86.7601
2/10/2012 3:00,-1,-4.3,78,17,25,101.13,1,378.903
2/10/2012 4:00,-0.8,-4.4,77,20,25,101.1,1,326.596
2/10/2012 5:00,-0.8,-4.3,77,22,25,101.07,1,405.931
2/10/2012 6:00,-0.7,-4,78,22,25,101.07,1,679.557
2/10/2012 7:00,-0.5,-3.9,78,20,24.1,101.09,2,376.863
2/10/2012 8:00,-0.9,-4.2,78,17,24.1,101.12,2,264.709
2/10/2012 9:00,-0.1,-3.5,78,19,24.1,101.12,2,22.197
2/10/2012 10:00,0.9,-3.7,71,28,24.1,101.1,2,1.09602
2/10/2012 11:00,1.4,-4.1,67,20,24.1,101.08,2,44.4069
2/10/2012 12:00,1.4,-3.9,68,24,24.1,100.97,2,0.37417
2/10/2012 13:00,1.3,-4.7,64,24,24.1,100.92,2,21.1194
2/10/2012 14:00,1.1,-3.5,71,30,24.1,100.91,2,39.1975
2/10/2012 15:00,1.3,-4,68,28,24.1,100.94,2,179.316
2/10/2012 16:00,1,-4.1,69,30,24.1,100.9,2,166.775
2/10/2012 17:00,0.9,-4.8,66,22,25,100.87,2,413.265
2/10/2012 18:00,0.4,-4.8,68,17,25,100.92,2,420.955
2/10/2012 19:00,0,-5.2,68,17,25,100.91,2,544.534
2/10/2012 20:00,-0.2,-5.2,69,15,25,100.88,3,284.621
2/10/2012 21:00,-0.4,-4.7,73,13,25,100.84,2,39.4172
2/10/2012 22:00,-0.7,-3,84,11,16.1,100.78,3,38.9091
2/10/2012 23:00,-0.9,-2.4,90,6,9.7,100.76,3,3.49806
2/11/2012 0:00,-1.4,-2.3,94,9,6.4,100.78,3,11.3977
2/11/2012 1:00,-7.4,-8.9,89,24,3.6,100.83,3,36.6821
2/11/2012 2:00,-8.6,-11,83,30,8,100.91,3,104.064
2/11/2012 3:00,-9.5,-12.4,79,22,6.4,100.93,3,191.055
2/11/2012 4:00,-10.8,-13.4,81,22,16.1,100.98,3,377.107
2/11/2012 5:00,-11.5,-14.4,79,20,16.1,100.99,3,396.943
2/11/2012 6:00,-12.2,-14.8,81,24,9.7,101,3,434.307
2/11/2012 7:00,-13,-15.7,80,20,12.9,100.96,3,484.295
2/11/2012 8:00,-13.7,-17.1,75,20,16.1,101.01,3,305.01
2/11/2012 9:00,-13.7,-19.1,64,20,24.1,101.04,2,280.982
2/11/2012 10:00,-13.4,-18.8,64,19,24.1,101.05,3,19.5985
2/11/2012 11:00,-13.1,-18.8,62,11,24.1,101.03,3,32.1243
2/11/2012 12:00,-12.8,-17.2,70,9,19.3,100.97,3,15.9246
2/11/2012 13:00,-12.1,-16.4,70,7,24.1,100.85,2,4.05208
2/11/2012 14:00,-11.3,-17.4,61,6,48.3,100.76,1,9.63009
2/11/2012 15:00,-10.8,-18.8,52,11,48.3,100.73,1,172.021
2/11/2012 16:00,-10.4,-18.3,52,6,48.3,100.7,1,507.684
2/11/2012 17:00,-10.5,-17,59,4,25,100.68,1,565.81
2/11/2012 18:00,-12.8,-17.9,66,4,25,100.72,1,715.063
2/11/2012 19:00,-14,-21.2,54,7,25,100.74,1,427.289
2/11/2012 20:00,-14.4,-19.9,63,9,25,100.73,1,381.452
2/11/2012 21:00,-13.9,-18.6,68,7,25,100.71,1,129.73
2/11/2012 22:00,-13.5,-18.2,68,6,25,100.7,1,4.52029
2/11/2012 23:00,-14.5,-20.8,59,13,25,100.68,1,6.63063
2/12/2012 0:00,-15,-22.4,53,11,25,100.66,1,7.44035
2/12/2012 1:00,-15.3,-23.1,51,11,25,100.62,2,10.7857
2/12/2012 2:00,-15.9,-23.7,51,6,25,100.6,1,95.98
2/12/2012 3:00,-16.8,-23.9,54,9,25,100.57,1,119.024
2/12/2012 4:00,-16.6,-23.8,54,11,25,100.6,2,325.358
2/12/2012 5:00,-16.4,-22.8,58,11,25,100.59,3,498.385
2/12/2012 6:00,-16.7,-23.3,57,15,25,100.6,3,409.884
2/12/2012 7:00,-16.7,-23.5,56,19,24.1,100.64,3,359.347
2/12/2012 8:00,-16.9,-24.1,54,17,24.1,100.68,2,325.074
2/12/2012 9:00,-16.7,-24.6,50,17,24.1,100.72,3,97.375
2/12/2012 10:00,-16.6,-25.1,48,17,48.3,100.73,2,26.3739
2/12/2012 11:00,-16.1,-25.3,45,20,48.3,100.72,1,5.6936
2/12/2012 12:00,-14.8,-23.8,46,24,48.3,100.61,1,5.97641
2/12/2012 13:00,-13.9,-23.2,45,20,48.3,100.55,1,2.43015
2/12/2012 14:00,-13.2,-23,44,26,48.3,100.52,1,17.3861
2/12/2012 15:00,-12.5,-22.8,42,28,48.3,100.51,1,179.735
2/12/2012 16:00,-12,-21.9,44,32,48.3,100.54,1,210.662
2/12/2012 17:00,-12,-22.1,43,26,25,100.56,1,296.929
2/12/2012 18:00,-12.3,-20.1,52,24,25,100.57,2,571.737
2/12/2012 19:00,-11.9,-19.3,54,24,25,100.58,2,304.698
2/12/2012 20:00,-11.3,-18.9,53,22,25,100.58,2,460.341
2/12/2012 21:00,-10.8,-18.8,52,24,25,100.55,2,252.867
2/12/2012 22:00,-10.6,-17.9,55,26,25,100.55,2,135.81
2/12/2012 23:00,-10.3,-17.3,56,20,25,100.53,2,6.83946
2/13/2012 0:00,-10,-16.3,60,19,25,100.48,3,3.04431
2/13/2012 1:00,-9.4,-16.5,56,22,25,100.37,2,9.38784
2/13/2012 2:00,-8.8,-15.7,57,24,25,100.33,2,57.131
2/13/2012 3:00,-8.8,-14.6,63,20,25,100.31,2,210.204
2/13/2012 4:00,-8.4,-14.6,61,20,25,100.3,2,137.362
2/13/2012 5:00,-8,-15,57,22,25,100.33,2,521.268
2/13/2012 6:00,-7.9,-14.5,59,22,25,100.37,2,589.099
2/13/2012 7:00,-7.9,-14.5,59,22,24.1,100.44,2,634.122
2/13/2012 8:00,-8,-13.5,65,24,48.3,100.54,2,357.247
2/13/2012 9:00,-7.5,-14.6,57,20,48.3,100.56,2,119.269
2/13/2012 10:00,-6.8,-19.1,37,26,48.3,100.59,2,29.0261
2/13/2012 11:00,-6.5,-13,60,20,48.3,100.59,2,15.8961
2/13/2012 12:00,-5.2,-13.1,54,17,48.3,100.56,2,0.87756
2/13/2012 13:00,-4.9,-14,49,24,48.3,100.52,2,31.1986
2/13/2012 14:00,-4.3,-13.4,49,22,48.3,100.52,2,70.323
2/13/2012 15:00,-3.4,-12.4,50,24,48.3,100.54,2,205.354
2/13/2012 16:00,-3.4,-12.8,48,24,48.3,100.56,2,418.672
2/13/2012 17:00,-3.6,-13.7,45,15,24.1,100.6,2,517.33
2/13/2012 18:00,-4.9,-13.4,51,0,25,100.64,2,546.468
2/13/2012 19:00,-5.6,-12,61,15,25,100.69,2,479.413
2/13/2012 20:00,-7.2,-12,69,7,25,100.73,2,281.161
2/13/2012 21:00,-7.5,-12.1,70,11,19.3,100.76,3,164.222
2/13/2012 22:00,-9,-12.9,73,13,25,100.78,2,91.5198
2/13/2012 23:00,-10.8,-14.8,72,19,25,100.8,2,12.0457
2/14/2012 0:00,-11.8,-15.6,73,15,25,100.83,2,2.88141
2/14/2012 1:00,-11.9,-16,72,13,25,100.86,1,18.6473
2/14/2012 2:00,-12.9,-17.9,66,11,25,100.93,1,15.3381
2/14/2012 3:00,-13.2,-19.1,61,9,25,100.96,2,93.4202
2/14/2012 4:00,-13.4,-19.4,61,11,25,101.01,2,287.091
2/14/2012 5:00,-13.4,-19.7,59,4,25,101.03,2,370.973
2/14/2012 6:00,-14.2,-19.6,64,6,25,101.04,1,480.33
2/14/2012 7:00,-13.7,-19.9,59,7,24.1,101.07,1,176.275
2/14/2012 8:00,-13.6,-20,58,9,24.1,101.12,1,333.963
2/14/2012 9:00,-11.6,-18,59,4,24.1,101.12,1,270.976
2/14/2012 10:00,-8.8,-14.3,64,4,24.1,101.15,1,3.81756
2/14/2012 11:00,-5,-10.6,65,0,19.3,101.14,2,4.31961
2/14/2012 12:00,-3.2,-8.3,68,4,24.1,101.09,2,1.02665
2/14/2012 13:00,-2.1,-6.5,72,4,24.1,101.02,2,45.7316
2/14/2012 14:00,0.1,-5.1,68,9,24.1,100.98,2,104.692
2/14/2012 15:00,1.1,-5.3,62,9,24.1,100.98,2,222.121
2/14/2012 16:00,2.3,-4.9,59,7,24.1,100.97,2,278.321
2/14/2012 17:00,1.1,-3.7,70,9,24.1,101.01,2,521.461
2/14/2012 18:00,1.3,-3.9,68,9,25,101.08,2,522.194
2/14/2012 19:00,1.8,-6.1,56,7,25,101.13,2,358.344
2/14/2012 20:00,-0.2,-5.1,69,4,25,101.16,2,294.101
2/14/2012 21:00,-0.6,-6,67,7,25,101.18,1,225.056
2/14/2012 22:00,-0.5,-5.7,68,0,25,101.21,2,57.4948
2/14/2012 23:00,-1.2,-5.6,72,0,25,101.22,2,15.7285
2/15/2012 0:00,-1.9,-5.6,76,4,25,101.26,2,15.5629
2/15/2012 1:00,-1.8,-5.2,78,4,25,101.31,2,28.323
2/15/2012 2:00,-1.2,-5.2,74,0,25,101.33,2,41.9833
2/15/2012 3:00,-1.6,-5.4,75,4,25,101.36,2,195.31
2/15/2012 4:00,-0.7,-3.5,81,0,25,101.39,3,355.596
2/15/2012 5:00,-1.3,-3,88,7,4.8,101.45,3,411.503
2/15/2012 6:00,-1,-2.3,91,0,4.8,101.48,3,412.073
2/15/2012 7:00,-0.3,-1.6,91,4,6.4,101.51,3,404.229
2/15/2012 8:00,0.1,-1.5,89,4,4.8,101.57,3,514.93
2/15/2012 9:00,0.6,-1.2,88,4,3.2,101.61,3,263.402
2/15/2012 10:00,1,-0.7,88,0,6.4,101.62,3,21.6794
2/15/2012 11:00,2,-0.2,85,0,8,101.65,3,28.904
2/15/2012 12:00,2.1,-0.3,84,0,9.7,101.67,3,6.15095
2/15/2012 13:00,1.7,-0.3,87,6,9.7,101.67,3,50.8807
2/15/2012 14:00,1.5,0,90,7,9.7,101.68,3,9.63505
2/15/2012 15:00,1.9,0.1,88,6,12.9,101.72,2,38.8075
2/15/2012 16:00,2.2,0.2,87,6,12.9,101.75,3,207.565
2/15/2012 17:00,2.1,0.3,88,6,11.3,101.8,3,273.337
2/15/2012 18:00,1.5,0.2,91,7,9.7,101.85,3,462.745
2/15/2012 19:00,1.5,0.2,91,7,9.7,101.89,3,318.474
2/15/2012 20:00,1.5,0.2,91,7,6.4,101.91,3,272.882
2/15/2012 21:00,1.3,0.1,92,13,8,101.95,3,135.043
2/15/2012 22:00,1.2,0,92,7,6.4,101.98,2,6.02325
2/15/2012 23:00,1.4,0,90,7,8,101.97,2,2.99477
2/16/2012 0:00,0.8,-0.4,92,9,9.7,101.96,2,9.06548
2/16/2012 1:00,1.1,-0.5,89,7,12.9,102,2,47.1214
2/16/2012 2:00,0.7,-0.8,90,4,12.9,101.97,2,87.7526
2/16/2012 3:00,0.7,-0.7,90,6,25,101.94,2,135.085
2/16/2012 4:00,0.9,-0.7,89,7,12.9,101.94,2,404.466
2/16/2012 5:00,0.7,-0.9,89,4,12.9,101.92,2,519.834
2/16/2012 6:00,1.3,-0.9,85,6,12.9,101.93,2,484.528
2/16/2012 7:00,1.7,-0.9,83,7,12.9,101.96,2,458.954
2/16/2012 8:00,1.2,-1.2,84,7,16.1,101.95,2,356.76
2/16/2012 9:00,1.8,-1.3,80,0,16.1,101.91,2,143.515
2/16/2012 10:00,2.7,-1.1,76,11,24.1,101.83,1,18.7967
2/16/2012 11:00,3.3,-2.1,68,11,24.1,101.76,2,0.01082
2/16/2012 12:00,3.6,-3.1,62,19,24.1,101.65,2,13.981
2/16/2012 13:00,3.3,-2.7,65,19,24.1,101.53,2,27.5964
2/16/2012 14:00,3.5,-2.7,64,19,24.1,101.39,2,89.831
2/16/2012 15:00,3.6,-2.8,63,19,24.1,101.29,2,164.774
2/16/2012 16:00,3.7,-2.5,64,15,24.1,101.22,2,204.148
2/16/2012 17:00,3.6,-2.7,63,15,24.1,101.17,2,373.326
2/16/2012 18:00,3,-2.1,69,19,24.1,101.13,3,317.352
2/16/2012 19:00,2.5,-1.4,75,17,25,101.02,3,361.903
2/16/2012 20:00,1.7,-0.7,84,17,16.1,100.94,3,166.025
2/16/2012 21:00,1.5,-0.5,87,15,25,100.88,3,91.0517
2/16/2012 22:00,1.5,-0.6,86,17,12.9,100.8,3,9.18975
2/16/2012 23:00,1.3,-0.3,89,19,16.1,100.71,3,0.14889
2/17/2012 0:00,1.3,-0.3,89,19,12.9,100.64,3,9.51787
2/17/2012 1:00,1.3,-0.2,90,19,12.9,100.57,3,29.6508
2/17/2012 2:00,1.3,0.1,92,17,9.7,100.5,3,21.9067
2/17/2012 3:00,1.4,0.2,92,19,12.9,100.45,3,53.7673
2/17/2012 4:00,2.3,1.1,92,20,8,100.47,3,212.226
2/17/2012 5:00,2.8,1.6,92,24,12.9,100.49,2,410.046
2/17/2012 6:00,3,0.9,86,30,16.1,100.54,2,585.233
2/17/2012 7:00,3,-0.3,79,24,24.1,100.58,2,494.813
2/17/2012 8:00,2.8,-1.2,75,32,24.1,100.67,2,371.108
2/17/2012 9:00,2.3,-2.4,71,32,24.1,100.74,2,79.6197
2/17/2012 10:00,2.5,-3,67,41,48.3,100.76,2,140.99
2/17/2012 11:00,2.6,-4,62,32,48.3,100.77,2,1.21624
2/17/2012 12:00,2.6,-4.1,61,24,24.1,100.71,2,7.05748
2/17/2012 13:00,3,-4.3,59,22,24.1,100.66,2,22.9102
2/17/2012 14:00,3.5,-5.1,53,28,24.1,100.62,2,52.8844
2/17/2012 15:00,3,-4.4,58,30,24.1,100.63,2,166.541
2/17/2012 16:00,3.1,-4.9,56,26,24.1,100.64,2,232.497
2/17/2012 17:00,2.6,-3.9,62,26,24.1,100.66,2,397.807
2/17/2012 18:00,2.3,-3.7,64,22,25,100.69,2,436.68
2/17/2012 19:00,2,-3.5,67,28,25,100.68,2,386.234
2/17/2012 20:00,1.8,-3.4,68,24,25,100.68,2,258.422
2/17/2012 21:00,1.7,-3.6,68,19,25,100.7,2,263.608
2/17/2012 22:00,1.2,-3.9,69,15,25,100.72,1,6.52539
2/17/2012 23:00,0.9,-4.1,69,26,25,100.7,1,0.41104
2/18/2012 0:00,0.7,-3.9,71,24,25,100.71,1,9.95175
2/18/2012 1:00,0.7,-4.5,68,22,25,100.71,1,21.4791
2/18/2012 2:00,0.3,-4.4,71,22,25,100.74,1,69.1094
2/18/2012 3:00,0.3,-4.7,69,26,25,100.72,2,148.762
2/18/2012 4:00,-0.3,-4.9,71,22,25,100.74,2,205.94
2/18/2012 5:00,-0.6,-5.1,72,19,25,100.79,2,438.014
2/18/2012 6:00,-0.2,-5,70,20,25,100.82,2,525.725
2/18/2012 7:00,-0.6,-5.2,71,24,25,100.84,2,381.913
2/18/2012 8:00,-0.6,-5.3,70,19,24.1,100.85,2,398.26
2/18/2012 9:00,-0.6,-5.4,70,24,48.3,100.85,1,45.9865
2/18/2012 10:00,0.1,-5.3,67,24,48.3,100.83,2,11.493
2/18/2012 11:00,0.5,-5.1,66,17,48.3,100.81,2,31.8516
2/18/2012 12:00,1.1,-5.7,60,15,48.3,100.75,2,19.5979
2/18/2012 13:00,1.8,-6.1,56,20,48.3,100.7,2,33.4868
2/18/2012 14:00,1.2,-5.4,61,15,48.3,100.7,2,104.975
2/18/2012 15:00,1.5,-5.8,58,19,48.3,100.71,2,191.096
2/18/2012 16:00,1.5,-6.3,56,19,48.3,100.73,2,228.972
2/18/2012 17:00,1,-6.2,59,13,48.3,100.78,2,368.339
2/18/2012 18:00,0.8,-6.9,56,15,25,100.88,2,651.001
2/18/2012 19:00,-0.6,-7.8,58,11,25,100.99,1,468.56
2/18/2012 20:00,-1.7,-7.8,63,11,25,101.09,1,274.832
2/18/2012 21:00,-2.4,-8.1,65,9,25,101.16,1,174.975
2/18/2012 22:00,-3.5,-8.3,69,9,25,101.21,1,102.414
2/18/2012 23:00,-3.9,-8.7,69,9,25,101.29,1,0.02981
2/19/2012 0:00,-3.9,-8.8,69,13,25,101.37,1,0.3407
2/19/2012 1:00,-4.5,-9.8,66,19,25,101.46,1,0.10675
2/19/2012 2:00,-5.2,-10.2,68,9,25,101.49,1,5.22216
2/19/2012 3:00,-6,-10.3,72,0,25,101.43,1,50.6288
2/19/2012 4:00,-5.8,-10.5,69,7,25,101.44,1,322.274
2/19/2012 5:00,-5.9,-9.7,74,9,25,101.48,1,338.123
2/19/2012 6:00,-6.7,-10.3,76,6,25,101.5,1,800.869
2/19/2012 7:00,-6.3,-10.5,72,7,25,101.53,1,453.255
2/19/2012 8:00,-5.8,-9.9,73,7,24.1,101.57,2,340.816
2/19/2012 9:00,-5.2,-9.7,71,9,24.1,101.59,2,272.28
2/19/2012 10:00,-4.7,-9.7,68,15,48.3,101.59,2,12.5447
2/19/2012 11:00,-4,-9.1,68,17,48.3,101.59,2,5.91518
2/19/2012 12:00,-3.2,-9,64,17,48.3,101.56,1,20.0385
2/19/2012 13:00,-2.7,-8.6,64,19,48.3,101.51,1,26.8679
2/19/2012 14:00,-2.3,-9.5,58,15,48.3,101.45,1,76.7595
2/19/2012 15:00,-1.6,-9.3,56,17,48.3,101.43,1,202.779
2/19/2012 16:00,-1.6,-9.7,54,20,48.3,101.37,1,439.359
2/19/2012 17:00,-2.1,-9.8,56,15,48.3,101.36,1,366.512
2/19/2012 18:00,-2.9,-9.8,59,13,48.3,101.39,1,356.645
2/19/2012 19:00,-3.2,-10,59,15,25,101.43,1,429.486
2/19/2012 20:00,-3.8,-10.1,62,13,25,101.47,1,320.606
2/19/2012 21:00,-4.8,-10,67,11,25,101.51,1,181.583
2/19/2012 22:00,-5.4,-10.2,69,9,25,101.52,1,5.0709
2/19/2012 23:00,-6.3,-11.8,65,7,25,101.52,1,0.21109
2/20/2012 0:00,-6.7,-12.4,64,4,25,101.55,1,1.05632
2/20/2012 1:00,-7.6,-12.6,67,0,25,101.63,1,8.84245
2/20/2012 2:00,-8.8,-12.3,76,4,25,101.66,1,31.1425
2/20/2012 3:00,-8.8,-12.7,73,7,25,101.68,1,113.584
2/20/2012 4:00,-9.8,-13,77,6,25,101.69,1,385.625
2/20/2012 5:00,-10.2,-13.7,75,6,25,101.77,1,437.875
2/20/2012 6:00,-10.7,-14.3,75,4,25,101.81,1,355.399
2/20/2012 7:00,-11,-14.4,76,4,24.1,101.87,1,394.333
2/20/2012 8:00,-9.9,-14.4,70,4,48.3,101.98,1,247.686
2/20/2012 9:00,-8.7,-14.1,65,6,48.3,102.04,2,250.576
2/20/2012 10:00,-8,-13.7,64,9,48.3,102.07,2,21.9283
2/20/2012 11:00,-7.1,-13.3,61,9,48.3,102.09,2,0.00843
2/20/2012 12:00,-6,-12.1,62,11,48.3,102.1,2,16.0598
2/20/2012 13:00,-4.7,-11.7,58,20,48.3,102.08,2,1.62475
2/20/2012 14:00,-3.1,-10.5,57,17,48.3,102.07,1,54.9691
2/20/2012 15:00,-2,-9.7,56,19,48.3,102.07,2,203.641
2/20/2012 16:00,-1.8,-8.5,60,20,48.3,102.06,1,164.443
2/20/2012 17:00,-1.9,-8.9,59,17,48.3,102.08,1,622.822
2/20/2012 18:00,-3.2,-8.8,65,9,48.3,102.1,1,615.753
2/20/2012 19:00,-3.6,-8.7,68,7,25,102.13,1,380.547
2/20/2012 20:00,-4,-9,68,6,25,102.16,1,258.746
2/20/2012 21:00,-3.5,-8.9,66,6,25,102.18,1,84.9505
2/20/2012 22:00,-3.3,-8.8,66,0,25,102.2,1,127.723
2/20/2012 23:00,-5.8,-9.3,76,4,25,102.2,1,0.62698
2/21/2012 0:00,-4,-8.1,73,9,25,102.21,1,4.05949
2/21/2012 1:00,-4.3,-8.4,73,6,25,102.18,1,13.9698
2/21/2012 2:00,-4.1,-8.1,74,7,25,102.21,1,46.4431
2/21/2012 3:00,-5.3,-8.9,76,4,25,102.19,1,103.609
2/21/2012 4:00,-5.2,-8.2,79,4,25,102.12,1,229.51
2/21/2012 5:00,-6.1,-8.6,82,7,25,102.05,1,470.844
2/21/2012 6:00,-6.1,-8.9,81,6,25,102.03,1,747.537
2/21/2012 7:00,-6.2,-9.1,80,7,48.3,102.03,1,199.356
2/21/2012 8:00,-5,-8.2,78,7,48.3,101.98,2,227.284
2/21/2012 9:00,-3.1,-7.2,73,9,48.3,101.87,2,270.92
2/21/2012 10:00,-1.4,-7,66,11,48.3,101.72,2,34.4858
2/21/2012 11:00,-0.1,-6.2,63,15,48.3,101.55,2,25.0712
2/21/2012 12:00,0,-6.8,60,19,48.3,101.38,2,3.8527
2/21/2012 13:00,1,-6.2,59,24,48.3,101.19,2,3.20108
2/21/2012 14:00,1.9,-6.2,55,22,48.3,100.95,2,36.3113
2/21/2012 15:00,2.2,-5.8,55,19,48.3,100.82,2,226.008
2/21/2012 16:00,2,-5.9,56,17,48.3,100.66,2,202.54
2/21/2012 17:00,2.2,-6.4,53,9,48.3,100.59,2,539.037
2/21/2012 18:00,1.9,-6.1,55,9,25,100.54,2,319.079
2/21/2012 19:00,2.1,-6.5,53,0,25,100.5,2,244.488
2/21/2012 20:00,-0.2,-4.9,71,4,25,100.43,2,247.653
2/21/2012 21:00,-0.5,-4.9,72,6,25,100.4,2,345.506
2/21/2012 22:00,-0.6,-4.5,75,6,25,100.35,3,6.17463
2/21/2012 23:00,0.5,-4.4,70,0,25,100.2,2,6.5125
2/22/2012 0:00,0.5,-2.1,83,19,9.7,100.1,3,13.6412
2/22/2012 1:00,0.8,-2.2,80,15,12.9,99.97,3,6.00206
2/22/2012 2:00,1.4,-2.5,75,19,12.9,99.87,3,73.5596
2/22/2012 3:00,1.3,-1.5,82,20,9.7,99.77,3,146.875
2/22/2012 4:00,1.2,-1,85,15,12.9,99.68,3,257.578
2/22/2012 5:00,1.4,-0.6,87,15,9.7,99.64,3,263.16
2/22/2012 6:00,1.5,-0.3,88,13,12.9,99.59,3,409.154
2/22/2012 7:00,1.6,0.1,90,15,6.4,99.57,3,220.255
2/22/2012 8:00,2.6,0.9,89,17,19.3,99.57,3,282.964
2/22/2012 9:00,2.9,0.7,85,26,24.1,99.57,2,236.316
2/22/2012 10:00,4,1.2,82,28,24.1,99.54,2,5.77824
2/22/2012 11:00,4.6,0.4,74,26,24.1,99.56,2,2.564
2/22/2012 12:00,5.2,-0.6,66,28,24.1,99.52,2,0.00249
2/22/2012 13:00,5.8,-1.1,61,22,24.1,99.4,2,6.08321
2/22/2012 14:00,6.1,-1.4,59,17,24.1,99.32,2,7.92641
2/22/2012 15:00,5.4,-1.4,62,28,24.1,99.3,3,341.871
2/22/2012 16:00,2.9,0.3,83,19,24.1,99.31,1,199.635
2/22/2012 17:00,2.6,0.1,84,19,24.1,99.29,2,274.958
2/22/2012 18:00,2.4,-0.2,83,9,24.1,99.33,2,428.041
2/22/2012 19:00,1.9,-0.2,86,6,25,99.34,1,320.256
2/22/2012 20:00,1.6,-0.8,84,13,25,99.32,2,361.797
2/22/2012 21:00,2.3,-0.9,79,15,25,99.33,2,112.708
2/22/2012 22:00,2.7,-0.8,78,15,25,99.26,2,24.2999
2/22/2012 23:00,2.6,-1,77,13,25,99.27,2,2.98989
2/23/2012 0:00,2.3,-0.9,79,20,25,99.23,3,1.04976
2/23/2012 1:00,1.7,-1.1,82,11,25,99.18,2,46.5265
2/23/2012 2:00,1.1,-1.1,85,7,25,99.17,3,15.9467
2/23/2012 3:00,0.6,-1,89,6,6.4,99.14,3,312.651
2/23/2012 4:00,0.5,-1,90,4,6.4,99.13,2,180.555
2/23/2012 5:00,0.4,-1.1,90,4,6.4,99.11,2,481.578
2/23/2012 6:00,0.5,-1.1,89,9,8,99.16,2,496.747
2/23/2012 7:00,0.6,-1,89,7,8,99.2,2,898.072
2/23/2012 8:00,0.4,-1.6,86,7,19.3,99.26,1,396.955
2/23/2012 9:00,1.1,-1.8,81,17,24.1,99.32,2,229.974
2/23/2012 10:00,1.6,-1.9,78,19,24.1,99.38,1,39.532
2/23/2012 11:00,2.3,-1.9,74,22,24.1,99.42,2,0.10678
2/23/2012 12:00,2.1,-2.3,73,20,24.1,99.47,2,22.6256
2/23/2012 13:00,2.1,-2.1,74,20,16.1,99.49,3,12.5362
2/23/2012 14:00,1.4,-1.5,81,13,19.3,99.53,3,38.8424
2/23/2012 15:00,1.9,-1.8,76,22,24.1,99.6,2,101.169
2/23/2012 16:00,2.7,-2.3,70,22,24.1,99.7,2,206.353
2/23/2012 17:00,2.3,-3.7,64,24,24.1,99.82,2,477.063
2/23/2012 18:00,1.6,-3.8,67,15,24.1,99.9,1,588.575
2/23/2012 19:00,1.6,-4.8,62,19,25,100.05,1,311.883
2/23/2012 20:00,1.1,-5,64,15,25,100.12,1,235.861
2/23/2012 21:00,0.5,-5.2,66,13,25,100.23,1,160.93
2/23/2012 22:00,-0.2,-5.4,68,9,25,100.28,1,6.53971
2/23/2012 23:00,-1,-5.2,73,7,25,100.31,1,2.27446
2/24/2012 0:00,-0.9,-5.1,73,6,25,100.34,1,0.65574
2/24/2012 1:00,-1.7,-5.1,78,4,25,100.29,1,16.0921
2/24/2012 2:00,-1.8,-5.4,76,0,25,100.2,1,26.2234
2/24/2012 3:00,-3.8,-6.1,84,0,25,100.29,1,199.444
2/24/2012 4:00,-2.8,-5,85,0,25,100.31,2,209.835
2/24/2012 5:00,-3.1,-5.1,86,0,25,100.29,2,224.577
2/24/2012 6:00,-3,-5.1,85,6,25,100.26,2,558.314
2/24/2012 7:00,-1.3,-3.8,83,11,24.1,100.21,2,317.717
2/24/2012 8:00,-0.7,-3.6,81,9,24.1,100.21,2,298.646
2/24/2012 9:00,0.3,-3.3,77,7,19.3,100.27,2,171.9
2/24/2012 10:00,0.7,-3,76,9,19.3,100.25,2,49.8057
2/24/2012 11:00,0.9,-3.2,74,15,19.3,100.13,2,3.71126
2/24/2012 12:00,1.1,-3.3,72,20,19.3,99.91,2,0.02014
2/24/2012 13:00,1,-3.5,72,20,19.3,99.75,2,4.31731
2/24/2012 14:00,1.1,-3.3,72,20,16.1,99.64,3,98.9955
2/24/2012 15:00,1,-2.6,77,19,6.4,99.53,3,283.174
2/24/2012 16:00,-0.1,-1.6,90,22,1.2,99.38,3,274.778
2/24/2012 17:00,-0.1,-1.5,90,26,1,99.16,3,451.158
2/24/2012 18:00,0,-1.4,90,24,1,99.07,3,358.158
2/24/2012 19:00,0,-1.3,91,22,1.2,98.88,3,293.918
2/24/2012 20:00,0,-1.2,92,15,2,98.81,3,349.922
2/24/2012 21:00,0.3,-1.1,90,17,2.4,98.69,3,207.224
2/24/2012 22:00,0.6,-0.8,90,19,16.1,98.55,3,8.98786
2/24/2012 23:00,0.8,-0.5,91,17,19.3,98.39,2,17.4939
2/25/2012 0:00,1,-0.6,89,11,12.9,98.29,3,4.69858
2/25/2012 1:00,0.8,-0.7,90,15,8,98.18,3,20.0933
2/25/2012 2:00,0.4,-0.9,91,11,6.4,98.06,3,23.1504
2/25/2012 3:00,0.7,-0.8,90,19,4,98,3,89.8199
2/25/2012 4:00,0.4,-1,90,19,3.2,97.97,3,258.967
2/25/2012 5:00,0.6,-1.1,88,22,12.9,97.99,3,626.279
2/25/2012 6:00,0,-1.6,89,33,2.8,98.03,3,414.579
2/25/2012 7:00,-1.4,-2.9,89,33,1.2,98.11,3,1012.02
2/25/2012 8:00,-1.8,-3.2,90,32,1.2,98.2,3,275.258
2/25/2012 9:00,-1.4,-2.9,89,33,1.2,98.33,3,52.3823
2/25/2012 10:00,-1.7,-3.3,89,32,1.6,98.45,3,19.8951
2/25/2012 11:00,-2.1,-3.5,90,33,2,98.6,3,0.95423
2/25/2012 12:00,-2.5,-4.2,88,33,3.2,98.75,3,17.7638
2/25/2012 13:00,-2.7,-5,84,32,2,98.89,3,2.89884
2/25/2012 14:00,-3.2,-6.3,79,35,3.2,99.05,3,49.1879
2/25/2012 15:00,-3.3,-7.5,73,33,19.3,99.22,3,204.675
2/25/2012 16:00,-3.6,-7.4,75,24,9.7,99.39,3,237.962
2/25/2012 17:00,-3.2,-8.4,67,24,25,99.59,2,283.547
2/25/2012 18:00,-3.6,-9,66,30,25,99.8,2,494.22
2/25/2012 19:00,-4.7,-10.5,64,35,25,100.04,2,388.252
2/25/2012 20:00,-5.3,-11.2,63,26,25,100.24,2,245.315
2/25/2012 21:00,-5.6,-11.1,65,32,25,100.42,2,166.98
2/25/2012 22:00,-6.6,-12.8,61,28,25,100.62,2,21.3492
2/25/2012 23:00,-7.6,-13.8,61,26,25,100.76,2,16.9888
2/26/2012 0:00,-8.3,-14.3,62,19,25,100.89,2,1.14107
2/26/2012 1:00,-9,-14.5,64,20,25,101.09,1,11.6018
2/26/2012 2:00,-9.2,-14.6,65,22,25,101.26,1,9.01275
2/26/2012 3:00,-9.9,-15.1,66,28,25,101.42,1,115.73
2/26/2012 4:00,-10.8,-15.3,69,30,25,101.6,2,307.156
2/26/2012 5:00,-11.6,-15.9,70,20,25,101.77,1,357.403
2/26/2012 6:00,-11.3,-16.8,64,22,25,101.92,1,473.361
2/26/2012 7:00,-12.1,-17.8,62,22,48.3,102.07,1,395.807
2/26/2012 8:00,-12.1,-18,61,26,48.3,102.23,1,234.519
2/26/2012 9:00,-11.6,-18.6,56,32,48.3,102.32,1,254.758
2/26/2012 10:00,-11.2,-20.3,47,22,48.3,102.35,1,0.00089
2/26/2012 11:00,-10.1,-20.1,44,26,48.3,102.39,1,0.57815
2/26/2012 12:00,-9.3,-18.6,47,28,48.3,102.42,1,0.1202
2/26/2012 13:00,-8.3,-17.4,48,26,48.3,102.41,1,32.3783
2/26/2012 14:00,-7.6,-17.2,46,28,48.3,102.42,1,11.8894
2/26/2012 15:00,-7.1,-16.3,48,26,48.3,102.49,1,53.5327
2/26/2012 16:00,-6.8,-16.4,46,24,48.3,102.52,1,179.551
2/26/2012 17:00,-7.6,-17.1,46,24,48.3,102.55,2,372.435
2/26/2012 18:00,-7.9,-16.7,49,19,25,102.6,2,403.483
2/26/2012 19:00,-7.8,-16.8,48,13,25,102.63,2,481.268
2/26/2012 20:00,-7.9,-16.4,50,11,25,102.64,2,330.746
2/26/2012 21:00,-8.5,-16.6,52,9,25,102.72,2,57.4383
2/26/2012 22:00,-8.6,-16.5,53,0,25,102.68,2,0.22844
2/26/2012 23:00,-9.5,-16.2,58,0,25,102.64,2,0.30376
2/27/2012 0:00,-8.2,-16.2,52,7,25,102.63,2,8.75886
2/27/2012 1:00,-8.6,-15.5,57,4,25,102.61,2,24.1695
2/27/2012 2:00,-8.5,-14.2,63,13,25,102.6,2,21.2529
2/27/2012 3:00,-8.3,-13.7,65,9,25,102.59,2,198.791
2/27/2012 4:00,-8.2,-14.4,61,9,25,102.58,2,167.221
2/27/2012 5:00,-8.4,-15.1,58,13,25,102.54,2,450.405
2/27/2012 6:00,-9,-15.2,61,17,25,102.42,2,715.223
2/27/2012 7:00,-9.4,-14.6,66,20,48.3,102.31,2,512.127
2/27/2012 8:00,-9.8,-14.8,67,19,48.3,102.25,2,353.869
2/27/2012 9:00,-9.4,-14.9,64,22,48.3,102.1,2,81.5994
2/27/2012 10:00,-8.7,-14.6,62,22,24.1,101.94,2,4.60815
2/27/2012 11:00,-8.7,-14.2,64,28,48.3,101.74,2,5.97798
2/27/2012 12:00,-6.3,-12.8,60,15,48.3,101.59,2,18.5356
2/27/2012 13:00,-4.9,-11.6,59,19,48.3,101.41,2,16.2548
2/27/2012 14:00,-5.5,-11.5,63,22,24.1,101.34,2,70.7981
2/27/2012 15:00,-5.1,-9.4,72,20,1.6,101.19,3,66.1616
2/27/2012 16:00,-4.9,-7.9,79,19,19.3,101.13,3,267.215
2/27/2012 17:00,-5.2,-7.9,81,20,24.1,101.01,2,341.042
2/27/2012 18:00,-6.3,-8.9,82,24,25,101.1,2,540.907
2/27/2012 19:00,-7.1,-9.6,82,22,2,101.14,3,493.21
2/27/2012 20:00,-7.2,-9.6,83,9,25,101.25,3,291.549
2/27/2012 21:00,-7.3,-9.7,83,4,25,101.29,3,199.171
2/27/2012 22:00,-7.1,-9.6,82,0,8,101.33,3,126.285
2/27/2012 23:00,-6.8,-9.1,84,4,6.4,101.38,3,1.69035
2/28/2012 0:00,-6.7,-9,84,0,6.4,101.4,3,1.29152
2/28/2012 1:00,-6.5,-8.7,84,0,8,101.48,3,0.14722
2/28/2012 2:00,-6.6,-8.9,84,0,9.7,101.55,3,62.7686
2/28/2012 3:00,-5.9,-8.3,83,9,12.9,101.66,2,229.589
2/28/2012 4:00,-5.5,-8.3,81,15,16.1,101.82,2,302.197
2/28/2012 5:00,-5.4,-9.7,72,20,12.9,101.98,3,528.775
2/28/2012 6:00,-6.9,-10.3,77,22,8,102.19,3,415.257
2/28/2012 7:00,-8.1,-13.4,66,19,24.1,102.35,1,435.166
2/28/2012 8:00,-8.4,-13.7,66,19,24.1,102.5,1,282.872
2/28/2012 9:00,-8.3,-13.8,64,20,48.3,102.63,1,76.6518
2/28/2012 10:00,-7.5,-13.6,62,13,24.1,102.65,1,4.48053
2/28/2012 11:00,-6.5,-13.1,59,9,48.3,102.69,1,6.51869
2/28/2012 12:00,-5.8,-13.3,55,11,48.3,102.65,1,2.4001
2/28/2012 13:00,-5.5,-12.3,59,17,48.3,102.62,1,16.7112
2/28/2012 14:00,-4.8,-12.1,57,15,48.3,102.58,2,35.0165
2/28/2012 15:00,-4.2,-11.8,55,19,48.3,102.58,2,79.8924
2/28/2012 16:00,-4.3,-12.4,53,17,48.3,102.54,2,206.714
2/28/2012 17:00,-4.4,-12.6,53,15,48.3,102.53,1,606.088
2/28/2012 18:00,-5.3,-12.5,57,17,24.1,102.56,1,376.786
2/28/2012 19:00,-5.9,-12.9,58,7,25,102.58,1,401.075
2/28/2012 20:00,-6.8,-13.4,59,11,25,102.56,1,288.777
2/28/2012 21:00,-8.7,-14.6,62,11,25,102.53,1,190.116
2/28/2012 22:00,-8.3,-14,63,0,25,102.52,1,53.8007
2/28/2012 23:00,-10,-15.3,65,9,25,102.52,1,0.0104
2/29/2012 0:00,-8.2,-13.8,64,9,25,102.51,1,0.3257
2/29/2012 1:00,-9.5,-14.8,65,4,25,102.47,1,40.4723
2/29/2012 2:00,-9.7,-13.9,71,4,25,102.46,1,32.017
2/29/2012 3:00,-11.5,-14.7,77,0,25,102.45,1,169.242
2/29/2012 4:00,-10.3,-14.2,73,7,25,102.41,1,317.756
2/29/2012 5:00,-13.1,-16,79,0,25,102.4,1,525.691
2/29/2012 6:00,-12.2,-15.2,78,0,25,102.41,1,707.404
2/29/2012 7:00,-11.7,-14.6,79,9,24.1,102.4,1,367.376
2/29/2012 8:00,-10.6,-13.7,78,11,24.1,102.44,2,181.867
2/29/2012 9:00,-8.5,-12.3,74,11,24.1,102.36,2,72.9881
2/29/2012 10:00,-6.6,-11.6,68,17,24.1,102.3,2,32.9518
2/29/2012 11:00,-4.7,-12.5,54,15,24.1,102.24,2,1.97838
2/29/2012 12:00,-3.9,-12.2,52,17,24.1,102.08,2,7.07224
2/29/2012 13:00,-2.9,-10.8,54,11,24.1,101.99,2,22.9071
2/29/2012 14:00,-2.9,-11.7,51,13,24.1,101.89,2,78.9631
2/29/2012 15:00,-3.1,-11.5,52,20,24.1,101.81,2,203.005
2/29/2012 16:00,-3.6,-11.2,56,26,24.1,101.72,2,315.752
2/29/2012 17:00,-4.1,-12,54,28,24.1,101.6,2,224.887
2/29/2012 18:00,-4.7,-12.8,53,28,24.1,101.54,2,559.799
2/29/2012 19:00,-4.6,-13.2,51,30,25,101.46,2,624.073
2/29/2012 20:00,-4.5,-13,51,30,25,101.42,2,623.689
2/29/2012 21:00,-4.6,-12.7,53,26,25,101.23,2,133.63
2/29/2012 22:00,-4.5,-12.3,54,30,25,101.14,3,4.91701
2/29/2012 23:00,-5.1,-11.2,62,30,8,101.01,3,7.61877
3/1/2012 0:00,-5.5,-9.7,72,24,4,100.97,3,13.9546
3/1/2012 1:00,-5.7,-8.7,79,26,2.4,100.87,3,65.6833
3/1/2012 2:00,-5.4,-8.3,80,28,4.8,100.8,3,53.425
3/1/2012 3:00,-4.7,-7.7,79,28,4,100.69,3,29.6299
3/1/2012 4:00,-5.4,-7.8,83,35,1.6,100.62,3,229.508
3/1/2012 5:00,-5.3,-7.9,82,33,2.4,100.58,3,357.968
3/1/2012 6:00,-5.2,-7.8,82,33,4,100.57,3,487.922
3/1/2012 7:00,-4.9,-7.4,83,30,1.6,100.59,3,388.641
3/1/2012 8:00,-5,-7.5,83,32,1.2,100.59,3,212.273
3/1/2012 9:00,-4.9,-7.5,82,32,1.6,100.6,3,185.89
3/1/2012 10:00,-4.7,-7.3,82,32,1.2,100.62,3,48.9485
3/1/2012 11:00,-4.4,-6.8,83,28,1,100.66,3,0.01352
3/1/2012 12:00,-4.3,-6.8,83,30,1.2,100.66,3,10.7854
3/1/2012 13:00,-4.3,-6.9,82,28,1.2,100.65,3,28.6799
3/1/2012 14:00,-3.9,-6.6,81,28,1.2,100.67,3,123.023
3/1/2012 15:00,-3.3,-6.2,80,24,1.6,100.71,3,115.429
3/1/2012 16:00,-2.7,-5.7,80,19,2.4,100.74,3,234.761
3/1/2012 17:00,-2.9,-5.9,80,20,4,100.8,3,549.54
3/1/2012 18:00,-3,-6,80,19,4,100.87,3,327.091
3/1/2012 19:00,-3.6,-6.4,81,17,3.2,100.93,3,223.517
3/1/2012 20:00,-3.7,-6.4,81,20,4.8,100.95,3,269.975
3/1/2012 21:00,-3.9,-6.7,81,22,6.4,100.98,3,51.2185
3/1/2012 22:00,-4.3,-6.9,82,22,2.4,101,3,9.41034
3/1/2012 23:00,-4.3,-7.1,81,22,4.8,101.04,3,13.5853
3/2/2012 0:00,-4.8,-7.3,83,22,3.2,101.04,3,7.99686
3/2/2012 1:00,-5.3,-7.9,82,20,4.8,101.09,3,12.5831
3/2/2012 2:00,-5.2,-7.8,82,19,6.4,101.11,3,8.35921
3/2/2012 3:00,-5.5,-7.9,83,19,4.8,101.15,3,44.7567
3/2/2012 4:00,-5.6,-8.2,82,24,6.4,101.15,3,281.536
3/2/2012 5:00,-5.5,-8.3,81,19,12.9,101.15,3,786.245
3/2/2012 6:00,-5.6,-8.6,79,19,16.1,101.14,3,454.244
3/2/2012 7:00,-5.7,-8.7,79,22,24.1,101.17,2,696.272
3/2/2012 8:00,-5.7,-8.8,79,17,24.1,101.2,3,239.95
3/2/2012 9:00,-6.1,-8.4,84,13,2,101.19,3,70.0824
3/2/2012 10:00,-5.9,-8.3,83,15,4,101.22,3,3.32205
3/2/2012 11:00,-5.5,-7.5,86,15,2.8,101.21,3,0.06706
3/2/2012 12:00,-5.2,-7.1,86,13,2.4,101.18,3,3.05691
3/2/2012 13:00,-4.6,-6.5,87,13,4.8,101.09,3,5.51192
3/2/2012 14:00,-4.1,-6.1,86,15,8,101.03,2,0.05684
3/2/2012 15:00,-3.3,-5.7,83,15,11.3,100.98,2,297.624
3/2/2012 16:00,-2.9,-5.3,83,15,11.3,100.93,2,209.147
3/2/2012 17:00,-2.7,-5.1,84,15,12.9,100.89,2,732.781
3/2/2012 18:00,-2.4,-4.8,84,20,12.9,100.81,2,353.252
3/2/2012 19:00,-1.8,-4.2,84,17,16.1,100.75,2,407.441
3/2/2012 20:00,-2.3,-4.7,84,15,16.1,100.74,2,193.233
3/2/2012 21:00,-1.4,-4,82,15,19.3,100.62,2,162.603
3/2/2012 22:00,0.2,-4.2,72,13,25,100.49,2,15.8119
3/2/2012 23:00,0.5,-3.6,74,17,25,100.29,2,10.6704
3/3/2012 0:00,1,-3.2,73,22,25,100.12,2,8.7212
3/3/2012 1:00,1.2,-2.8,75,19,25,99.96,3,23.461
3/3/2012 2:00,-0.6,-2.9,84,19,2.4,99.75,3,42.3547
3/3/2012 3:00,-0.3,-2.4,86,22,2.8,99.55,3,118.086
3/3/2012 4:00,0.3,-1.7,86,24,11.3,99.4,3,266.631
3/3/2012 5:00,0.8,-1.5,85,41,19.3,99.18,2,547.481
3/3/2012 6:00,1.5,-1.6,80,43,25,99.02,1,767.513
3/3/2012 7:00,2,-1.6,77,41,24.1,98.89,2,306.786
3/3/2012 8:00,2.7,-1.5,74,32,24.1,98.79,2,273.808
3/3/2012 9:00,3,-1,75,37,24.1,98.7,2,177.51
3/3/2012 10:00,3.7,0.4,79,15,24.1,98.86,2,25.508
3/3/2012 11:00,4,-0.7,71,32,24.1,98.82,3,0.04428
3/3/2012 12:00,5.2,-3,55,37,48.3,98.82,2,14.8878
3/3/2012 13:00,5.8,-4,49,50,48.3,98.73,2,5.67389
3/3/2012 14:00,6.5,-5.5,42,48,48.3,98.68,2,53.2531
3/3/2012 15:00,5.3,-5.6,45,57,24.1,98.67,2,120.237
3/3/2012 16:00,5,-5,48,63,48.3,98.67,1,326.943
3/3/2012 17:00,4.3,-4.9,51,57,48.3,98.71,1,605.515
3/3/2012 18:00,3.7,-4.3,56,48,25,98.82,2,495.969
3/3/2012 19:00,3.4,-4,58,44,25,98.92,1,737.185
3/3/2012 20:00,3.2,-3.9,60,50,25,98.96,1,383.276
3/3/2012 21:00,2.9,-3.6,62,46,25,98.98,3,153.624
3/3/2012 22:00,2.8,-3.4,64,57,25,99.07,3,15.4586
3/3/2012 23:00,2.3,-3.1,67,33,25,99.18,3,0.00822
3/4/2012 0:00,0.5,-4.8,68,32,25,99.34,2,2.25106
3/4/2012 1:00,-0.8,-6,68,24,25,99.46,2,29.7185
3/4/2012 2:00,-1.8,-7.8,64,26,25,99.56,2,76.6334
3/4/2012 3:00,-2.1,-8.2,63,19,25,99.63,2,162.34
3/4/2012 4:00,-2.9,-9,63,20,25,99.7,2,280.501
3/4/2012 5:00,-4.3,-10.5,62,19,25,99.77,2,432.564
3/4/2012 6:00,-4.8,-11.6,59,17,25,99.84,2,468.194
3/4/2012 7:00,-5.7,-12.6,58,22,24.1,99.88,2,334.72
3/4/2012 8:00,-5.9,-13.8,54,13,24.1,99.97,2,185.82
3/4/2012 9:00,-6.3,-13.5,57,15,24.1,99.95,2,218.287
3/4/2012 10:00,-6.3,-13.5,57,17,24.1,99.95,2,130.107
3/4/2012 11:00,-6.5,-14,55,17,24.1,99.96,2,4.99061
3/4/2012 12:00,-5.8,-12.9,57,19,48.3,99.95,2,1.3331
3/4/2012 13:00,-5.5,-12.8,56,19,48.3,99.88,1,52.7534
3/4/2012 14:00,-5.7,-13.4,55,19,48.3,99.9,2,65.26
3/4/2012 15:00,-5.6,-13.5,54,22,48.3,99.9,2,109.438
3/4/2012 16:00,-5.5,-13.3,54,20,48.3,99.93,1,320.563
3/4/2012 17:00,-6.9,-14.6,54,22,48.3,99.94,1,766.414
3/4/2012 18:00,-7.9,-15.7,53,28,25,100.04,1,632.049
3/4/2012 19:00,-7.9,-15.5,54,22,25,100.09,2,608.192
3/4/2012 20:00,-8.5,-14.6,61,24,25,100.13,2,201.041
3/4/2012 21:00,-9,-13.7,69,15,25,100.18,3,244.715
3/4/2012 22:00,-10.1,-15.5,65,17,25,100.21,2,21.013
3/4/2012 23:00,-11.1,-16.3,65,24,25,100.23,2,19.4961
3/5/2012 0:00,-12.4,-17.4,66,19,25,100.26,1,0.29132
3/5/2012 1:00,-13.6,-18.5,66,24,25,100.33,1,33.7543
3/5/2012 2:00,-14.5,-22.3,52,24,25,100.39,1,13.1223
3/5/2012 3:00,-15,-21.5,58,22,25,100.47,1,227.216
3/5/2012 4:00,-15.5,-21.9,58,26,25,100.55,1,354.499
3/5/2012 5:00,-15.9,-22.1,59,20,25,100.69,1,522.397
3/5/2012 6:00,-16.2,-22.6,58,26,24.1,100.77,2,624.896
3/5/2012 7:00,-16.2,-22.3,59,22,24.1,100.88,2,358.844
3/5/2012 8:00,-15.7,-22.5,56,24,24.1,101,2,195.451
3/5/2012 9:00,-15.1,-22.1,55,24,24.1,101.11,2,55.233
3/5/2012 10:00,-14.4,-21.5,55,26,24.1,101.21,2,8.40755
3/5/2012 11:00,-13.4,-20.7,54,26,48.3,101.31,2,16.6593
3/5/2012 12:00,-12.2,-19.9,53,6,48.3,101.39,2,5.29986
3/5/2012 13:00,-11.3,-19.5,51,24,48.3,101.46,2,32.7776
3/5/2012 14:00,-10.8,-19.8,47,28,48.3,101.55,2,81.4802
3/5/2012 15:00,-10,-18.6,49,30,48.3,101.64,2,144.341
3/5/2012 16:00,-9.9,-18.9,48,26,48.3,101.73,2,438.896
3/5/2012 17:00,-9.5,-18.8,47,24,48.3,101.82,1,644.838
3/5/2012 18:00,-9.8,-19,47,22,25,101.9,1,604.175
3/5/2012 19:00,-10.1,-19.1,48,20,25,102.01,1,423.692
3/5/2012 20:00,-10.5,-19.2,49,17,25,102.11,1,247.244
3/5/2012 21:00,-11,-19.6,49,17,25,102.23,1,140.361
3/5/2012 22:00,-11.6,-20.2,49,15,25,102.29,1,52.6143
3/5/2012 23:00,-12.6,-20.3,53,11,25,102.34,1,0.92268
3/6/2012 0:00,-13.4,-20.5,55,11,25,102.41,1,0.81033
3/6/2012 1:00,-13.4,-20.3,56,11,25,102.5,1,7.77238
3/6/2012 2:00,-13.7,-20.7,55,4,25,102.55,1,10.455
3/6/2012 3:00,-14.8,-21.1,59,9,25,102.61,1,330.499
3/6/2012 4:00,-14.5,-21.1,57,9,25,102.7,1,197.267
3/6/2012 5:00,-14.6,-21,58,13,25,102.85,1,603.185
3/6/2012 6:00,-15.3,-21.3,60,11,24.1,102.9,1,276.94
3/6/2012 7:00,-14.8,-20.7,61,11,48.3,103,1,437.713
3/6/2012 8:00,-13,-19.4,59,0,48.3,103.06,1,342.129
3/6/2012 9:00,-11.3,-19.1,52,6,48.3,103.1,1,333.453
3/6/2012 10:00,-10,-16.8,57,9,48.3,103.12,1,89.3188
3/6/2012 11:00,-9,-17.8,49,15,48.3,103.12,1,2.12559
3/6/2012 12:00,-7.8,-15.3,55,13,48.3,103.09,1,0.37143
3/6/2012 13:00,-6.7,-16,48,9,48.3,103.01,1,37.7137
3/6/2012 14:00,-5.8,-15.8,45,9,48.3,102.98,1,25.2565
3/6/2012 15:00,-5.3,-15.7,44,6,48.3,102.96,1,149.653
3/6/2012 16:00,-4.9,-16.2,41,11,48.3,102.94,1,307.686
3/6/2012 17:00,-4.8,-15.1,44,6,48.3,102.9,1,570.203
3/6/2012 18:00,-6.3,-14.6,52,6,48.3,102.84,1,479.862
3/6/2012 19:00,-5.4,-13.4,53,11,25,102.81,2,340.538
3/6/2012 20:00,-5.3,-13.6,52,9,25,102.72,1,319.17
3/6/2012 21:00,-5.4,-14.4,49,9,25,102.69,2,298.594
3/6/2012 22:00,-5,-15.1,45,9,25,102.59,2,74.9472
3/6/2012 23:00,-4.5,-15.7,41,6,25,102.55,2,0.08277
3/7/2012 0:00,-3.6,-13.3,47,6,25,102.44,2,0.83205
3/7/2012 1:00,-3.9,-11.3,56,9,25,102.46,2,4.45144
3/7/2012 2:00,-5.7,-11.9,62,17,25,102.37,2,26.2286
3/7/2012 3:00,-5.3,-11.6,61,13,25,102.22,2,186.424
3/7/2012 4:00,-5.2,-11.2,63,15,25,102.16,2,300.067
3/7/2012 5:00,-5.3,-11.2,63,17,25,102.13,2,583.023
3/7/2012 6:00,-4.3,-10.3,63,15,24.1,101.98,2,506.578
3/7/2012 7:00,-3.9,-9.2,67,11,48.3,101.92,2,478.53
3/7/2012 8:00,-4.6,-9.5,69,11,48.3,101.91,2,230.131
3/7/2012 9:00,-2.5,-7.7,67,11,24.1,101.85,1,83.0429
3/7/2012 10:00,-0.1,-6.5,62,6,24.1,101.76,1,4.25047
3/7/2012 11:00,3,-4.7,57,6,24.1,101.67,1,5.10306
3/7/2012 12:00,6.4,-3.6,49,4,24.1,101.58,1,10.3983
3/7/2012 13:00,8.9,-4.4,39,13,24.1,101.49,1,10.9028
3/7/2012 14:00,9.3,-4.1,39,13,24.1,101.41,1,7.77532
3/7/2012 15:00,9.7,-2.7,42,13,24.1,101.36,1,135.889
3/7/2012 16:00,11.4,-2.3,38,15,24.1,101.31,2,350.062
3/7/2012 17:00,9.9,-1.9,44,9,24.1,101.25,2,429.508
3/7/2012 18:00,5.5,-1.6,60,7,24.1,101.25,1,316.506
3/7/2012 19:00,6,-1.8,57,11,25,101.22,2,806.554
3/7/2012 20:00,7.6,-2.1,50,20,25,101.18,2,527.605
3/7/2012 21:00,6.8,-2.1,53,22,25,101.16,2,77.1145
3/7/2012 22:00,6,-1.7,58,17,25,101.12,2,58.0797
3/7/2012 23:00,4.8,-1.7,63,15,25,101.05,2,1.20948
3/8/2012 0:00,6.2,-1.5,58,20,25,100.98,2,2.20118
3/8/2012 1:00,5.5,-1.4,61,11,25,100.92,2,25.7535
3/8/2012 2:00,7.9,-1.2,53,17,25,100.81,2,103.99
3/8/2012 3:00,10.1,-0.9,46,24,25,100.69,2,82.0514
3/8/2012 4:00,10,-0.7,47,28,25,100.64,2,273.926
3/8/2012 5:00,5.7,-0.8,63,19,25,100.57,2,434.396
3/8/2012 6:00,7.6,-0.4,57,19,24.1,100.52,2,462.428
3/8/2012 7:00,10.3,0.8,52,26,48.3,100.47,2,519.612
3/8/2012 8:00,6.7,0.2,63,19,48.3,100.39,2,306.14
3/8/2012 9:00,10.2,1.6,55,26,48.3,100.29,2,121.032
3/8/2012 10:00,12.1,2.9,53,30,24.1,100.22,2,3.84201
3/8/2012 11:00,12.7,3.8,55,26,24.1,100.13,2,0.70148
3/8/2012 12:00,11.7,4,59,20,24.1,100.08,3,25.5379
3/8/2012 13:00,11.5,5.2,65,20,24.1,99.99,2,6.73176
3/8/2012 14:00,11.7,5.9,68,26,24.1,99.88,2,35.4543
3/8/2012 15:00,11.7,6.6,71,37,19.3,99.82,3,280.166
3/8/2012 16:00,11.6,6.4,70,32,24.1,99.75,3,168.951
3/8/2012 17:00,11.3,6.9,74,37,19.3,99.66,3,559.224
3/8/2012 18:00,10.5,7.8,83,46,6.4,99.64,3,563.936
3/8/2012 19:00,6.1,3.2,82,30,16.1,99.78,3,452.636
3/8/2012 20:00,5,1.6,79,41,25,99.9,3,239.818
3/8/2012 21:00,3.7,1,82,41,12.9,100.04,3,102.363
3/8/2012 22:00,2,-0.5,83,46,9.7,100.13,3,12.7244
3/8/2012 23:00,0.8,-1.4,85,35,2.4,100.25,3,1.9763
3/9/2012 0:00,-0.1,-2,87,28,2.8,100.33,3,6.28317
3/9/2012 1:00,0,-3.7,76,22,25,100.41,2,2.50415
3/9/2012 2:00,-1.2,-6.6,67,20,25,100.62,1,35.1278
3/9/2012 3:00,-2.6,-8.5,64,24,25,100.81,1,89.4853
3/9/2012 4:00,-3.9,-8.7,69,11,25,100.97,1,291.993
3/9/2012 5:00,-3.9,-9.1,67,20,25,101.13,1,628.946
3/9/2012 6:00,-4.3,-9,70,15,25,101.26,1,637.45
3/9/2012 7:00,-5,-9.7,70,15,24.1,101.31,1,414.03
3/9/2012 8:00,-4.7,-10.2,65,15,24.1,101.41,1,658.105
3/9/2012 9:00,-4,-9.5,66,20,24.1,101.46,1,90.2567
3/9/2012 10:00,-3.7,-10.1,61,19,48.3,101.48,1,3.28945
3/9/2012 11:00,-3,-10,58,17,48.3,101.47,1,5.05268
3/9/2012 12:00,-2.1,-8.5,62,20,48.3,101.44,1,0.2034
3/9/2012 13:00,-1.5,-8.8,57,15,48.3,101.42,1,51.6389
3/9/2012 14:00,-1,-7.6,61,19,48.3,101.43,1,37.3254
3/9/2012 15:00,-1.1,-7.9,60,17,48.3,101.45,2,225.583
3/9/2012 16:00,-0.7,-8.4,56,11,48.3,101.44,2,217.668
3/9/2012 17:00,-0.9,-7.9,59,7,48.3,101.47,2,375.707
3/9/2012 18:00,-2,-8.7,60,7,25,101.52,1,264.157
3/9/2012 19:00,-2.6,-8.2,65,4,25,101.57,2,741.587
3/9/2012 20:00,-2,-9,59,4,25,101.61,2,163.07
3/9/2012 21:00,-1.9,-8.6,60,6,25,101.63,2,111.23
3/9/2012 22:00,-2.2,-8.9,60,7,25,101.64,2,21.4818
3/9/2012 23:00,-2.6,-8.6,63,6,25,101.68,2,5.71822
3/10/2012 0:00,-2.2,-8.7,61,4,25,101.77,2,3.75275
3/10/2012 1:00,-2.7,-8.6,64,15,25,101.89,2,10.9122
3/10/2012 2:00,-3.8,-10.6,59,19,25,102.01,2,0.77195
3/10/2012 3:00,-4.1,-12.7,51,24,25,102.1,2,109.904
3/10/2012 4:00,-5.7,-13.1,56,26,25,102.27,1,258.384
3/10/2012 5:00,-6.4,-14,55,20,25,102.42,1,642.036
3/10/2012 6:00,-6.8,-14.1,56,26,24.1,102.6,2,572.381
3/10/2012 7:00,-7.1,-14.6,55,20,48.3,102.73,1,683.449
3/10/2012 8:00,-6.8,-14.6,54,19,48.3,102.84,1,317.495
3/10/2012 9:00,-6.3,-14.1,54,15,48.3,102.95,2,119.125
3/10/2012 10:00,-6.1,-14.5,51,6,48.3,103.01,1,143.815
3/10/2012 11:00,-4,-13.2,49,0,48.3,103.02,1,0.42203
3/10/2012 12:00,-4.1,-12.1,54,7,48.3,102.99,1,7.44247
3/10/2012 13:00,-3.2,-11.3,53,7,48.3,102.89,1,9.08182
3/10/2012 14:00,-2.6,-11.1,52,15,48.3,102.84,2,18.3886
3/10/2012 15:00,-2.7,-10.2,56,11,48.3,102.75,2,347.585
3/10/2012 16:00,-1.8,-10.3,52,13,48.3,102.71,1,249.362
3/10/2012 17:00,-1.6,-10,53,17,48.3,102.68,1,528.94
3/10/2012 18:00,-2.1,-10.1,54,9,25,102.66,1,670.233
3/10/2012 19:00,-1.9,-9.4,56,9,25,102.67,1,469.48
3/10/2012 20:00,-2.3,-8,65,11,25,102.6,2,219.913
3/10/2012 21:00,-2.3,-8.1,64,11,25,102.54,2,130.232
3/10/2012 22:00,-2,-7.1,68,11,25,102.5,3,8.96177
3/10/2012 23:00,-1.7,-7.1,67,7,25,102.45,2,0.20418
3/11/2012 0:00,-3.1,-7.2,73,7,25,102.36,1,14.6215
3/11/2012 1:00,-3.2,-6.9,76,7,25,102.28,1,8.2562
3/11/2012 2:00,-3.1,-7.1,74,7,25,102.18,1,95.8359
3/11/2012 3:00,-2.2,-7,70,17,25,102.05,2,109.066
3/11/2012 4:00,-1.7,-6.9,68,13,25,102.02,2,227.869
3/11/2012 5:00,-2.1,-7,69,11,25,101.98,1,277.9
3/11/2012 6:00,-1.5,-6.7,68,7,48.3,101.98,2,796.267
3/11/2012 7:00,-1.8,-6.9,68,11,48.3,101.97,1,341.633
3/11/2012 8:00,0.1,-6.2,63,7,48.3,102,1,258.316
3/11/2012 9:00,2.7,-5.9,53,7,48.3,101.98,1,179.601
3/11/2012 10:00,3.8,-5.7,50,13,48.3,101.97,1,9.40578
3/11/2012 11:00,5.9,-4.2,48,11,48.3,101.92,1,25.1592
3/11/2012 12:00,6.8,-3.2,49,24,48.3,101.86,1,17.809
3/11/2012 13:00,9,-1.9,46,20,48.3,101.79,1,38.0801
3/11/2012 14:00,9.5,-1.6,46,24,48.3,101.74,1,28.5818
3/11/2012 15:00,10.5,-1.3,44,20,48.3,101.69,1,85.4605
3/11/2012 16:00,10.9,-0.7,45,15,48.3,101.65,1,260.88
3/11/2012 17:00,10.7,-0.6,45,11,48.3,101.65,1,675.394
3/11/2012 18:00,9.1,-1,49,7,25,101.68,1,656.572
3/11/2012 19:00,7.4,-1.2,54,6,25,101.69,1,457.57
3/11/2012 20:00,4.8,-1.5,64,9,48.3,101.7,1,272.553
3/11/2012 21:00,4.8,-1.6,63,13,25,101.72,1,150.797
3/11/2012 22:00,5.2,-1.9,60,6,25,101.72,1,24.6582
3/11/2012 23:00,6.1,-2,56,7,25,101.75,1,0
3/12/2012 0:00,6,-1.8,57,20,25,101.77,1,6.30357
3/12/2012 1:00,5.2,-1.8,61,17,25,101.77,1,10.4603
3/12/2012 2:00,4.6,-2.1,62,9,25,101.77,1,4.49918
3/12/2012 3:00,1.5,-2.8,73,11,25,101.78,1,133.607
3/12/2012 4:00,1.8,-2.6,73,4,25,101.8,1,311.074
3/12/2012 5:00,2.3,-1.9,74,9,25,101.82,1,586.373
3/12/2012 6:00,3.1,-1.8,70,11,48.3,101.89,1,589.271
3/12/2012 7:00,2.6,-2.3,70,4,48.3,101.98,1,495.89
3/12/2012 8:00,4.4,-1,68,6,48.3,102.03,1,233.426
3/12/2012 9:00,6.5,-0.2,62,0,48.3,102.03,2,267.452
3/12/2012 10:00,8.3,0.2,57,9,24.1,102,2,10.2458
3/12/2012 11:00,10.6,0.3,49,6,24.1,101.99,2,0.49404
3/12/2012 12:00,10.8,0.4,49,9,48.3,101.94,2,16.7175
3/12/2012 13:00,11.6,0.6,47,13,48.3,101.84,2,3.23819
3/12/2012 14:00,12.3,1.4,47,6,48.3,101.79,2,60.8157
3/12/2012 15:00,12.4,0.6,44,4,48.3,101.71,2,168.841
3/12/2012 16:00,11.8,1.2,48,4,25,101.64,2,242.222
3/12/2012 17:00,11.6,1,48,6,24.1,101.57,2,539.79
3/12/2012 18:00,9,1.1,58,13,25,101.54,2,611.303
3/12/2012 19:00,8.7,1.1,59,13,25,101.5,2,332.066
3/12/2012 20:00,9.2,1.4,58,13,25,101.44,2,250.144
3/12/2012 21:00,8.4,1,60,13,25,101.39,2,240.915
3/12/2012 22:00,7.9,0.7,60,11,25,101.35,2,6.37303
3/12/2012 23:00,6.6,-0.3,61,11,25,101.22,2,6.42947
3/13/2012 0:00,7.5,-0.7,56,13,25,101.11,2,5.29223
3/13/2012 1:00,5.1,-0.9,65,13,25,101.07,3,23.9319
3/13/2012 2:00,4.8,-1,66,6,25,101.05,3,46.8843
3/13/2012 3:00,4.6,-0.2,71,15,25,100.87,2,73.9789
3/13/2012 4:00,6.5,1.1,68,7,25,100.74,2,249.852
3/13/2012 5:00,5.8,1.1,72,6,25,100.71,2,356.157
3/13/2012 6:00,7.4,1.8,68,9,19.3,100.6,2,701.185
3/13/2012 7:00,4,1,81,11,9.7,100.61,3,364.867
3/13/2012 8:00,5.5,2.9,83,7,6.4,100.5,3,221.913
3/13/2012 9:00,4.4,2.3,86,17,4,100.51,3,111.791
3/13/2012 10:00,3.5,1.5,87,11,2.4,100.54,3,139.852
3/13/2012 11:00,3.5,1.6,87,11,4.8,100.57,3,1.11792
3/13/2012 12:00,3.9,2.2,89,9,4.8,100.64,2,2.36234
3/13/2012 13:00,4.9,3,87,7,6.4,100.63,2,29.9072
3/13/2012 14:00,6.5,4.5,87,7,6.4,100.61,2,58.5361
3/13/2012 15:00,5.3,3.3,87,11,8,100.63,2,195.949
3/13/2012 16:00,5.5,2.8,83,11,8,100.67,2,293.215
3/13/2012 17:00,4.9,2.2,83,17,8,100.68,2,281.272
3/13/2012 18:00,4,1.5,84,13,8,100.73,2,461.884
3/13/2012 19:00,3.1,0.9,85,17,6.4,100.79,3,276.823
3/13/2012 20:00,2.6,0.3,85,17,6.4,100.77,2,347.207
3/13/2012 21:00,1.1,-1,86,20,4.8,100.87,3,129.201
3/13/2012 22:00,1.4,-0.7,86,6,6.4,100.93,2,33.165
3/13/2012 23:00,1.1,-0.9,86,9,4.8,100.98,2,6.29039
3/14/2012 0:00,0.7,-1,88,7,3.2,101.02,2,1.61393
3/14/2012 1:00,0.7,-0.9,89,7,1,101.06,2,21.3381
3/14/2012 2:00,0.6,-1,89,7,0.8,101.05,2,19.255
3/14/2012 3:00,0.8,-0.3,92,6,0.6,101.06,2,195.019
3/14/2012 4:00,0.8,-0.6,90,4,0.6,101.13,2,382.466
3/14/2012 5:00,0.7,-0.9,89,6,0.6,101.23,2,589.857
3/14/2012 6:00,0.6,-0.9,90,7,0.6,101.28,2,566.606
3/14/2012 7:00,0.8,-0.4,92,6,2.4,101.36,2,261.476
3/14/2012 8:00,1.1,-0.1,92,6,3.2,101.46,3,288.672
3/14/2012 9:00,1.6,0.4,92,7,4.8,101.51,3,86.9181
3/14/2012 10:00,1.1,0.5,96,7,2.4,101.57,3,119.142
3/14/2012 11:00,0.4,0.1,98,6,1.6,101.6,3,6.31867
3/14/2012 12:00,1,0.8,99,4,2,101.65,3,10.6943
3/14/2012 13:00,2.1,1.8,98,4,4.8,101.67,3,18.6183
3/14/2012 14:00,2.2,1.8,97,7,8,101.7,3,4.25047
3/14/2012 15:00,1.7,1.3,97,13,4.8,101.77,3,157.455
3/14/2012 16:00,1.5,1.2,98,13,8,101.82,3,329.327
3/14/2012 17:00,1,0.6,97,15,9.7,101.89,2,429.113
3/14/2012 18:00,0.5,0.1,97,17,9.7,101.99,3,610.431
3/14/2012 19:00,0.3,-0.2,96,15,8,102.07,3,411.573
3/14/2012 20:00,0.2,-0.5,95,15,12.9,102.13,2,221.405
3/14/2012 21:00,-0.1,-0.9,94,17,12.9,102.17,2,175.592
3/14/2012 22:00,-0.3,-1.3,93,20,12.9,102.18,2,4.34117
3/14/2012 23:00,-0.6,-1.6,93,15,12.9,102.23,2,2.62996
3/15/2012 0:00,-0.6,-1.7,92,19,12.9,102.24,2,7.59007
3/15/2012 1:00,-0.6,-1.7,92,19,12.9,102.27,2,39.558
3/15/2012 2:00,-0.4,-1.5,92,13,12.9,102.29,2,22.8781
3/15/2012 3:00,-0.3,-1.5,92,11,12.9,102.25,2,133.701
3/15/2012 4:00,-0.2,-1.3,92,17,12.9,102.26,2,326.382
3/15/2012 5:00,-0.3,-1.5,92,15,12.9,102.34,2,371.785
3/15/2012 6:00,-0.3,-1.6,91,20,16.1,102.36,2,575.555
3/15/2012 7:00,-0.5,-1.9,90,13,16.1,102.4,2,316.366
3/15/2012 8:00,-0.5,-2.1,89,17,19.3,102.42,2,747.339
3/15/2012 9:00,-0.3,-2,88,20,16.1,102.39,2,223.748
3/15/2012 10:00,0.4,-1.6,86,22,19.3,102.31,2,32.3631
3/15/2012 11:00,1.1,-1.3,84,19,24.1,102.23,2,7.33182
3/15/2012 12:00,2.2,-0.7,81,19,24.1,102.18,2,4.94338
3/15/2012 13:00,3.4,0,78,22,24.1,102.12,2,25.3281
3/15/2012 14:00,3.4,-0.1,78,22,24.1,102.05,2,20.2926
3/15/2012 15:00,4,0.6,78,24,24.1,102,2,99.9117
3/15/2012 16:00,3.5,0.1,78,20,24.1,101.99,2,156.903
3/15/2012 17:00,3,-0.3,79,26,24.1,101.98,2,552.279
3/15/2012 18:00,2.6,-0.3,81,22,24.1,101.98,3,373.398
3/15/2012 19:00,2.4,-0.4,82,28,25,101.88,2,633.872
3/15/2012 20:00,2.3,-0.2,84,24,25,101.86,2,250.749
3/15/2012 21:00,2,0.4,89,28,25,101.8,3,47.22
3/15/2012 22:00,2.1,0.5,89,20,25,101.77,2,17.8729
3/15/2012 23:00,1.8,0.2,89,19,25,101.7,2,2.27944
3/16/2012 0:00,1.8,0.4,90,19,25,101.67,2,5.30771
3/16/2012 1:00,1.9,0.6,91,15,25,101.54,3,25.2687
3/16/2012 2:00,1.1,0.2,94,17,12.9,101.56,3,23.6988
3/16/2012 3:00,1.1,0.5,96,19,6.4,101.46,3,158.12
3/16/2012 4:00,1,0.5,96,17,4.8,101.39,3,394.917
3/16/2012 5:00,0.7,0.3,97,20,4.8,101.36,3,533.732
3/16/2012 6:00,0.6,0.2,97,24,6.4,101.39,3,570.408
3/16/2012 7:00,1.1,0.6,96,19,4.8,101.37,3,310.979
3/16/2012 8:00,1.1,0.7,97,15,4,101.38,3,366.703
3/16/2012 9:00,1.1,0.7,97,17,4,101.41,3,228.993
3/16/2012 10:00,1.5,1.1,97,13,4.8,101.41,3,7.66937
3/16/2012 11:00,1.8,1.3,96,13,8,101.4,3,21.5583
3/16/2012 12:00,2.5,2,96,6,8,101.42,2,0.0265
3/16/2012 13:00,3.3,2.8,97,6,9.7,101.38,2,30.1397
3/16/2012 14:00,4,3.2,95,11,9.7,101.4,2,5.98596
3/16/2012 15:00,3.7,3.2,97,7,6.4,101.48,2,103.289
3/16/2012 16:00,4.3,3.5,95,4,8,101.53,2,403.94
3/16/2012 17:00,4.1,3.2,94,7,8,101.61,2,390.076
3/16/2012 18:00,3.8,3.2,96,7,4.8,101.71,3,335.537
3/16/2012 19:00,3.8,3.2,96,0,3.2,101.77,3,501.751
3/16/2012 20:00,3.7,3.3,97,0,2,101.93,3,296.256
3/16/2012 21:00,4,3.7,98,7,3.2,101.93,3,180.106
3/16/2012 22:00,3.8,3.4,97,0,6.4,102.04,3,7.05839
3/16/2012 23:00,3.7,3.3,97,0,3.2,102.07,3,1.35544
3/17/2012 0:00,3.8,3.5,98,4,1.6,102.05,3,10.5036
3/17/2012 1:00,3,2.7,98,6,0.6,102.05,2,11.8401
3/17/2012 2:00,2.7,2.5,99,4,0.2,102.09,2,14.8106
3/17/2012 3:00,1.8,1.6,99,4,0.2,102.1,2,69.324
3/17/2012 4:00,0.3,0.1,99,0,0.2,102.15,2,465.273
3/17/2012 5:00,-0.1,-0.3,99,0,0.8,102.2,3,717.301
3/17/2012 6:00,-0.1,-0.4,98,4,0.2,102.26,3,547.367
3/17/2012 7:00,0.5,0.4,99,0,0.2,102.34,2,614.125
3/17/2012 8:00,1,0.9,99,0,0.2,102.39,2,220.827
3/17/2012 9:00,1.6,1.5,99,4,0.2,102.38,2,122.557
3/17/2012 10:00,2.6,2.6,100,0,0.2,102.37,2,46.7906
3/17/2012 11:00,4.1,3.8,98,4,0.6,102.34,2,0.16198
3/17/2012 12:00,5.7,5.3,97,4,9.7,102.32,2,1.57736
3/17/2012 13:00,8.1,6.2,88,7,16.1,102.18,2,15.5098
3/17/2012 14:00,9.2,4.3,71,7,24.1,102.13,2,15.5301
3/17/2012 15:00,10.2,4.4,67,6,24.1,102.07,2,50.3976
3/17/2012 16:00,10.5,4.1,65,7,48.3,102.02,2,321.014
3/17/2012 17:00,10.1,4.7,69,9,48.3,101.97,2,503.846
3/17/2012 18:00,10.1,5.4,73,7,48.3,101.95,2,609.832
3/17/2012 19:00,9.8,5.9,77,6,25,101.93,2,458.453
3/17/2012 20:00,9.3,5.2,76,0,25,101.92,2,354.547
3/17/2012 21:00,8.8,5.5,80,4,25,101.8,2,226.98
3/17/2012 22:00,7.7,4.9,82,0,25,101.77,1,7.19556
3/17/2012 23:00,6.7,4.7,87,7,25,101.78,1,2.27083
3/18/2012 0:00,3.8,2.8,93,4,25,101.75,1,0.09005
3/18/2012 1:00,5.2,3.5,89,0,25,101.74,2,28.8248
3/18/2012 2:00,4.3,3,91,6,25,101.71,1,123.366
3/18/2012 3:00,3.9,2.4,90,7,25,101.66,1,188.578
3/18/2012 4:00,3.2,2.3,94,6,25,101.69,1,356.941
3/18/2012 5:00,3.5,2.4,92,6,25,101.7,1,459.402
3/18/2012 6:00,3.6,2.6,93,7,24.1,101.72,1,345.623
3/18/2012 7:00,5.1,3.7,91,4,48.3,101.78,1,651.6
3/18/2012 8:00,8.8,5.8,81,11,48.3,101.79,1,291.108
3/18/2012 9:00,10.4,6.6,77,11,48.3,101.81,1,134.946
3/18/2012 10:00,11.9,6.7,70,13,48.3,101.78,1,4.54599
3/18/2012 11:00,14.1,7.6,65,13,48.3,101.71,1,7.21845
3/18/2012 12:00,17.3,8.7,57,11,48.3,101.63,1,9.50147
3/18/2012 13:00,20,9.9,52,15,48.3,101.55,1,18.1531
3/18/2012 14:00,21.7,10.5,49,13,48.3,101.45,1,11.294
3/18/2012 15:00,22.2,10.4,47,15,48.3,101.39,1,243.23
3/18/2012 16:00,22.7,10.7,47,11,48.3,101.35,1,327.274
3/18/2012 17:00,21.8,11,50,6,48.3,101.32,2,783.675
3/18/2012 18:00,18.4,10.1,58,9,48.3,101.32,2,460.039
3/18/2012 19:00,17.1,9.8,62,0,25,101.3,1,578.413
3/18/2012 20:00,12.8,8.6,76,7,25,101.34,1,222.544
3/18/2012 21:00,13.4,9.2,76,4,25,101.37,1,264.913
3/18/2012 22:00,12.6,8.9,78,7,25,101.39,1,69.0747
3/18/2012 23:00,10.6,7.9,83,6,25,101.37,1,3.15451
3/19/2012 0:00,9.8,7.6,86,6,25,101.37,1,5.14758
3/19/2012 1:00,10.8,8.5,86,6,25,101.39,1,24.3795
3/19/2012 2:00,10.6,8.6,87,4,25,101.42,1,39.3477
3/19/2012 3:00,10.2,8.3,88,11,25,101.42,1,170.641
3/19/2012 4:00,11.2,9,86,6,25,101.49,1,194.522
3/19/2012 5:00,9.7,8.1,90,7,25,101.5,1,269.781
3/19/2012 6:00,11.3,9.4,88,4,24.1,101.56,1,661.474
3/19/2012 7:00,9.9,8.5,91,0,12.9,101.59,2,443.541
3/19/2012 8:00,11.9,9.9,88,7,12.9,101.67,2,452.43
3/19/2012 9:00,13.9,10.5,80,6,12.9,101.71,1,81.3453
3/19/2012 10:00,15.6,11,74,6,16.1,101.75,1,16.4857
3/19/2012 11:00,17.8,11.6,67,4,16.1,101.75,1,0.1343
3/19/2012 12:00,19.8,12,61,4,19.3,101.75,1,29.3725
3/19/2012 13:00,18.5,11,62,19,19.3,101.72,1,25.4597
3/19/2012 14:00,17,9.9,63,15,24.1,101.72,1,57.1202
3/19/2012 15:00,16.3,10,66,17,24.1,101.71,1,333.39
3/19/2012 16:00,16.6,9.7,64,11,24.1,101.66,1,208.787
3/19/2012 17:00,15.9,9.1,64,13,24.1,101.66,1,442.53
3/19/2012 18:00,13.9,7.9,67,19,24.1,101.67,1,522.932
3/19/2012 19:00,12.5,6.7,68,15,25,101.71,1,509.659
3/19/2012 20:00,10.6,5.4,70,13,25,101.8,1,323.417
3/19/2012 21:00,9.5,4.1,69,15,25,101.8,1,64.8117
3/19/2012 22:00,8.8,2.7,66,17,25,101.83,1,6.26408
3/19/2012 23:00,7.2,1.8,69,9,25,101.86,1,0.82889
3/20/2012 0:00,7.1,1,65,11,25,101.85,1,27.2062
3/20/2012 1:00,6.1,0.7,68,11,25,101.85,1,15.227
3/20/2012 2:00,5.7,0.4,69,11,25,101.85,1,42.1676
3/20/2012 3:00,5.2,0.2,70,7,25,101.86,1,145.949
3/20/2012 4:00,5.2,-0.2,68,4,25,101.88,1,198.366
3/20/2012 5:00,5,-0.3,69,7,25,101.92,1,460.273
3/20/2012 6:00,3.2,-0.6,76,4,24.1,101.97,1,408.849
3/20/2012 7:00,5.5,-0.1,67,4,24.1,102,1,429.219
3/20/2012 8:00,8,0.6,60,6,24.1,102.08,1,230.536
3/20/2012 9:00,10.6,1.3,53,0,19.3,102.09,1,88.1687
3/20/2012 10:00,12.6,2.6,50,4,24.1,102.07,1,2.02702
3/20/2012 11:00,14.9,4,48,6,24.1,102.02,1,0.35446
3/20/2012 12:00,16.5,6.7,52,9,24.1,101.98,1,25.9673
3/20/2012 13:00,20,10.8,55,13,24.1,101.93,1,17.3206
3/20/2012 14:00,21.5,11.8,54,11,24.1,101.83,1,21.6969
3/20/2012 15:00,22.5,12.3,52,9,24.1,101.78,1,171.733
3/20/2012 16:00,23.3,12.1,49,7,24.1,101.73,1,309.845
3/20/2012 17:00,22,12.1,53,7,24.1,101.72,1,383.063
3/20/2012 18:00,19.7,11.7,60,4,24.1,101.74,1,451.998
3/20/2012 19:00,17.5,10.9,65,6,25,101.79,1,358.178
3/20/2012 20:00,18.1,11.6,66,4,25,101.85,1,297.065
3/20/2012 21:00,16,10.9,72,6,25,101.89,1,284.818
3/20/2012 22:00,14.2,10.3,77,4,25,101.9,1,8.55173
3/20/2012 23:00,14.3,10.7,79,6,25,101.91,1,0.81369
3/21/2012 0:00,14,11,82,9,25,101.9,1,0.81116
3/21/2012 1:00,12.4,10.5,88,4,25,101.92,1,16.2432
3/21/2012 2:00,11.8,10.3,91,6,25,101.93,1,51.7841
3/21/2012 3:00,11.4,9.8,90,4,25,101.93,1,267.018
3/21/2012 4:00,10.6,9.1,90,0,25,101.95,1,270.761
3/21/2012 5:00,10,8.8,92,0,25,102.02,1,425.059
3/21/2012 6:00,9.5,8.6,94,4,9.7,102.07,2,395.186
3/21/2012 7:00,11.3,9.9,91,4,9.7,102.1,2,538.033
3/21/2012 8:00,13.8,11.5,86,9,12.9,102.15,1,412.309
3/21/2012 9:00,15.9,11.8,77,7,19.3,102.17,1,297.256
3/21/2012 10:00,18.2,12.5,69,13,24.1,102.09,1,43.8025
3/21/2012 11:00,20.2,12.3,60,15,24.1,102.01,1,0.08892
3/21/2012 12:00,22.3,12.6,54,15,24.1,101.94,1,2.18307
3/21/2012 13:00,23.8,12.1,48,17,24.1,101.85,1,5.67583
3/21/2012 14:00,24.7,12.1,45,13,24.1,101.77,1,69.8127
3/21/2012 15:00,25.4,12,43,17,48.3,101.72,1,107.859
3/21/2012 16:00,25.5,11,40,17,48.3,101.69,1,356.112
3/21/2012 17:00,25.2,10.7,40,13,48.3,101.68,1,442.622
3/21/2012 18:00,20.7,9.7,49,9,48.3,101.67,1,631.931
3/21/2012 19:00,17.2,9.1,59,6,25,101.67,1,446.662
3/21/2012 20:00,18.4,8.9,54,7,25,101.7,1,497.411
3/21/2012 21:00,16.4,9.7,65,13,25,101.68,1,261.153
3/21/2012 22:00,18,10.5,62,7,25,101.66,1,1.08203
3/21/2012 23:00,16.5,9.5,63,7,25,101.66,1,30.1635
3/22/2012 0:00,17,9.1,60,13,25,101.63,1,4.94443
3/22/2012 1:00,15.5,8.7,64,11,25,101.62,1,53.1801
3/22/2012 2:00,15,8.7,66,7,25,101.59,1,41.4551
3/22/2012 3:00,11,7.4,78,9,25,101.56,1,265.178
3/22/2012 4:00,13.2,8.4,73,6,25,101.54,1,338.362
3/22/2012 5:00,12.8,8.5,75,13,25,101.59,1,383.859
3/22/2012 6:00,13.7,9,73,15,48.3,101.57,2,428.44
3/22/2012 7:00,14.2,9.5,73,22,24.1,101.55,1,504.491
3/22/2012 8:00,15.4,9.9,70,15,24.1,101.55,1,273.255
3/22/2012 9:00,17.3,10.4,64,22,24.1,101.53,1,238.586
3/22/2012 10:00,19.6,11.4,59,17,24.1,101.57,1,45.6929
3/22/2012 11:00,20.4,11.9,58,15,24.1,101.52,1,0.34566
3/22/2012 12:00,23,12,50,20,24.1,101.5,2,8.43542
3/22/2012 13:00,23.3,12.1,49,19,24.1,101.43,2,11.1358
3/22/2012 14:00,22.8,12.6,53,17,24.1,101.4,2,66.8256
3/22/2012 15:00,21.4,12.8,58,6,24.1,101.38,2,325.503
3/22/2012 16:00,22.2,12.3,53,13,24.1,101.33,2,397.104
3/22/2012 17:00,20,12.2,61,11,24.1,101.39,2,528.721
3/22/2012 18:00,18.2,11.5,65,19,24.1,101.48,3,575.004
3/22/2012 19:00,16.7,9.4,62,13,25,101.52,3,448.978
3/22/2012 20:00,15.1,8.5,65,11,25,101.58,1,364.827
3/22/2012 21:00,12.1,7.4,73,7,25,101.59,1,124.113
3/22/2012 22:00,11,6.8,75,7,25,101.61,1,7.79009
3/22/2012 23:00,11.3,7.2,76,6,25,101.62,1,0.24329
3/23/2012 0:00,10.4,7.1,80,7,25,101.67,1,0.95331
3/23/2012 1:00,10.3,7.5,83,0,25,101.7,1,37.1688
3/23/2012 2:00,8.9,6.5,85,9,25,101.71,1,36.8968
3/23/2012 3:00,8.8,6.4,85,9,25,101.72,1,77.3122
3/23/2012 4:00,9.2,6.3,82,7,25,101.76,1,208.921
3/23/2012 5:00,8,5.2,82,9,25,101.85,1,562.629
3/23/2012 6:00,6.6,2.9,77,7,25,101.9,1,429.562
3/23/2012 7:00,8.4,3,69,0,48.3,101.93,1,516.673
3/23/2012 8:00,11.3,1.8,52,0,48.3,101.93,1,204.392
3/23/2012 9:00,12.8,2.3,49,4,48.3,101.94,1,194.603
3/23/2012 10:00,14.5,0.1,37,17,48.3,101.93,1,110.718
3/23/2012 11:00,14.9,-3,29,15,48.3,101.87,1,0.81345
3/23/2012 12:00,16.2,-2.5,28,11,48.3,101.81,1,1.46508
3/23/2012 13:00,16.8,-2.3,27,7,48.3,101.71,2,0.0057
3/23/2012 14:00,16.6,-6.8,19,15,48.3,101.66,2,48.0227
3/23/2012 15:00,16.4,-6.8,20,15,48.3,101.63,2,134.69
3/23/2012 16:00,15.5,-9,18,22,48.3,101.6,2,201.181
3/23/2012 17:00,14.7,-5.1,25,13,48.3,101.62,2,424.819
3/23/2012 18:00,13.4,-5.8,26,13,48.3,101.64,2,639.217
3/23/2012 19:00,11.8,-5.5,29,11,25,101.68,2,461.463
3/23/2012 20:00,10.9,-5.9,30,6,25,101.72,2,326.631
3/23/2012 21:00,10.8,-8,26,15,25,101.7,2,261.506
3/23/2012 22:00,10.6,-8.9,24,19,25,101.73,2,38.4084
3/23/2012 23:00,9.9,-8.7,26,19,25,101.78,2,2.73628
3/24/2012 0:00,8.4,-9.1,28,22,25,101.8,2,2.819
3/24/2012 1:00,7.3,-9.4,29,20,25,101.85,1,2.5095
3/24/2012 2:00,6.2,-10.6,29,19,25,101.86,2,58.8997
3/24/2012 3:00,5.3,-9.4,34,22,25,101.86,2,255.301
3/24/2012 4:00,4.4,-8.9,37,13,25,101.88,2,288.571
3/24/2012 5:00,3.6,-8.5,41,19,25,101.89,2,504.859
3/24/2012 6:00,3.2,-8.8,41,19,24.1,101.93,2,603.285
3/24/2012 7:00,3.1,-9.3,40,15,24.1,101.97,2,342.201
3/24/2012 8:00,2.7,-9.4,40,19,24.1,101.98,2,352.395
3/24/2012 9:00,3,-11.2,34,22,48.3,101.94,2,273.719
3/24/2012 10:00,3.7,-9.5,37,22,48.3,101.89,2,49.1966
3/24/2012 11:00,3.7,-11.1,33,22,48.3,101.86,2,1.43815
3/24/2012 12:00,4.8,-10.3,33,19,48.3,101.8,2,13.7329
3/24/2012 13:00,4.7,-10.9,31,19,48.3,101.74,2,7.78775
3/24/2012 14:00,6.1,-8.7,34,9,48.3,101.68,2,64.1822
3/24/2012 15:00,5.8,-9.8,32,4,48.3,101.61,2,114.384
3/24/2012 16:00,6.1,-9.5,32,7,48.3,101.53,2,317.316
3/24/2012 17:00,6.1,-10.3,30,13,48.3,101.47,2,543.459
3/24/2012 18:00,6.1,-9.9,31,13,48.3,101.46,2,652.124
3/24/2012 19:00,6.2,-8.4,34,13,25,101.38,2,397.148
3/24/2012 20:00,6.3,-7.4,37,9,25,101.35,2,415.956
3/24/2012 21:00,6.6,-8.1,34,9,25,101.28,2,119.564
3/24/2012 22:00,6.6,-7.8,35,11,25,101.22,2,17.1858
3/24/2012 23:00,6.5,-7.2,37,7,25,101.15,3,0.75467
3/25/2012 0:00,5.8,-5.7,43,20,25,101.05,3,15.6634
3/25/2012 1:00,5.9,-6.2,41,13,25,101.03,2,20.5793
3/25/2012 2:00,5.9,-5,45,9,25,100.91,3,23.3158
3/25/2012 3:00,5.8,-4.2,49,7,25,100.84,2,91.1713
3/25/2012 4:00,5.3,-4.3,50,19,25,100.79,2,250.974
3/25/2012 5:00,4.5,-2.9,59,11,25,100.73,2,683.143
3/25/2012 6:00,3.8,-0.9,71,15,24.1,100.76,3,466.429
3/25/2012 7:00,2.5,0.9,89,17,24.1,100.76,3,450.3
3/25/2012 8:00,3,1.5,90,6,24.1,100.74,3,212.264
3/25/2012 9:00,3.1,2,92,0,6.4,100.71,3,177.784
3/25/2012 10:00,3.9,2.7,92,0,12.9,100.66,2,0.14087
3/25/2012 11:00,5.2,3.6,89,6,16.1,100.58,2,6.70821
3/25/2012 12:00,5.9,3.7,86,6,24.1,100.54,2,4.17168
3/25/2012 13:00,6.6,4,83,6,24.1,100.47,2,2.55556
3/25/2012 14:00,7.5,4.1,79,11,24.1,100.39,2,63.0167
3/25/2012 15:00,7.6,4.6,81,9,24.1,100.29,2,117.456
3/25/2012 16:00,8.4,4.8,78,9,24.1,100.27,2,214.981
3/25/2012 17:00,9.2,5.3,77,7,24.1,100.26,2,477.064
3/25/2012 18:00,8.9,5.7,80,7,24.1,100.28,2,548.997
3/25/2012 19:00,8.7,5.2,79,4,25,100.25,1,451.5
3/25/2012 20:00,7.3,4.9,85,7,25,100.22,2,265.446
3/25/2012 21:00,8.2,5.7,84,13,25,100.21,1,171.876
3/25/2012 22:00,7.5,5.5,87,11,25,100.17,1,115.431
3/25/2012 23:00,6.4,4.8,89,11,25,100.12,2,0.82756
3/26/2012 0:00,7.3,3.7,78,24,25,100.19,3,12.145
3/26/2012 1:00,4.6,-1.9,63,33,25,100.29,3,4.21711
3/26/2012 2:00,2.6,-3.7,63,26,25,100.4,2,83.9227
3/26/2012 3:00,0.8,-8.9,48,26,25,100.6,2,118.754
3/26/2012 4:00,-1.1,-10.4,49,22,25,100.74,1,287.922
3/26/2012 5:00,-1.9,-10.9,50,20,25,100.86,1,595.058
3/26/2012 6:00,-3.8,-13.4,47,32,24.1,101.03,1,483.284
3/26/2012 7:00,-3.8,-13.6,46,26,48.3,101.19,1,510.976
3/26/2012 8:00,-4,-12.6,51,26,48.3,101.27,2,338.255
3/26/2012 9:00,-3,-13.1,46,22,48.3,101.33,1,173.323
3/26/2012 10:00,-2.1,-13,43,26,48.3,101.32,1,55.2849
3/26/2012 11:00,-0.6,-11.4,44,28,48.3,101.3,1,4.08725
3/26/2012 12:00,0.2,-11.4,41,30,48.3,101.28,1,21.3908
3/26/2012 13:00,0.6,-12.6,36,28,48.3,101.26,1,27.3864
3/26/2012 14:00,1.3,-13.3,33,28,48.3,101.24,1,12.6682
3/26/2012 15:00,1.4,-14.8,29,30,48.3,101.26,1,68.7759
3/26/2012 16:00,1.3,-15.7,27,30,48.3,101.29,1,129.986
3/26/2012 17:00,1.2,-16.3,26,32,48.3,101.34,1,412.538
3/26/2012 18:00,0.1,-17.3,26,24,48.3,101.43,1,527.145
3/26/2012 19:00,-0.7,-18,26,28,25,101.56,1,339.035
3/26/2012 20:00,-1.4,-18.7,25,28,25,101.68,1,230.859
3/26/2012 21:00,-2.3,-18.4,28,24,25,101.79,1,78.5405
3/26/2012 22:00,-2.9,-17.8,31,28,25,101.84,1,0.52471
3/26/2012 23:00,-3.6,-17.4,33,26,25,101.9,1,1.44234
3/27/2012 0:00,-4.3,-17.6,35,22,25,101.94,1,4.36869
3/27/2012 1:00,-5,-17.7,36,19,25,101.96,1,31.3106
3/27/2012 2:00,-5.4,-16.8,40,17,25,102.02,1,18.0814
3/27/2012 3:00,-6,-17,41,17,25,102.06,1,137.765
3/27/2012 4:00,-6.5,-17.3,42,13,25,102.14,1,214.459
3/27/2012 5:00,-7.4,-16.4,49,11,25,102.24,1,226.438
3/27/2012 6:00,-7.5,-16.4,49,9,48.3,102.31,1,401.132
3/27/2012 7:00,-6.1,-17.7,39,9,48.3,102.39,1,476.307
3/27/2012 8:00,-5.1,-18.7,34,13,48.3,102.41,1,268.075
3/27/2012 9:00,-4.3,-20.3,27,9,48.3,102.44,1,166.99
3/27/2012 10:00,-2.5,-21.7,21,0,48.3,102.48,1,6.81405
3/27/2012 11:00,-1.6,-20.6,22,6,48.3,102.43,1,2.76849
3/27/2012 12:00,0.2,-16.7,27,9,48.3,102.31,1,25.2933
3/27/2012 13:00,1,-16.1,27,6,48.3,102.2,1,20.4774
3/27/2012 14:00,1.7,-18.4,21,13,48.3,102.06,1,83.1661
3/27/2012 15:00,2.1,-16.5,24,15,48.3,101.98,1,122.485
3/27/2012 16:00,2.7,-13,30,17,48.3,101.93,2,359.432
3/27/2012 17:00,2.7,-12.3,32,19,48.3,101.88,2,465.967
3/27/2012 18:00,2.6,-11.9,33,15,48.3,101.79,2,443.91
3/27/2012 19:00,2.8,-11.7,33,11,25,101.74,2,553.256
3/27/2012 20:00,2.6,-11.4,35,13,25,101.68,2,388.106
3/27/2012 21:00,2.1,-10.7,38,9,25,101.67,2,402.994
3/27/2012 22:00,1,-10.1,43,20,25,101.47,2,0.19915
3/27/2012 23:00,1,-10.8,41,13,25,101.44,2,4.4506
3/28/2012 0:00,1,-10.8,41,6,16.1,101.58,3,0.03981
3/28/2012 1:00,-1.1,-4.5,78,11,16.1,101.39,3,0.97754
3/28/2012 2:00,-1,-4.8,75,13,9.7,101.28,3,47.3186
3/28/2012 3:00,-1.6,-4.1,83,20,25,101.08,3,27.0602
3/28/2012 4:00,-1.5,-3.8,84,20,25,100.88,3,250.843
3/28/2012 5:00,-1,-3.9,81,19,25,100.68,2,360.87
3/28/2012 6:00,-0.3,-3.5,79,20,24.1,100.51,3,669.317
3/28/2012 7:00,0.5,-2.7,79,22,24.1,100.4,3,347.803
3/28/2012 8:00,0.8,-2.9,76,19,8,100.25,3,389.229
3/28/2012 9:00,2.1,-3.3,67,15,48.3,100.08,2,134.597
3/28/2012 10:00,2.3,-3.3,66,11,48.3,99.94,2,29.934
3/28/2012 11:00,2.8,-2.1,70,13,48.3,99.74,2,0.58055
3/28/2012 12:00,3.8,-3.2,60,7,48.3,99.64,2,6.16273
3/28/2012 13:00,4.3,-2.9,59,9,48.3,99.51,2,22.7065
3/28/2012 14:00,4.4,-1.2,67,13,24.1,99.45,3,22.3121
3/28/2012 15:00,2.5,0.6,87,19,19.3,99.42,3,87.3954
3/28/2012 16:00,2.2,0.7,90,20,12.9,99.48,3,192.679
3/28/2012 17:00,1.5,0.2,91,19,16.1,99.53,3,972.536
3/28/2012 18:00,1.3,-0.2,90,13,16.1,99.63,3,294.587
3/28/2012 19:00,1.3,-0.2,90,11,12.9,99.74,2,510.77
3/28/2012 20:00,1.2,-0.3,90,13,9.7,99.86,2,208.662
3/28/2012 21:00,1,-0.5,90,15,9.7,99.92,2,169.7
3/28/2012 22:00,1,-0.7,88,13,9.7,99.95,2,5.16209
3/28/2012 23:00,0.8,-1,88,17,11.3,99.99,2,0.60981
3/29/2012 0:00,0.6,-1.2,88,15,12.9,100.05,2,8.66949
3/29/2012 1:00,0.5,-1.5,86,11,12.9,100.12,2,22.2978
3/29/2012 2:00,0.4,-1.8,85,17,25,100.15,2,6.04963
3/29/2012 3:00,0.5,-1.9,84,11,25,100.19,2,95.3012
3/29/2012 4:00,0.6,-2.1,82,11,25,100.27,2,319.335
3/29/2012 5:00,0.6,-2.1,82,9,25,100.35,3,399.432
3/29/2012 6:00,0.7,-1.9,83,6,24.1,100.44,3,509.042
3/29/2012 7:00,0.8,-1.6,84,7,24.1,100.52,3,401.382
3/29/2012 8:00,1.5,-1.1,83,6,16.1,100.59,3,207.679
3/29/2012 9:00,2.5,-1.2,77,9,24.1,100.64,3,170.023
3/29/2012 10:00,3.2,-2.4,67,13,24.1,100.7,2,0.1717
3/29/2012 11:00,3.6,-2.2,66,9,24.1,100.71,2,0.7377
3/29/2012 12:00,3.9,-2.2,64,6,24.1,100.71,2,0.58449
3/29/2012 13:00,4.2,-2.5,62,13,24.1,100.72,2,0.9191
3/29/2012 14:00,4,-2.8,61,15,24.1,100.76,2,33.631
3/29/2012 15:00,4.1,-3.5,58,19,24.1,100.81,2,117.506
3/29/2012 16:00,3.9,-2.8,62,13,24.1,100.87,2,272.534
3/29/2012 17:00,3.5,-4.1,57,24,24.1,100.92,2,459.493
3/29/2012 18:00,3.4,-5.6,52,20,24.1,100.97,2,572.234
3/29/2012 19:00,2.9,-5.6,54,19,25,101.01,2,299.125
3/29/2012 20:00,2.2,-4.7,60,19,25,101.07,2,266.525
3/29/2012 21:00,1.9,-6.3,55,24,25,101.11,2,238.534
3/29/2012 22:00,1.4,-7.4,52,17,25,101.14,2,13.3191
3/29/2012 23:00,0.8,-8.2,51,24,25,101.17,2,0.78731
3/30/2012 0:00,0.1,-9.1,50,19,25,101.18,2,5.94211
3/30/2012 1:00,-1,-9.8,51,20,25,101.21,1,19.8919
3/30/2012 2:00,-2.2,-9.7,56,15,25,101.22,1,24.7424
3/30/2012 3:00,-3.5,-11.4,54,19,25,101.25,1,213.125
3/30/2012 4:00,-4.3,-10.8,60,4,25,101.33,1,238.66
3/30/2012 5:00,-5.1,-10.4,66,11,24.1,101.32,1,502.621
3/30/2012 6:00,-4.8,-10.8,63,13,48.3,101.39,1,569.584
3/30/2012 7:00,-4.3,-10.9,60,15,48.3,101.52,1,326.531
3/30/2012 8:00,-3,-10.4,57,11,48.3,101.56,1,270.624
3/30/2012 9:00,-2,-10.1,54,13,48.3,101.63,1,316.161
3/30/2012 10:00,-0.8,-9.5,52,9,48.3,101.62,1,29.8628
3/30/2012 11:00,0.9,-9.6,45,4,48.3,101.57,2,0.15303
3/30/2012 12:00,1.6,-8,49,17,48.3,101.52,1,0.27337
3/30/2012 13:00,3.1,-9.1,40,6,48.3,101.38,1,37.1055
3/30/2012 14:00,4.4,-8.8,38,17,48.3,101.3,1,37.4934
3/30/2012 15:00,4.8,-8.9,36,17,48.3,101.26,2,52.9001
3/30/2012 16:00,4.8,-9.3,35,15,48.3,101.26,2,192.222
3/30/2012 17:00,4.4,-8.6,38,15,48.3,101.24,2,448.92
3/30/2012 18:00,3.9,-7.9,42,11,24.1,101.26,2,602.78
3/30/2012 19:00,3.1,-6.7,49,7,25,101.29,2,556.13
3/30/2012 20:00,3,-8.4,43,7,25,101.3,2,286.953
3/30/2012 21:00,1.7,-9,45,4,25,101.32,2,102.255
3/30/2012 22:00,0.4,-8.1,53,0,25,101.3,2,33.2288
3/30/2012 23:00,1.4,-7.7,51,6,25,101.34,1,14.7019
3/31/2012 0:00,1.5,-8.6,47,13,25,101.33,2,15.4377
3/31/2012 1:00,1.3,-9.6,44,13,25,101.31,2,0.87698
3/31/2012 2:00,1.3,-9.7,44,11,25,101.29,2,22.8879
3/31/2012 3:00,0.7,-8.8,49,13,25,101.3,2,53.478
3/31/2012 4:00,-0.9,-8.5,56,13,25,101.32,2,183.664
3/31/2012 5:00,-0.6,-9.2,52,13,25,101.3,2,423.554
3/31/2012 6:00,-0.5,-9.2,52,15,48.3,101.32,2,429.89
3/31/2012 7:00,-0.3,-9.2,51,19,48.3,101.32,2,456.18
3/31/2012 8:00,0.7,-8.5,50,17,48.3,101.33,2,318.377
3/31/2012 9:00,1.5,-7.8,50,17,48.3,101.34,2,175.73
3/31/2012 10:00,2.9,-8.1,44,15,48.3,101.3,1,23.6765
3/31/2012 11:00,4.6,-9.7,35,7,48.3,101.24,1,29.1764
3/31/2012 12:00,6.4,-7.1,37,11,48.3,101.16,1,24.1993
3/31/2012 13:00,6.5,-9.7,30,9,48.3,101.08,1,3.72153
3/31/2012 14:00,7.7,-8.5,31,4,48.3,101.01,1,95.0896
3/31/2012 15:00,7.7,-8.6,30,6,48.3,100.94,1,145.831
3/31/2012 16:00,8.4,-7.7,31,4,48.3,100.89,1,197.062
3/31/2012 17:00,7.9,-8.1,31,6,48.3,100.88,1,318.576
3/31/2012 18:00,7,-8.2,33,7,48.3,100.87,1,511.037
3/31/2012 19:00,5.9,-8,36,4,25,100.88,1,377.757
3/31/2012 20:00,4.4,-7.2,43,9,25,100.85,1,363.87
3/31/2012 21:00,2.6,-6.3,52,7,25,100.86,1,132.535
3/31/2012 22:00,2.7,-6.7,50,0,25,100.82,1,2.10312
3/31/2012 23:00,1.5,-6.9,54,0,25,100.79,1,0.45729
4/1/2012 0:00,0.4,-6.6,59,0,25,100.75,1,8.01219
4/1/2012 1:00,-1.5,-7.3,65,4,25,100.77,1,7.75839
4/1/2012 2:00,0.1,-6.9,59,0,25,100.7,1,53.2339
4/1/2012 3:00,-1,-6.2,68,0,25,100.67,1,107.727
4/1/2012 4:00,-1,-5.3,73,0,25,100.66,1,267.954
4/1/2012 5:00,-0.4,-4.5,74,4,25,100.65,2,800.141
4/1/2012 6:00,0.5,-3.2,76,6,48.3,100.62,2,511.001
4/1/2012 7:00,1.2,-3.6,70,6,48.3,100.6,2,415.247
4/1/2012 8:00,3.2,-4.5,57,11,48.3,100.53,2,199.112
4/1/2012 9:00,3.7,-3.9,58,9,48.3,100.49,2,128.784
4/1/2012 10:00,4.1,-2.8,61,7,48.3,100.46,2,23.7808
4/1/2012 11:00,4.8,-0.3,70,4,24.1,100.43,3,1.31776
4/1/2012 12:00,5.8,0.2,67,0,24.1,100.35,3,3.66924
4/1/2012 13:00,5.9,0,66,7,24.1,100.24,3,0.74622
4/1/2012 14:00,4.7,1.1,77,9,24.1,100.2,3,90.9436
4/1/2012 15:00,3.8,1.5,85,19,24.1,100.14,3,157.083
4/1/2012 16:00,3,0.7,85,17,24.1,100.1,3,125.659
4/1/2012 17:00,2.8,0.5,85,22,24.1,100.12,3,416.228
4/1/2012 18:00,2.5,0.3,85,11,24.1,100.11,3,543.448
4/1/2012 19:00,2.6,0.2,84,0,25,100.14,3,539.158
4/1/2012 20:00,2.6,0.2,84,11,19.3,100.18,3,324.491
4/1/2012 21:00,2.6,0.7,87,13,16.1,100.21,3,66.7082
4/1/2012 22:00,2.5,0.7,88,13,25,100.22,2,25.0749
4/1/2012 23:00,2,0.3,88,7,25,100.21,2,0.59785
4/2/2012 0:00,0.4,-1.2,89,11,16.1,100.22,1,16.7087
4/2/2012 1:00,-0.1,-1.4,91,7,9.7,100.27,2,16.3557
4/2/2012 2:00,-0.4,-1.8,90,0,12.9,100.31,1,30.2124
4/2/2012 3:00,-1.4,-2.8,90,0,8,100.33,2,88.686
4/2/2012 4:00,-1.2,-2.2,93,4,9.7,100.38,2,153.278
4/2/2012 5:00,-1.7,-2.5,94,6,25,100.47,1,636.673
4/2/2012 6:00,-1.8,-3.5,88,6,24.1,100.56,1,550.896
4/2/2012 7:00,0.2,-2.1,84,6,48.3,100.65,1,421.068
4/2/2012 8:00,2.1,-4.5,62,13,48.3,100.69,1,404.488
4/2/2012 9:00,3.4,-7.3,45,22,48.3,100.72,1,296.902
4/2/2012 10:00,4.5,-8.5,38,28,48.3,100.73,1,55.8865
4/2/2012 11:00,4.6,-7.8,40,24,48.3,100.72,1,0.05075
4/2/2012 12:00,6.2,-7.8,36,17,48.3,100.65,1,11.8691
4/2/2012 13:00,6.7,-7.2,36,24,48.3,100.64,1,6.31247
4/2/2012 14:00,7.3,-8.5,32,26,48.3,100.62,1,8.55389
4/2/2012 15:00,7.9,-10,27,19,48.3,100.6,1,69.8946
4/2/2012 16:00,7.9,-12,23,28,48.3,100.59,1,147.566
4/2/2012 17:00,8,-12.2,22,30,48.3,100.61,1,363.691
4/2/2012 18:00,6.9,-13.6,22,19,48.3,100.65,1,517.82
4/2/2012 19:00,4.9,-12.6,27,13,25,100.69,1,478.907
4/2/2012 20:00,3.5,-13.1,28,13,25,100.75,1,279.091
4/2/2012 21:00,3.1,-13,30,11,25,100.78,1,160.661
4/2/2012 22:00,0.6,-12.8,36,9,25,100.84,1,71.9736
4/2/2012 23:00,1,-12.8,35,13,25,100.83,1,0.2358
4/3/2012 0:00,-0.3,-11.9,41,6,25,100.84,1,1.34663
4/3/2012 1:00,-1.1,-11.4,45,9,25,100.86,1,26.5107
4/3/2012 2:00,-0.9,-13.2,39,6,25,100.84,1,25.2717
4/3/2012 3:00,-3,-12,50,9,25,100.87,1,104.872
4/3/2012 4:00,-2.1,-11.8,47,13,25,100.92,1,155.076
4/3/2012 5:00,-2.6,-12.4,47,6,25,100.99,1,317.996
4/3/2012 6:00,-2,-12.4,45,6,48.3,101.03,1,375.331
4/3/2012 7:00,0.3,-11.3,41,11,48.3,101.09,1,424.779
4/3/2012 8:00,1.7,-11.7,36,19,48.3,101.08,1,199.335
4/3/2012 9:00,2.5,-11,36,15,48.3,101.07,1,87.8432
4/3/2012 10:00,4.3,-10.3,34,17,48.3,100.98,1,2.57908
4/3/2012 11:00,6.4,-9.1,32,11,48.3,100.91,1,0.02066
4/3/2012 12:00,7.1,-8.6,32,11,48.3,100.82,2,4.79803
4/3/2012 13:00,8.7,-9.1,27,11,48.3,100.76,2,31.0566
4/3/2012 14:00,10,-8.9,25,13,48.3,100.65,2,46.4803
4/3/2012 15:00,10.9,-9,24,24,48.3,100.54,1,111.753
4/3/2012 16:00,10.8,-9.1,24,30,48.3,100.51,1,492.833
4/3/2012 17:00,9.7,-9,26,28,48.3,100.52,2,478.214
4/3/2012 18:00,8.9,-9.6,26,20,48.3,100.49,2,430.427
4/3/2012 19:00,8.4,-9.7,27,13,25,100.5,2,287.732
4/3/2012 20:00,7.8,-9.2,29,9,25,100.42,2,384.063
4/3/2012 21:00,7.1,-8.2,33,7,25,100.36,2,174.955
4/3/2012 22:00,6.9,-8.5,32,11,25,100.34,2,96.3741
4/3/2012 23:00,6.9,-9.2,31,11,25,100.29,2,44.2418
4/4/2012 0:00,6,-8.2,35,9,25,100.22,2,5.48967
4/4/2012 1:00,5.6,-8.6,35,4,25,100.2,2,0.04505
4/4/2012 2:00,6,-7.8,36,9,25,100.15,2,118.325
4/4/2012 3:00,5.4,-4.1,50,11,25,100.05,2,148.729
4/4/2012 4:00,5.2,-3.6,53,7,25,100.01,2,333.845
4/4/2012 5:00,4.6,-2.8,59,9,24.1,99.94,2,382.049
4/4/2012 6:00,4.2,-3,59,11,48.3,99.89,2,780.355
4/4/2012 7:00,4.8,-4.1,52,17,48.3,99.85,2,375.054
4/4/2012 8:00,5.5,-5.9,44,20,48.3,99.83,2,334.658
4/4/2012 9:00,6.5,-6.5,39,28,48.3,99.83,2,219.244
4/4/2012 10:00,8.7,-3.7,41,30,48.3,99.78,1,20.3715
4/4/2012 11:00,9.3,-2.6,43,28,48.3,99.75,1,0.7203
4/4/2012 12:00,8.9,-2.9,43,24,48.3,99.71,2,2.66038
4/4/2012 13:00,8.7,-3.5,42,33,24.1,99.71,2,12.4828
4/4/2012 14:00,8.5,-3.4,43,26,24.1,99.72,2,12.8183
4/4/2012 15:00,8,-3.2,45,26,24.1,99.75,2,94.5976
4/4/2012 16:00,8.3,-3,45,20,24.1,99.75,2,251.874
4/4/2012 17:00,8.1,-4.6,40,26,24.1,99.81,2,338.62
4/4/2012 18:00,7.6,-4.6,42,22,24.1,99.87,2,682.34
4/4/2012 19:00,6.5,-3.8,48,19,24.1,99.98,1,279.506
4/4/2012 20:00,6,-3.8,49,19,25,100.07,2,343.686
4/4/2012 21:00,4.9,-4.4,51,19,25,100.13,2,195.543
4/4/2012 22:00,3.7,-4.5,55,19,25,100.2,2,51.6203
4/4/2012 23:00,3.6,-4.6,55,19,25,100.24,2,0.85572
4/5/2012 0:00,3.2,-4.9,55,15,25,100.34,2,1.18694
4/5/2012 1:00,2.3,-5.8,55,17,25,100.37,1,17.157
4/5/2012 2:00,2.3,-5.9,55,11,25,100.4,2,31.1362
4/5/2012 3:00,1.9,-4.6,62,13,25,100.41,2,81.9646
4/5/2012 4:00,1.5,-5.2,61,17,25,100.47,2,284.795
4/5/2012 5:00,1.5,-6.7,54,17,25,100.51,2,652.306
4/5/2012 6:00,1.5,-7.2,52,19,24.1,100.6,2,473.475
4/5/2012 7:00,2.3,-6.9,51,19,24.1,100.68,2,435.298
4/5/2012 8:00,2.7,-6.5,51,20,24.1,100.72,2,215.449
4/5/2012 9:00,3.9,-6.1,48,22,24.1,100.76,2,98.277
4/5/2012 10:00,4.5,-7.6,41,17,24.1,100.76,2,41.4419
4/5/2012 11:00,4.8,-7.1,42,26,24.1,100.77,2,2.1749
4/5/2012 12:00,5.2,-6.6,42,22,24.1,100.74,2,3.89109
4/5/2012 13:00,6.6,-5.3,42,22,24.1,100.73,2,33.824
4/5/2012 14:00,6.7,-6.2,39,20,24.1,100.7,1,25.9827
4/5/2012 15:00,7.6,-5.9,38,19,24.1,100.67,1,304.988
4/5/2012 16:00,8.9,-5.7,35,24,48.3,100.65,1,329.388
4/5/2012 17:00,7.7,-6.9,35,24,48.3,100.7,1,490.912
4/5/2012 18:00,6.6,-7,37,20,48.3,100.75,2,514.169
4/5/2012 19:00,5.6,-7.7,38,26,25,100.82,2,287.439
4/5/2012 20:00,5.3,-7.9,38,19,25,100.87,2,184.801
4/5/2012 21:00,4.9,-7.7,40,19,25,100.88,2,149.403
4/5/2012 22:00,4.4,-7.4,42,22,25,100.89,2,35.8673
4/5/2012 23:00,3.5,-7.8,43,19,25,100.93,2,19.7034
4/6/2012 0:00,3,-8.2,44,22,25,100.97,2,0.6893
4/6/2012 1:00,2.8,-8.4,43,17,25,100.98,2,7.28948
4/6/2012 2:00,2.3,-8.2,46,22,25,101.04,2,25.2145
4/6/2012 3:00,1.5,-8.2,48,19,25,101.09,2,137.157
4/6/2012 4:00,1.1,-8.3,49,17,25,101.13,2,363.313
4/6/2012 5:00,-0.1,-8.7,52,15,24.1,101.17,2,488.343
4/6/2012 6:00,-0.5,-9.4,51,15,48.3,101.23,1,425.095
4/6/2012 7:00,0.4,-8.9,50,15,48.3,101.3,1,359.019
4/6/2012 8:00,1.1,-8.8,48,19,48.3,101.34,1,372.462
4/6/2012 9:00,2.1,-8.4,46,17,48.3,101.37,1,107.964
4/6/2012 10:00,3.9,-7.9,42,6,48.3,101.35,1,8.64631
4/6/2012 11:00,5.7,-7.7,37,19,48.3,101.32,1,0.58537
4/6/2012 12:00,6.6,-8.3,34,20,48.3,101.24,1,11.8392
4/6/2012 13:00,7.6,-7.7,33,15,48.3,101.18,1,15.3143
4/6/2012 14:00,8.6,-8.5,29,9,48.3,101.13,1,20.5132
4/6/2012 15:00,9.3,-8.3,28,19,48.3,101.1,1,80.0346
4/6/2012 16:00,8.5,-9.3,27,28,48.3,101.08,2,116.378
4/6/2012 17:00,7.7,-11,25,32,48.3,101.11,2,425.375
4/6/2012 18:00,7.3,-11.6,25,19,25,101.16,2,526.512
4/6/2012 19:00,7.3,-11.7,24,13,25,101.21,2,536.167
4/6/2012 20:00,6.7,-10.6,28,11,25,101.24,2,417.903
4/6/2012 21:00,6.7,-10.3,28,9,25,101.24,2,113.73
4/6/2012 22:00,6.8,-10.8,27,11,25,101.26,2,25.5128
4/6/2012 23:00,6.1,-9.9,31,11,25,101.27,2,40.2626
4/7/2012 0:00,5.6,-9.7,32,11,25,101.28,2,3.3678
4/7/2012 1:00,5.5,-10.6,30,17,25,101.29,2,42.1885
4/7/2012 2:00,3.1,-10.3,37,7,25,101.3,2,60.7095
4/7/2012 3:00,2.4,-10,39,11,25,101.32,1,74.1954
4/7/2012 4:00,2.5,-10.2,39,11,25,101.35,2,347.529
4/7/2012 5:00,0.2,-10.4,45,7,25,101.39,1,340.656
4/7/2012 6:00,1.5,-9.3,44,9,48.3,101.46,2,516.119
4/7/2012 7:00,2.4,-10.1,39,11,48.3,101.5,1,395.61
4/7/2012 8:00,4.5,-9.3,36,11,48.3,101.51,2,246.292
4/7/2012 9:00,4.5,-9.5,35,11,48.3,101.52,2,185.85
4/7/2012 10:00,5.7,-8.5,35,17,48.3,101.54,2,1.61647
4/7/2012 11:00,6,-9.2,33,13,48.3,101.51,2,0.85529
4/7/2012 12:00,6.6,-8.1,34,11,48.3,101.47,2,23.5086
4/7/2012 13:00,6.8,-7.8,34,9,48.3,101.44,2,27.508
4/7/2012 14:00,7.8,-7.8,32,9,48.3,101.39,2,86.7601
4/7/2012 15:00,8,-6.7,35,7,48.3,101.36,2,378.903
4/7/2012 16:00,8.4,-6.4,34,4,24.1,101.34,2,326.596
4/7/2012 17:00,8.4,-6.3,35,9,24.1,101.35,2,405.931
4/7/2012 18:00,8,-6.1,36,7,25,101.35,2,679.557
4/7/2012 19:00,8,-5.2,39,13,25,101.37,2,376.863
4/7/2012 20:00,7.7,-5.4,39,15,25,101.43,2,264.709
4/7/2012 21:00,7.5,-5.2,40,17,25,101.41,2,22.197
4/7/2012 22:00,6.2,-5.1,44,15,25,101.36,2,1.09602
4/7/2012 23:00,5.9,-5,45,11,25,101.31,2,44.4069
4/8/2012 0:00,5.8,-5.2,45,9,25,101.24,2,0.37417
4/8/2012 1:00,4.8,-4.8,50,7,25,101.18,2,21.1194
4/8/2012 2:00,4.2,-4.5,53,4,25,101.11,2,39.1975
4/8/2012 3:00,3.7,-3.9,58,4,25,101.06,2,179.316
4/8/2012 4:00,3.7,-4.4,55,4,25,101,2,166.775
4/8/2012 5:00,4,-4.5,54,7,25,100.95,2,413.265
4/8/2012 6:00,4.8,-4.1,52,7,48.3,100.91,2,420.955
4/8/2012 7:00,5.7,-4.1,49,11,48.3,100.87,2,544.534
4/8/2012 8:00,6.6,-3.9,47,13,48.3,100.81,2,284.621
4/8/2012 9:00,7.4,-3.7,45,19,48.3,100.73,2,39.4172
4/8/2012 10:00,7.3,-4.8,42,22,48.3,100.61,2,38.9091
4/8/2012 11:00,9.4,-3.6,40,15,48.3,100.46,2,3.49806
4/8/2012 12:00,10.4,-3.8,37,17,48.3,100.25,2,11.3977
4/8/2012 13:00,11.7,-3.9,33,20,48.3,100.11,2,36.6821
4/8/2012 14:00,12.1,-3.5,33,20,48.3,99.97,2,104.064
4/8/2012 15:00,12.3,-3.8,32,22,48.3,99.86,2,191.055
4/8/2012 16:00,12.4,-4.2,31,22,48.3,99.8,2,377.107
4/8/2012 17:00,12.3,-4.5,31,7,48.3,99.75,2,396.943
4/8/2012 18:00,11.9,-4.7,31,19,25,99.69,2,434.307
4/8/2012 19:00,11.5,-4.9,31,17,48.3,99.64,2,484.295
4/8/2012 20:00,10.9,-3.9,35,15,25,99.59,2,305.01
4/8/2012 21:00,10.4,-3.9,36,17,25,99.5,2,280.982
4/8/2012 22:00,10.2,-3.7,37,19,25,99.42,2,19.5985
4/8/2012 23:00,8.5,-3.2,44,7,25,99.38,2,32.1243
4/9/2012 0:00,7.5,-3.5,46,4,25,99.31,2,15.9246
4/9/2012 1:00,4.8,-2.4,60,9,25,99.24,2,4.05208
4/9/2012 2:00,5.4,-1.3,62,9,25,99.19,2,9.63009
4/9/2012 3:00,5.5,-1.1,62,0,25,99.14,2,172.021
4/9/2012 4:00,5.7,-0.9,62,11,25,99.12,2,507.684
4/9/2012 5:00,5.9,-1.4,59,7,25,99.09,2,565.81
4/9/2012 6:00,6.1,0.1,65,13,24.1,99.1,3,715.063
4/9/2012 7:00,6.3,1.5,71,13,24.1,99.11,3,427.289
4/9/2012 8:00,6.6,3.6,81,20,24.1,99.05,3,381.452
4/9/2012 9:00,7.4,1.6,67,19,24.1,99.05,3,129.73
4/9/2012 10:00,7,2.3,72,28,24.1,99.07,3,4.52029
4/9/2012 11:00,7.4,2.8,73,24,24.1,99.1,3,6.63063
4/9/2012 12:00,7.9,4.1,77,17,24.1,99.07,3,7.44035
4/9/2012 13:00,8.8,2.6,65,17,24.1,99.08,3,10.7857
4/9/2012 14:00,9,1.3,58,19,24.1,99.11,3,95.98
4/9/2012 15:00,8.6,0.7,58,22,24.1,99.14,2,119.024
4/9/2012 16:00,8.7,0.2,55,17,24.1,99.19,2,325.358
4/9/2012 17:00,8.3,1,60,22,24.1,99.24,2,498.385
4/9/2012 18:00,6.2,2.2,76,30,24.1,99.31,3,409.884
4/9/2012 19:00,6.4,1.7,72,28,25,99.34,2,359.347
4/9/2012 20:00,5.7,1.4,74,19,25,99.4,2,325.074
4/9/2012 21:00,5.8,1.4,73,22,25,99.43,2,97.375
4/9/2012 22:00,5.4,1.3,75,19,25,99.42,2,26.3739
4/9/2012 23:00,5.3,0.9,73,20,25,99.42,2,5.6936
4/10/2012 0:00,5.1,1.7,79,19,25,99.43,2,5.97641
4/10/2012 1:00,4.9,2.2,83,20,25,99.41,2,2.43015
4/10/2012 2:00,4.6,1.8,82,19,25,99.4,2,17.3861
4/10/2012 3:00,4.3,1.6,83,17,25,99.37,2,179.735
4/10/2012 4:00,4,1.5,84,13,25,99.39,2,210.662
4/10/2012 5:00,4,1.6,84,9,24.1,99.39,2,296.929
4/10/2012 6:00,4.3,1.7,83,9,24.1,99.45,2,571.737
4/10/2012 7:00,5,1.5,78,9,24.1,99.48,2,304.698
4/10/2012 8:00,5.3,1.5,76,17,24.1,99.51,3,460.341
4/10/2012 9:00,5.7,1.8,76,15,24.1,99.53,2,252.867
4/10/2012 10:00,6.9,0.9,66,20,24.1,99.56,2,135.81
4/10/2012 11:00,6.9,2.5,74,15,24.1,99.58,3,6.83946
4/10/2012 12:00,8,0.5,59,19,24.1,99.58,2,3.04431
4/10/2012 13:00,8.8,1,58,22,24.1,99.6,2,9.38784
4/10/2012 14:00,7.6,2.4,70,33,16.1,99.63,3,57.131
4/10/2012 15:00,6.2,3.2,81,19,24.1,99.71,3,210.204
4/10/2012 16:00,6.7,2.9,77,20,24.1,99.77,2,137.362
4/10/2012 17:00,6.8,2.4,73,19,24.1,99.83,2,521.268
4/10/2012 18:00,6,2.5,78,24,24.1,99.91,2,589.099
4/10/2012 19:00,5.8,2.3,78,19,25,100.01,2,634.122
4/10/2012 20:00,5.2,1.8,79,20,25,100.12,2,357.247
4/10/2012 21:00,5.1,2.3,82,22,25,100.15,2,119.269
4/10/2012 22:00,4.4,1.9,84,11,25,100.16,2,29.0261
4/10/2012 23:00,4.7,2.4,85,15,25,100.21,2,15.8961
4/11/2012 0:00,4.3,1.9,84,17,25,100.24,2,0.87756
4/11/2012 1:00,4,1.7,85,9,25,100.26,2,31.1986
4/11/2012 2:00,3.2,1.4,88,11,25,100.26,2,70.323
4/11/2012 3:00,3,1.3,89,0,25,100.3,2,205.354
4/11/2012 4:00,1.6,0.1,90,0,25,100.34,1,418.672
4/11/2012 5:00,0.7,-0.8,90,6,24.1,100.4,2,517.33
4/11/2012 6:00,2.4,0.8,89,6,24.1,100.5,2,546.468
4/11/2012 7:00,3.2,1.2,87,4,24.1,100.58,2,479.413
4/11/2012 8:00,4.6,1.7,81,4,24.1,100.65,2,281.161
4/11/2012 9:00,6.1,1.4,72,0,24.1,100.72,2,164.222
4/11/2012 10:00,6.7,2.2,73,4,24.1,100.76,2,91.5198
4/11/2012 11:00,6.7,2,72,11,24.1,100.78,2,12.0457
4/11/2012 12:00,8.8,2.5,65,9,24.1,100.76,1,2.88141
4/11/2012 13:00,11,1.9,53,4,24.1,100.74,2,18.6473
4/11/2012 14:00,8.4,0.3,57,32,24.1,100.79,3,15.3381
4/11/2012 15:00,7.5,3.1,74,7,24.1,100.79,2,93.4202
4/11/2012 16:00,9.5,1.4,57,20,24.1,100.82,2,287.091
4/11/2012 17:00,9.3,1.3,57,33,24.1,100.91,3,370.973
4/11/2012 18:00,8.4,-0.2,55,17,24.1,100.92,1,480.33
4/11/2012 19:00,6.4,-0.4,62,11,24.1,101,1,176.275
4/11/2012 20:00,7.4,0.8,63,13,25,101.07,2,333.963
4/11/2012 21:00,6.9,0.9,66,7,25,101.08,2,270.976
4/11/2012 22:00,3.3,-0.9,74,11,25,101.09,2,3.81756
4/11/2012 23:00,6.6,-0.3,61,13,25,101.11,2,4.31961
4/12/2012 0:00,5.5,-1.5,61,13,25,101.14,1,1.02665
4/12/2012 1:00,5.8,-2.2,56,15,25,101.15,2,45.7316
4/12/2012 2:00,4.8,-2.6,59,17,25,101.18,1,104.692
4/12/2012 3:00,4.3,-2.8,60,13,25,101.21,2,222.121
4/12/2012 4:00,3.1,-3,64,13,25,101.24,1,278.321
4/12/2012 5:00,3.8,-2.9,62,15,24.1,101.3,2,521.461
4/12/2012 6:00,3.5,-2.9,63,13,48.3,101.36,1,522.194
4/12/2012 7:00,4,-2.3,63,6,48.3,101.43,1,358.344
4/12/2012 8:00,6.5,-2.1,54,13,48.3,101.46,2,294.101
4/12/2012 9:00,7.7,-1.8,51,13,48.3,101.5,2,225.056
4/12/2012 10:00,8.7,-1.4,49,9,48.3,101.51,2,57.4948
4/12/2012 11:00,9.8,-1.2,46,9,48.3,101.46,2,15.7285
4/12/2012 12:00,10.4,-1.5,43,4,48.3,101.42,2,15.5629
4/12/2012 13:00,10,-1,46,15,48.3,101.4,2,28.323
4/12/2012 14:00,10.3,-1.1,45,13,48.3,101.38,2,41.9833
4/12/2012 15:00,11.3,-1.4,41,15,48.3,101.33,2,195.31
4/12/2012 16:00,12.4,-1.8,37,15,48.3,101.32,2,355.596
4/12/2012 17:00,11.4,-1.5,41,11,48.3,101.32,1,411.503
4/12/2012 18:00,11.3,-2.2,39,17,48.3,101.33,1,412.073
4/12/2012 19:00,9.9,-1.8,44,11,48.3,101.34,1,404.229
4/12/2012 20:00,9.1,-1.1,49,7,25,101.38,1,514.93
4/12/2012 21:00,6.6,-0.8,59,0,25,101.39,1,263.402
4/12/2012 22:00,6.7,-0.6,60,4,25,101.44,1,21.6794
4/12/2012 23:00,5.9,-2.2,56,11,25,101.47,1,28.904
4/13/2012 0:00,4.6,-4,54,11,25,101.49,1,6.15095
4/13/2012 1:00,4,-5.1,51,11,25,101.48,1,50.8807
4/13/2012 2:00,2,-5.4,58,6,25,101.5,1,9.63505
4/13/2012 3:00,1.5,-5.1,61,9,25,101.52,1,38.8075
4/13/2012 4:00,1.2,-4.5,66,6,25,101.56,1,207.565
4/13/2012 5:00,1.3,-4.1,67,6,48.3,101.6,1,273.337
4/13/2012 6:00,1.8,-3.4,68,6,48.3,101.67,1,462.745
4/13/2012 7:00,4.1,-2.1,64,7,48.3,101.75,1,318.474
4/13/2012 8:00,6.1,-1.5,58,7,48.3,101.77,1,272.882
4/13/2012 9:00,8,-0.8,54,13,48.3,101.73,1,135.043
4/13/2012 10:00,9.8,-1.8,44,17,48.3,101.69,1,6.02325
4/13/2012 11:00,12.2,-1,40,19,48.3,101.6,1,2.99477
4/13/2012 12:00,13.5,-3,32,24,48.3,101.52,1,9.06548
4/13/2012 13:00,14.7,-6.1,23,24,48.3,101.48,1,47.1214
4/13/2012 14:00,15,-5.6,24,22,48.3,101.36,1,87.7526
4/13/2012 15:00,15.9,-4.9,24,32,48.3,101.27,1,135.085
4/13/2012 16:00,16.1,-5.2,23,30,48.3,101.22,2,404.466
4/13/2012 17:00,15,-4.3,26,28,48.3,101.22,2,519.834
4/13/2012 18:00,14.3,-5.1,26,22,48.3,101.24,2,484.528
4/13/2012 19:00,13.6,-6.8,24,19,48.3,101.25,2,458.954
4/13/2012 20:00,12.2,-5.9,28,15,25,101.31,2,356.76
4/13/2012 21:00,11.7,-5.1,30,19,25,101.32,1,143.515
4/13/2012 22:00,10.3,-1.3,44,20,25,101.36,1,18.7967
4/13/2012 23:00,9.1,-1.3,48,20,25,101.37,1,0.01082
4/14/2012 0:00,7.9,-1.6,51,22,25,101.35,1,13.981
4/14/2012 1:00,7.5,-1.8,52,11,25,101.35,1,27.5964
4/14/2012 2:00,6.8,-1.8,54,17,25,101.34,1,89.831
4/14/2012 3:00,5.4,-1,63,19,25,101.36,1,164.774
4/14/2012 4:00,5.7,-0.5,64,11,25,101.35,1,204.148
4/14/2012 5:00,6.2,0,64,17,25,101.36,2,373.326
4/14/2012 6:00,6.7,-0.9,58,19,24.1,101.42,2,317.352
4/14/2012 7:00,7.5,-1.2,54,20,48.3,101.49,2,361.903
4/14/2012 8:00,9.2,-0.5,51,19,48.3,101.46,2,166.025
4/14/2012 9:00,10.8,-0.3,46,20,48.3,101.45,2,91.0517
4/14/2012 10:00,12.8,-0.2,41,26,48.3,101.38,2,9.18975
4/14/2012 11:00,13.8,-0.8,37,24,48.3,101.28,2,0.14889
4/14/2012 12:00,15.3,-0.3,34,24,48.3,101.21,2,9.51787
4/14/2012 13:00,14.8,-1.1,34,26,48.3,101.2,2,29.6508
4/14/2012 14:00,14.7,-0.7,35,17,48.3,101.08,2,21.9067
4/14/2012 15:00,15.6,-3,28,20,48.3,101.02,2,53.7673
4/14/2012 16:00,15.9,-3.5,26,19,48.3,100.98,2,212.226
4/14/2012 17:00,15.4,-3.1,28,24,48.3,101,2,410.046
4/14/2012 18:00,14.5,-2.7,30,13,48.3,100.95,2,585.233
4/14/2012 19:00,11.9,-0.6,42,7,48.3,100.91,2,494.813
4/14/2012 20:00,12.8,-0.9,39,7,25,100.9,2,371.108
4/14/2012 21:00,12,0,44,7,25,100.86,2,79.6197
4/14/2012 22:00,11,0.1,47,9,25,100.82,2,140.99
4/14/2012 23:00,11.6,0.3,46,9,25,100.76,2,1.21624
4/15/2012 0:00,12.9,0.1,41,9,25,100.77,2,7.05748
4/15/2012 1:00,13.1,0.6,42,13,25,100.74,2,22.9102
4/15/2012 2:00,12.4,1.8,48,15,25,100.7,2,52.8844
4/15/2012 3:00,11.3,2.3,54,15,25,100.7,1,166.541
4/15/2012 4:00,10.9,4.3,64,15,25,100.72,1,232.497
4/15/2012 5:00,9.9,4.5,69,6,25,100.72,1,397.807
4/15/2012 6:00,10.6,5.4,70,13,24.1,100.74,1,436.68
4/15/2012 7:00,11.7,6.2,69,9,24.1,100.81,2,386.234
4/15/2012 8:00,13.5,8,69,11,24.1,100.84,2,258.422
4/15/2012 9:00,14.1,8.9,71,26,24.1,100.79,2,263.608
4/15/2012 10:00,15.5,9.4,67,32,24.1,100.72,2,6.52539
4/15/2012 11:00,17.3,9.7,61,28,24.1,100.68,1,0.41104
4/15/2012 12:00,18.4,10.1,58,28,48.3,100.65,1,9.95175
4/15/2012 13:00,19.8,10.1,54,32,48.3,100.68,2,21.4791
4/15/2012 14:00,19.4,10.1,55,26,24.1,100.68,2,69.1094
4/15/2012 15:00,18.1,10.6,62,24,48.3,100.65,2,148.762
4/15/2012 16:00,17.5,10.9,65,22,48.3,100.69,2,205.94
4/15/2012 17:00,17,11,68,20,24.1,100.73,2,438.014
4/15/2012 18:00,16.6,11.2,70,20,24.1,100.77,2,525.725
4/15/2012 19:00,16.3,11.5,73,17,24.1,100.78,2,381.913
4/15/2012 20:00,15.5,11,75,11,25,100.8,2,398.26
4/15/2012 21:00,14.6,10.5,76,6,25,100.83,2,45.9865
4/15/2012 22:00,14.8,10.6,76,6,25,100.82,2,11.493
4/15/2012 23:00,14.9,11.1,78,13,25,100.74,2,31.8516
4/16/2012 0:00,15.7,11.6,77,17,25,100.77,2,19.5979
4/16/2012 1:00,14.6,12.8,89,9,8,100.7,3,33.4868
4/16/2012 2:00,14.9,13.3,90,4,9.7,100.66,3,104.975
4/16/2012 3:00,14.4,12.8,90,9,25,100.66,2,191.096
4/16/2012 4:00,15.2,12.6,84,11,25,100.66,2,228.972
4/16/2012 5:00,15.3,12.3,82,13,25,100.64,2,368.339
4/16/2012 6:00,15.7,12,79,15,24.1,100.61,2,651.001
4/16/2012 7:00,17,12.8,76,17,24.1,100.55,2,468.56
4/16/2012 8:00,19.3,13.5,69,17,24.1,100.52,2,274.832
4/16/2012 9:00,22.2,13.6,58,15,24.1,100.52,2,174.975
4/16/2012 10:00,24.9,12.8,47,22,24.1,100.44,2,102.414
4/16/2012 11:00,24.1,12.1,47,22,24.1,100.44,2,0.02981
4/16/2012 12:00,24.8,11.7,44,30,24.1,100.39,2,0.3407
4/16/2012 13:00,25.4,12.3,44,22,24.1,100.36,2,0.10675
4/16/2012 14:00,26.6,12.4,41,24,24.1,100.26,2,5.22216
4/16/2012 15:00,27.4,11.5,37,28,24.1,100.12,2,50.6288
4/16/2012 16:00,27.8,11.6,37,26,48.3,100.06,2,322.274
4/16/2012 17:00,27.3,11.5,37,26,48.3,100.03,1,338.123
4/16/2012 18:00,26.7,11.3,38,11,48.3,99.99,2,800.869
4/16/2012 19:00,26.4,11.9,40,20,16.1,100.1,3,453.255
4/16/2012 20:00,20.5,15.6,73,4,25,100.22,2,340.816
4/16/2012 21:00,19.3,15.8,80,13,25,100.26,2,272.28
4/16/2012 22:00,19.4,14.7,74,24,25,100.25,3,12.5447
4/16/2012 23:00,19.5,14.2,71,30,25,100.31,2,5.91518
4/17/2012 0:00,19,11.6,62,28,25,100.34,1,20.0385
4/17/2012 1:00,18.9,9.6,55,35,25,100.42,1,26.8679
4/17/2012 2:00,17.4,4.7,43,30,25,100.51,1,76.7595
4/17/2012 3:00,15.4,6.3,55,37,25,100.61,1,202.779
4/17/2012 4:00,14.5,6.1,57,37,25,100.8,1,439.359
4/17/2012 5:00,13.5,5.9,60,33,48.3,100.99,2,366.512
4/17/2012 6:00,11.9,2.3,52,37,48.3,101.19,1,356.645
4/17/2012 7:00,10.9,1.9,54,48,48.3,101.32,1,429.486
4/17/2012 8:00,10.2,0.6,51,43,48.3,101.42,1,320.606
4/17/2012 9:00,10.2,-1.1,45,44,48.3,101.5,1,181.583
4/17/2012 10:00,10.9,-1.3,43,41,48.3,101.51,1,5.0709
4/17/2012 11:00,11.5,-1,42,30,48.3,101.57,2,0.21109
4/17/2012 12:00,12,-0.8,41,37,48.3,101.58,2,1.05632
4/17/2012 13:00,12.2,-0.2,42,32,48.3,101.61,1,8.84245
4/17/2012 14:00,12.6,-0.3,41,35,48.3,101.64,2,31.1425
4/17/2012 15:00,12.7,-0.5,40,30,48.3,101.63,1,113.584
4/17/2012 16:00,11.6,-1.2,41,32,48.3,101.69,1,385.625
4/17/2012 17:00,11.1,-1.7,41,24,48.3,101.72,2,437.875
4/17/2012 18:00,9.5,-2.8,42,24,48.3,101.79,2,355.399
4/17/2012 19:00,8.5,-4.1,41,28,24.1,101.89,2,394.333
4/17/2012 20:00,7.4,-5.1,41,19,25,102.04,2,247.686
4/17/2012 21:00,6.1,-5.6,43,17,25,102.12,2,250.576
4/17/2012 22:00,5.4,-5.4,46,11,25,102.17,2,21.9283
4/17/2012 23:00,3.9,-4.8,53,17,25,102.17,2,0.00843
4/18/2012 0:00,2.9,-5.1,56,13,25,102.2,1,16.0598
4/18/2012 1:00,2.4,-5.7,55,15,25,102.18,1,1.62475
4/18/2012 2:00,0.9,-6.5,58,15,25,102.22,1,54.9691
4/18/2012 3:00,1.1,-7,55,11,25,102.25,1,203.641
4/18/2012 4:00,0.4,-7,58,9,25,102.29,1,164.443
4/18/2012 5:00,-1,-7,64,11,48.3,102.34,1,622.822
4/18/2012 6:00,0.9,-6.3,59,9,48.3,102.41,1,615.753
4/18/2012 7:00,2.5,-6.2,53,13,48.3,102.44,1,380.547
4/18/2012 8:00,3.3,-5.9,51,11,48.3,102.43,1,258.746
4/18/2012 9:00,4.5,-5.7,47,9,48.3,102.41,1,84.9505
4/18/2012 10:00,5.3,-5.1,47,9,48.3,102.36,1,127.723
4/18/2012 11:00,6.9,-3.4,48,6,48.3,102.24,1,0.62698
4/18/2012 12:00,7.3,-4.6,43,11,48.3,102.13,1,4.05949
4/18/2012 13:00,8.6,-3.3,43,15,48.3,102.05,1,13.9698
4/18/2012 14:00,9.3,-3.2,41,7,48.3,101.97,1,46.4431
4/18/2012 15:00,10.4,-3.2,38,11,48.3,101.86,1,103.609
4/18/2012 16:00,10.3,-3.6,37,9,48.3,101.8,1,229.51
4/18/2012 17:00,10.2,-4.1,36,13,48.3,101.75,1,470.844
4/18/2012 18:00,10,-5.5,33,7,48.3,101.7,1,747.537
4/18/2012 19:00,8.4,-3.9,42,9,48.3,101.66,1,199.356
4/18/2012 20:00,7.6,-4,44,7,25,101.62,1,227.284
4/18/2012 21:00,7.9,-4.2,42,4,25,101.56,2,270.92
4/18/2012 22:00,8.4,-4.1,41,0,25,101.53,2,34.4858
4/18/2012 23:00,6.8,-2.6,51,6,25,101.5,1,25.0712
4/19/2012 0:00,6.5,-2.7,52,4,25,101.44,1,3.8527
4/19/2012 1:00,5.5,-2.7,55,6,25,101.42,1,3.20108
4/19/2012 2:00,3.3,-2.8,64,7,25,101.33,1,36.3113
4/19/2012 3:00,4.4,-3.3,57,4,25,101.28,1,226.008
4/19/2012 4:00,3.4,-3.2,62,0,25,101.27,1,202.54
4/19/2012 5:00,3.4,-2.9,63,4,24.1,101.25,1,539.037
4/19/2012 6:00,4.7,-0.8,67,4,48.3,101.28,2,319.079
4/19/2012 7:00,7.1,-0.4,59,4,48.3,101.24,2,244.488
4/19/2012 8:00,8.6,-1.1,50,7,48.3,101.18,2,247.653
4/19/2012 9:00,11.8,-0.5,43,7,48.3,101.14,1,345.506
4/19/2012 10:00,14,-0.4,37,13,48.3,101.05,1,6.17463
4/19/2012 11:00,15.8,0.5,35,19,48.3,101.02,2,6.5125
4/19/2012 12:00,16.6,0.9,35,15,48.3,100.95,2,13.6412
4/19/2012 13:00,18.4,1.7,33,20,48.3,100.88,2,6.00206
4/19/2012 14:00,19.3,2.6,33,17,48.3,100.78,2,73.5596
4/19/2012 15:00,20.2,3.9,34,28,48.3,100.69,2,146.875
4/19/2012 16:00,20.7,4,33,26,48.3,100.65,2,257.578
4/19/2012 17:00,20,4.3,36,24,48.3,100.62,1,263.16
4/19/2012 18:00,18.7,4.5,39,22,48.3,100.63,1,409.154
4/19/2012 19:00,18,4.1,40,15,48.3,100.69,1,220.255
4/19/2012 20:00,16.6,4.5,45,17,25,100.73,1,282.964
4/19/2012 21:00,16.1,4.5,46,11,25,100.72,1,236.316
4/19/2012 22:00,13.9,4.8,54,13,25,100.73,1,5.77824
4/19/2012 23:00,12.6,4.6,58,9,25,100.78,1,2.564
4/20/2012 0:00,12.5,2.5,50,19,25,100.88,1,0.00249
4/20/2012 1:00,10.9,1.8,53,19,25,100.91,1,6.08321
4/20/2012 2:00,9.9,1.3,55,20,25,100.94,1,7.92641
4/20/2012 3:00,9.1,1.5,59,15,25,101,1,341.871
4/20/2012 4:00,8.8,1.1,58,19,25,101.02,1,199.635
4/20/2012 5:00,8.7,-0.6,52,22,25,101.04,2,274.958
4/20/2012 6:00,7.8,-0.4,56,28,24.1,101.11,2,428.041
4/20/2012 7:00,6.9,0.3,63,22,24.1,101.17,3,320.256
4/20/2012 8:00,6.1,1.4,72,26,24.1,101.12,2,361.797
4/20/2012 9:00,6.3,1.4,71,19,48.3,101.13,2,112.708
4/20/2012 10:00,6.6,1.6,70,24,24.1,101.07,3,24.2999
4/20/2012 11:00,6.9,1,66,20,24.1,101.06,2,2.98989
4/20/2012 12:00,7.2,1.7,68,26,24.1,100.98,3,1.04976
4/20/2012 13:00,7.5,2,68,24,24.1,100.91,3,46.5265
4/20/2012 14:00,9.6,3.2,64,24,24.1,100.8,2,15.9467
4/20/2012 15:00,9.5,3,64,24,24.1,100.7,2,312.651
4/20/2012 16:00,8.4,2.9,68,33,24.1,100.67,2,180.555
4/20/2012 17:00,7.8,2.6,70,26,24.1,100.59,2,481.578
4/20/2012 18:00,7.4,2.9,73,28,24.1,100.54,2,496.747
4/20/2012 19:00,7,3.2,77,26,24.1,100.5,2,898.072
4/20/2012 20:00,6.9,3.5,79,24,25,100.46,2,396.955
4/20/2012 21:00,6.6,3.5,81,17,25,100.35,2,229.974
4/20/2012 22:00,6.5,3.4,81,17,25,100.32,2,39.532
4/20/2012 23:00,6.6,3.5,81,20,25,100.27,2,0.10678
4/21/2012 0:00,6.3,3.7,83,19,25,100.18,2,22.6256
4/21/2012 1:00,6.4,4,85,15,25,100.13,2,12.5362
4/21/2012 2:00,5.7,3.5,86,19,25,100.21,2,38.8424
4/21/2012 3:00,5.5,3.3,86,20,25,100.21,2,101.169
4/21/2012 4:00,5.7,3.4,85,13,25,100.2,2,206.353
4/21/2012 5:00,6,3.5,84,7,25,100.32,2,477.063
4/21/2012 6:00,6.2,3.4,82,15,25,100.36,2,588.575
4/21/2012 7:00,6.4,3.3,81,17,25,100.38,3,311.883
4/21/2012 8:00,6.2,3.3,82,17,24.1,100.42,2,235.861
4/21/2012 9:00,5.5,3.4,86,19,24.1,100.49,3,160.93
4/21/2012 10:00,5.5,3.3,86,17,9.7,100.53,3,6.53971
4/21/2012 11:00,5.6,3.5,86,11,12.9,100.59,3,2.27446
4/21/2012 12:00,5.5,3.3,86,15,9.7,100.61,3,0.65574
4/21/2012 13:00,6.1,3.7,85,19,24.1,100.65,3,16.0921
4/21/2012 14:00,6.1,3.9,86,19,16.1,100.69,3,26.2234
4/21/2012 15:00,5.7,3.3,85,17,16.1,100.73,3,199.444
4/21/2012 16:00,5.3,2.5,82,19,16.1,100.8,3,209.835
4/21/2012 17:00,4.8,2.6,86,17,16.1,100.84,3,224.577
4/21/2012 18:00,3.8,1.6,86,24,16.1,100.96,3,558.314
4/21/2012 19:00,3.4,1,84,20,19.3,100.96,3,317.717
4/21/2012 20:00,2.6,0.5,86,24,16.1,101.06,3,298.646
4/21/2012 21:00,2.6,0.3,85,26,25,101.06,3,171.9
4/21/2012 22:00,1.9,-0.2,86,19,19.3,101.04,3,49.8057
4/21/2012 23:00,1.6,-0.3,87,13,25,101.08,3,3.71126
4/22/2012 0:00,1.5,-0.6,86,24,25,101.04,3,0.02014
4/22/2012 1:00,1.4,-0.5,87,17,25,101.06,3,4.31731
4/22/2012 2:00,0.6,-1,89,13,9.7,101.07,3,98.9955
4/22/2012 3:00,0.8,-0.8,89,15,25,101.05,3,283.174
4/22/2012 4:00,1.2,-0.3,90,11,25,101.05,3,274.778
4/22/2012 5:00,1.8,-0.3,86,19,25,101.06,3,451.158
4/22/2012 6:00,1.9,-0.3,85,19,24.1,101.1,2,358.158
4/22/2012 7:00,2.4,-0.5,81,20,24.1,101.17,2,293.918
4/22/2012 8:00,2.8,-1.1,75,20,24.1,101.24,2,349.922
4/22/2012 9:00,3.3,-1,73,28,24.1,101.27,2,207.224
4/22/2012 10:00,4,-0.3,74,22,48.3,101.3,2,8.98786
4/22/2012 11:00,4.6,-0.2,71,22,48.3,101.24,2,17.4939
4/22/2012 12:00,5,-0.5,68,24,48.3,101.22,2,4.69858
4/22/2012 13:00,5.2,-0.4,67,20,48.3,101.3,2,20.0933
4/22/2012 14:00,5.9,-0.1,65,22,48.3,101.27,2,23.1504
4/22/2012 15:00,6,-0.6,63,28,48.3,101.2,2,89.8199
4/22/2012 16:00,6.4,0,64,22,48.3,101.2,2,258.967
4/22/2012 17:00,6.3,-0.3,63,26,48.3,101.17,2,626.279
4/22/2012 18:00,6.5,0,63,24,48.3,101.13,2,414.579
4/22/2012 19:00,6.1,0.4,67,32,24.1,101.16,2,1012.02
4/22/2012 20:00,5.3,-0.6,66,32,25,101.19,2,275.258
4/22/2012 21:00,4.3,-1,68,35,25,101.07,3,52.3823
4/22/2012 22:00,2.8,-1.1,75,32,25,101.05,3,19.8951
4/22/2012 23:00,2,-0.7,82,41,19.3,100.89,3,0.95423
4/23/2012 0:00,1.9,-0.8,82,46,19.3,100.73,3,17.7638
4/23/2012 1:00,1.1,-1.1,85,44,11.3,100.59,3,2.89884
4/23/2012 2:00,1.1,-1.1,85,44,25,100.32,3,49.1879
4/23/2012 3:00,1.7,-0.7,84,52,25,100.11,3,204.675
4/23/2012 4:00,2,-0.7,82,44,25,99.82,3,237.962
4/23/2012 5:00,1.9,-0.2,86,46,8,99.74,3,283.547
4/23/2012 6:00,2.1,-0.3,84,52,16.1,99.66,3,494.22
4/23/2012 7:00,2.3,-0.4,82,48,24.1,99.52,3,388.252
4/23/2012 8:00,2.8,0.3,84,48,19.3,99.4,3,245.315
4/23/2012 9:00,3.1,0.6,84,44,12.9,99.29,3,166.98
4/23/2012 10:00,3.7,1.1,83,46,24.1,99.23,2,21.3492
4/23/2012 11:00,4.1,1.7,84,48,19.3,99.15,2,16.9888
4/23/2012 12:00,4.6,1.9,83,46,24.1,99.09,2,1.14107
4/23/2012 13:00,5,2.4,83,41,24.1,99.06,2,11.6018
4/23/2012 14:00,5.3,2.2,80,44,24.1,98.97,2,9.01275
4/23/2012 15:00,5.7,2.4,79,43,24.1,98.9,2,115.73
4/23/2012 16:00,5.6,2.4,80,39,24.1,98.81,2,307.156
4/23/2012 17:00,5.9,2.9,81,35,24.1,98.8,2,357.403
4/23/2012 18:00,5.9,2.8,80,43,24.1,98.66,2,473.361
4/23/2012 19:00,5.4,3.2,86,39,9.7,98.61,3,395.807
4/23/2012 20:00,5.7,3.6,86,41,25,98.54,2,234.519
4/23/2012 21:00,5.6,3.5,86,37,25,98.51,3,254.758
4/23/2012 22:00,5.5,3.7,88,19,25,98.58,2,0.00089
4/23/2012 23:00,5.6,3.9,89,9,25,98.64,2,0.57815
4/24/2012 0:00,5.7,4.2,90,13,25,98.6,2,0.1202
4/24/2012 1:00,6.7,5.1,90,7,16.1,98.56,2,32.3783
4/24/2012 2:00,6.1,4.5,89,6,9.7,98.5,2,11.8894
4/24/2012 3:00,7,5.5,90,15,12.9,98.53,2,53.5327
4/24/2012 4:00,7.5,4.2,80,19,25,98.51,3,179.551
4/24/2012 5:00,7.1,3.1,76,19,24.1,98.47,2,372.435
4/24/2012 6:00,6.8,3.4,79,19,19.3,98.51,3,403.483
4/24/2012 7:00,5.5,3,84,13,11.3,98.6,3,481.268
4/24/2012 8:00,6.6,3.7,82,13,24.1,98.63,3,330.746
4/24/2012 9:00,7.7,1.4,64,17,48.3,98.64,2,57.4383
4/24/2012 10:00,7.2,1.2,66,19,24.1,98.72,3,0.22844
4/24/2012 11:00,8.8,1.2,59,26,24.1,98.78,2,0.30376
4/24/2012 12:00,8.9,3.6,69,17,24.1,98.82,2,8.75886
4/24/2012 13:00,8,1.2,62,24,24.1,98.9,3,24.1695
4/24/2012 14:00,8,0.5,59,28,24.1,99.01,2,21.2529
4/24/2012 15:00,8.4,1.9,64,19,48.3,99.08,2,198.791
4/24/2012 16:00,8.1,-0.3,55,32,48.3,99.19,2,167.221
4/24/2012 17:00,8,0.4,59,28,48.3,99.26,2,450.405
4/24/2012 18:00,7.7,0.4,60,20,48.3,99.3,2,715.223
4/24/2012 19:00,7.1,0.1,61,19,24.1,99.37,2,512.127
4/24/2012 20:00,6.9,0,61,28,25,99.45,2,353.869
4/24/2012 21:00,6.6,-0.2,62,20,25,99.54,2,81.5994
4/24/2012 22:00,6,-0.9,61,24,25,99.56,2,4.60815
4/24/2012 23:00,5.4,-0.9,64,19,25,99.61,2,5.97798
4/25/2012 0:00,4.9,-0.6,68,19,25,99.67,2,18.5356
4/25/2012 1:00,5.5,-0.7,64,19,25,99.71,2,16.2548
4/25/2012 2:00,4.5,-0.2,71,13,25,99.74,2,70.7981
4/25/2012 3:00,4.4,-0.3,71,15,25,99.77,2,66.1616
4/25/2012 4:00,4.8,-0.3,70,15,25,99.8,2,267.215
4/25/2012 5:00,4.5,0,73,13,24.1,99.84,2,341.042
4/25/2012 6:00,5.2,0.1,70,20,24.1,99.93,3,540.907
4/25/2012 7:00,5.5,0.6,71,19,19.3,100.01,3,493.21
4/25/2012 8:00,4.9,1.5,79,19,24.1,100.08,3,291.549
4/25/2012 9:00,5.1,2.9,86,15,24.1,100.15,3,199.171
4/25/2012 10:00,6.1,2.9,80,9,24.1,100.22,3,126.285
4/25/2012 11:00,7.8,2.7,70,17,48.3,100.23,2,1.69035
4/25/2012 12:00,8,1.9,65,20,48.3,100.26,2,1.29152
4/25/2012 13:00,8.7,0.1,55,20,48.3,100.29,2,0.14722
4/25/2012 14:00,9.8,1.7,57,19,24.1,100.31,2,62.7686
4/25/2012 15:00,7.7,0.5,60,15,24.1,100.38,3,229.589
4/25/2012 16:00,8.8,-1.5,48,17,24.1,100.41,2,302.197
4/25/2012 17:00,8.8,-1.5,48,22,48.3,100.45,2,528.775
4/25/2012 18:00,8,-1.9,50,22,48.3,100.5,2,415.257
4/25/2012 19:00,7.3,0.1,60,17,24.1,100.56,2,435.166
4/25/2012 20:00,7.3,-0.2,59,17,25,100.61,2,282.872
4/25/2012 21:00,7,0,61,13,25,100.67,2,76.6518
4/25/2012 22:00,6.2,0.2,65,9,25,100.69,2,4.48053
4/25/2012 23:00,6,0.2,66,9,25,100.69,2,6.51869
4/26/2012 0:00,5.8,0.9,71,7,25,100.68,2,2.4001
4/26/2012 1:00,4.9,0.2,72,9,25,100.67,1,16.7112
4/26/2012 2:00,3.7,-0.5,74,7,25,100.67,1,35.0165
4/26/2012 3:00,3.5,-0.6,74,11,25,100.66,1,79.8924
4/26/2012 4:00,2.7,-1.5,74,7,25,100.66,1,206.714
4/26/2012 5:00,2.6,-1.3,75,9,24.1,100.69,1,606.088
4/26/2012 6:00,3.2,-0.6,76,4,48.3,100.71,1,376.786
4/26/2012 7:00,5.5,0.9,72,7,48.3,100.72,2,401.075
4/26/2012 8:00,6.2,0.8,68,7,48.3,100.72,2,288.777
4/26/2012 9:00,6.9,-0.3,60,7,48.3,100.65,2,190.116
4/26/2012 10:00,8.8,0.3,55,11,48.3,100.6,2,53.8007
4/26/2012 11:00,9.6,0.3,52,7,48.3,100.49,2,0.0104
4/26/2012 12:00,9.8,0.5,52,13,48.3,100.39,2,0.3257
4/26/2012 13:00,10.3,0.8,52,13,48.3,100.24,2,40.4723
4/26/2012 14:00,11,-0.4,45,17,24.1,100.08,2,32.017
4/26/2012 15:00,11.2,-0.6,44,19,48.3,99.98,2,169.242
4/26/2012 16:00,11.4,-0.6,43,19,24.1,99.84,2,317.756
4/26/2012 17:00,11,1.3,51,15,19.3,99.8,3,525.691
4/26/2012 18:00,8.6,5.4,80,19,19.3,99.72,3,707.404
4/26/2012 19:00,8.3,5.6,83,15,19.3,99.7,3,367.376
4/26/2012 20:00,8.1,5.8,85,7,25,99.69,3,181.867
4/26/2012 21:00,8,6.2,88,9,9.7,99.67,3,72.9881
4/26/2012 22:00,7.6,5.8,88,6,9.7,99.61,3,32.9518
4/26/2012 23:00,6.9,5.3,90,13,9.7,99.59,3,1.97838
4/27/2012 0:00,5.8,4.1,89,22,9.7,99.67,3,7.07224
4/27/2012 1:00,4.8,2.6,86,15,25,99.74,3,22.9071
4/27/2012 2:00,4.7,2.8,87,15,25,99.79,3,78.9631
4/27/2012 3:00,4.4,1.8,83,22,25,99.87,2,203.005
4/27/2012 4:00,4.2,1,80,24,25,99.94,2,315.752
4/27/2012 5:00,3.3,-0.6,76,26,24.1,100.03,3,224.887
4/27/2012 6:00,2.5,-1.7,74,28,24.1,100.16,2,559.799
4/27/2012 7:00,1.8,-2.9,71,32,12.9,100.25,3,624.073
4/27/2012 8:00,2.3,-2.7,69,26,24.1,100.33,3,623.689
4/27/2012 9:00,2.7,-3.2,65,32,24.1,100.4,3,133.63
4/27/2012 10:00,3.7,-3.1,61,30,24.1,100.48,3,4.91701
4/27/2012 11:00,3,-3.7,61,30,24.1,100.58,2,7.61877
4/27/2012 12:00,2.7,-4.1,61,35,24.1,100.65,3,13.9546
4/27/2012 13:00,2.7,-5,57,37,24.1,100.76,2,65.6833
4/27/2012 14:00,1.9,-5.3,59,37,24.1,100.86,2,53.425
4/27/2012 15:00,2.5,-5.1,57,30,24.1,100.92,2,29.6299
4/27/2012 16:00,2.1,-5.9,55,30,24.1,100.97,2,229.508
4/27/2012 17:00,1.7,-6.3,55,33,24.1,101.09,2,357.968
4/27/2012 18:00,1,-7.2,54,28,24.1,101.18,2,487.922
4/27/2012 19:00,0.7,-7.7,53,22,24.1,101.25,2,388.641
4/27/2012 20:00,0.5,-7.2,56,24,25,101.36,2,212.273
4/27/2012 21:00,0.2,-7.1,58,19,25,101.42,2,185.89
4/27/2012 22:00,0.2,-7.8,55,20,25,101.47,2,48.9485
4/27/2012 23:00,0.3,-7.7,55,17,25,101.5,2,0.01352
4/28/2012 0:00,0.2,-7.4,57,17,25,101.52,2,10.7854
4/28/2012 1:00,-0.2,-8.2,55,19,25,101.51,2,28.6799
4/28/2012 2:00,-0.4,-8.1,56,22,25,101.5,2,123.023
4/28/2012 3:00,-0.8,-9.1,53,17,25,101.54,2,115.429
4/28/2012 4:00,-1.3,-9.8,52,24,25,101.6,2,234.761
4/28/2012 5:00,-1.5,-9.6,54,26,24.1,101.67,2,549.54
4/28/2012 6:00,-2.1,-10.7,52,22,48.3,101.74,1,327.091
4/28/2012 7:00,-1.3,-10,52,30,48.3,101.75,1,223.517
4/28/2012 8:00,-0.4,-10,48,24,48.3,101.78,1,269.975
4/28/2012 9:00,0.6,-9.7,46,32,48.3,101.79,1,51.2185
4/28/2012 10:00,2,-7.4,50,28,48.3,101.73,1,9.41034
4/28/2012 11:00,3.9,-9.9,36,24,48.3,101.71,1,13.5853
4/28/2012 12:00,5,-9.7,34,30,48.3,101.68,1,7.99686
4/28/2012 13:00,5.4,-11.1,29,32,48.3,101.62,1,12.5831
4/28/2012 14:00,6.4,-10.7,28,24,48.3,101.57,1,8.35921
4/28/2012 15:00,7.2,-10.5,27,35,48.3,101.5,1,44.7567
4/28/2012 16:00,7.4,-11,26,30,48.3,101.46,1,281.536
4/28/2012 17:00,7.7,-11.2,25,28,48.3,101.45,1,786.245
4/28/2012 18:00,7.2,-11.3,25,24,48.3,101.43,1,454.244
4/28/2012 19:00,6.1,-11.4,27,19,48.3,101.46,1,696.272
4/28/2012 20:00,4.1,-10.2,34,11,25,101.51,1,239.95
4/28/2012 21:00,2.3,-9.7,41,11,25,101.55,1,70.0824
4/28/2012 22:00,1.9,-9.9,41,9,25,101.56,2,3.32205
4/28/2012 23:00,0.8,-9.1,47,6,25,101.55,2,0.06706
4/29/2012 0:00,0.8,-8.8,49,7,25,101.52,2,3.05691
4/29/2012 1:00,1.3,-8.7,47,11,25,101.49,1,5.51192
4/29/2012 2:00,1.3,-7.5,52,11,25,101.49,1,0.05684
4/29/2012 3:00,0.8,-7.8,53,13,25,101.47,2,297.624
4/29/2012 4:00,-0.1,-7.7,57,9,25,101.48,1,209.147
4/29/2012 5:00,0.9,-10.5,42,19,48.3,101.52,2,732.781
4/29/2012 6:00,1.2,-11.4,38,20,48.3,101.58,2,353.252
4/29/2012 7:00,1.8,-11.9,35,26,48.3,101.64,2,407.441
4/29/2012 8:00,2.6,-11.7,34,19,48.3,101.65,2,193.233
4/29/2012 9:00,4.3,-11.7,30,19,48.3,101.64,1,162.603
4/29/2012 10:00,5.5,-11.4,28,26,48.3,101.67,1,15.8119
4/29/2012 11:00,6.2,-11.6,27,24,48.3,101.62,1,10.6704
4/29/2012 12:00,7.4,-10.5,27,24,48.3,101.62,1,8.7212
4/29/2012 13:00,8.4,-11.1,24,32,48.3,101.64,1,23.461
4/29/2012 14:00,8.7,-11.7,22,22,48.3,101.65,1,42.3547
4/29/2012 15:00,9,-12,21,32,48.3,101.63,1,118.086
4/29/2012 16:00,9.2,-11.8,21,28,48.3,101.66,1,266.631
4/29/2012 17:00,9,-11.5,22,30,48.3,101.72,1,547.481
4/29/2012 18:00,8.1,-11.9,23,28,48.3,101.77,1,767.513
4/29/2012 19:00,6.9,-11.7,25,20,48.3,101.82,1,306.786
4/29/2012 20:00,6.3,-11.4,27,15,25,101.93,1,273.808
4/29/2012 21:00,5.4,-11,29,19,25,102.01,1,177.51
4/29/2012 22:00,5.1,-10.7,31,15,25,102.05,1,25.508
4/29/2012 23:00,4.1,-10.3,34,13,25,102.09,1,0.04428
4/30/2012 0:00,3.3,-10.3,36,9,25,102.06,1,14.8878
4/30/2012 1:00,2.2,-9.7,41,6,25,102.12,1,5.67389
4/30/2012 2:00,3.2,-10.4,36,0,25,102.09,1,53.2531
4/30/2012 3:00,2.4,-9.2,42,0,25,102.09,1,120.237
4/30/2012 4:00,0.7,-9,48,4,25,102.14,1,326.943
4/30/2012 5:00,-0.7,-6.9,63,4,48.3,102.23,1,605.515
4/30/2012 6:00,3,-4.3,59,0,48.3,102.33,1,495.969
4/30/2012 7:00,6,-7.3,38,0,48.3,102.37,1,737.185
4/30/2012 8:00,6.6,-6.3,39,11,48.3,102.41,2,383.276
4/30/2012 9:00,7.2,-6.4,37,7,48.3,102.31,2,153.624
4/30/2012 10:00,7.6,-6.7,35,7,48.3,102.31,2,15.4586
4/30/2012 11:00,9.3,-5.2,35,0,48.3,102.2,2,0.00822
4/30/2012 12:00,10.1,-3.2,39,6,48.3,102.15,2,2.25106
4/30/2012 13:00,12.4,-4.3,31,11,48.3,102.01,2,29.7185
4/30/2012 14:00,12.4,-3.2,34,7,48.3,101.93,2,76.6334
4/30/2012 15:00,12.5,-4.2,31,15,48.3,101.83,2,162.34
4/30/2012 16:00,12.9,-3.8,31,9,48.3,101.79,2,280.501
4/30/2012 17:00,12.7,-4.5,30,9,24.1,101.73,2,432.564
4/30/2012 18:00,12.5,-4,31,13,25,101.68,2,468.194
4/30/2012 19:00,12.2,-3.6,33,11,25,101.6,2,334.72
4/30/2012 20:00,12.1,-2.9,35,11,25,101.53,2,185.82
4/30/2012 21:00,12.2,-3.7,33,13,25,101.49,2,218.287
4/30/2012 22:00,12,-3.2,34,11,25,101.47,2,130.107
4/30/2012 23:00,11.1,-2,40,6,25,101.45,2,4.99061
5/1/2012 0:00,11.4,-1.9,39,11,25,101.32,2,1.3331
5/1/2012 1:00,10.8,-1,44,19,25,101.22,3,52.7534
5/1/2012 2:00,9.7,1.7,57,7,25,101.24,3,65.26
5/1/2012 3:00,8.8,3.2,68,15,25,101.2,3,109.438
5/1/2012 4:00,8.4,3.7,72,17,25,101.15,3,320.563
5/1/2012 5:00,7.8,5.1,83,24,11.3,101.13,3,766.414
5/1/2012 6:00,7.8,5.8,87,24,9.7,101.15,3,632.049
5/1/2012 7:00,7.9,5.9,87,13,9.7,101.15,3,608.192
5/1/2012 8:00,8,5.9,87,17,9.7,101.13,3,201.041
5/1/2012 9:00,8.4,6.8,90,13,9.7,101.09,2,244.715
5/1/2012 10:00,9.2,7,86,6,16.1,101.12,2,21.013
5/1/2012 11:00,9.5,7,84,6,16.1,101.13,2,19.4961
5/1/2012 12:00,10.9,7.9,82,7,16.1,101.08,2,0.29132
5/1/2012 13:00,10.6,7.5,81,0,16.1,101.12,2,33.7543
5/1/2012 14:00,11,7.8,81,0,16.1,101.15,2,13.1223
5/1/2012 15:00,10.4,7.9,84,9,9.7,101.16,3,227.216
5/1/2012 16:00,9.9,7.9,87,9,4.8,101.17,3,354.499
5/1/2012 17:00,10,8.4,90,7,4,101.21,3,522.397
5/1/2012 18:00,9.7,8.2,90,7,2.4,101.3,3,624.896
5/1/2012 19:00,9.6,8.2,91,9,2,101.35,3,358.844
5/1/2012 20:00,9.3,8,92,6,4,101.39,3,195.451
5/1/2012 21:00,9.2,7.9,92,9,2.4,101.38,3,55.233
5/1/2012 22:00,9.1,7.9,92,6,2,101.38,3,8.40755
5/1/2012 23:00,9.1,7.9,92,6,2.4,101.41,3,16.6593
5/2/2012 0:00,9,7.9,93,6,1.6,101.43,3,5.29986
5/2/2012 1:00,8.6,7.8,95,6,0.6,101.44,2,32.7776
5/2/2012 2:00,8.8,7.7,93,4,0.4,101.44,2,81.4802
5/2/2012 3:00,8.8,7.7,93,4,0.4,101.49,2,144.341
5/2/2012 4:00,8.6,7.5,93,9,1.2,101.52,2,438.896
5/2/2012 5:00,8.4,7.3,93,13,1,101.57,2,644.838
5/2/2012 6:00,8.6,7.5,93,11,1.6,101.58,2,604.175
5/2/2012 7:00,8.4,7.3,93,17,1,101.7,3,423.692
5/2/2012 8:00,8.4,7.2,92,15,2.4,101.71,2,247.244
5/2/2012 9:00,8.9,7.4,90,13,6.4,101.68,2,140.361
5/2/2012 10:00,9.5,7.8,89,13,6.4,101.73,2,52.6143
5/2/2012 11:00,10.3,8,86,13,12.9,101.72,2,0.92268
5/2/2012 12:00,11.2,8,81,13,12.9,101.64,2,0.81033
5/2/2012 13:00,11.8,8.3,79,17,12.9,101.57,2,7.77238
5/2/2012 14:00,13,8.5,74,11,16.1,101.51,2,10.455
5/2/2012 15:00,14,9.1,72,19,16.1,101.42,2,330.499
5/2/2012 16:00,14.9,9,68,19,19.3,101.37,2,197.267
5/2/2012 17:00,15.4,8.9,65,17,24.1,101.31,2,603.185
5/2/2012 18:00,15.4,9,66,15,24.1,101.28,2,276.94
5/2/2012 19:00,15.2,9,66,15,24.1,101.29,2,437.713
5/2/2012 20:00,14.2,9,71,11,25,101.34,2,342.129
5/2/2012 21:00,14.2,8,66,17,25,101.27,2,333.453
5/2/2012 22:00,13.5,7.7,68,19,25,101.22,3,89.3188
5/2/2012 23:00,11.9,8.7,81,19,25,101.18,3,2.12559
5/3/2012 0:00,11.6,8.9,83,17,25,101.16,2,0.37143
5/3/2012 1:00,11.4,8.9,85,15,25,101.17,2,37.7137
5/3/2012 2:00,11.4,8.7,83,17,25,101.18,2,25.2565
5/3/2012 3:00,11.2,8.5,83,15,25,101.21,2,149.653
5/3/2012 4:00,11.1,8.4,83,17,25,101.24,2,307.686
5/3/2012 5:00,11,8.4,84,13,24.1,101.29,2,570.203
5/3/2012 6:00,11.4,8.5,82,13,24.1,101.31,2,479.862
5/3/2012 7:00,11.7,8.6,81,15,24.1,101.36,2,340.538
5/3/2012 8:00,12.4,8.8,79,15,24.1,101.42,2,319.17
5/3/2012 9:00,13.6,9.6,77,17,24.1,101.42,2,298.594
5/3/2012 10:00,14.2,9.9,75,13,24.1,101.44,2,74.9472
5/3/2012 11:00,15.4,10.3,72,11,24.1,101.41,2,0.08277
5/3/2012 12:00,15.7,10.3,70,15,24.1,101.4,2,0.83205
5/3/2012 13:00,15.9,10.7,71,13,24.1,101.38,2,4.45144
5/3/2012 14:00,16.2,10.8,70,11,24.1,101.37,2,26.2286
5/3/2012 15:00,16.2,11,71,7,24.1,101.27,2,186.424
5/3/2012 16:00,16.5,11.4,72,13,24.1,101.17,2,300.067
5/3/2012 17:00,16.4,11.4,72,6,24.1,101.22,3,583.023
5/3/2012 18:00,15.8,11.9,78,7,24.1,101.21,2,506.578
5/3/2012 19:00,15.7,11.4,76,6,24.1,101.18,2,478.53
5/3/2012 20:00,15.1,11.1,77,11,25,101.13,2,230.131
5/3/2012 21:00,14.2,10.8,80,13,25,101.04,2,83.0429
5/3/2012 22:00,13.8,10.2,79,11,25,101.01,2,4.25047
5/3/2012 23:00,13.8,10.4,80,11,25,100.99,3,5.10306
5/4/2012 0:00,13.5,10.7,83,13,25,100.85,2,10.3983
5/4/2012 1:00,13.3,10.8,85,17,25,100.7,2,10.9028
5/4/2012 2:00,13.1,11,87,13,9.7,100.75,3,7.77532
5/4/2012 3:00,13.2,11.2,88,11,8,100.66,3,135.889
5/4/2012 4:00,13.1,11.2,88,6,8,100.7,3,350.062
5/4/2012 5:00,13.2,11.2,88,6,8,100.67,2,429.508
5/4/2012 6:00,13.3,11.3,88,11,3.6,100.69,3,316.506
5/4/2012 7:00,13.6,11.7,88,7,4.8,100.7,3,806.554
5/4/2012 8:00,13.7,12.1,90,6,3.6,100.72,3,527.605
5/4/2012 9:00,13.5,11.9,90,11,4,100.71,3,77.1145
5/4/2012 10:00,13.8,12,89,11,9.7,100.71,3,58.0797
5/4/2012 11:00,14.6,12.3,86,7,16.1,100.72,2,1.20948
5/4/2012 12:00,15.3,12.2,82,0,24.1,100.7,2,2.20118
5/4/2012 13:00,16,12.6,80,9,24.1,100.71,2,25.7535
5/4/2012 14:00,16,12.5,80,9,24.1,100.73,2,103.99
5/4/2012 15:00,16.9,13,78,9,24.1,100.72,2,82.0514
5/4/2012 16:00,16.6,12.9,79,7,24.1,100.77,2,273.926
5/4/2012 17:00,17.1,12.9,76,7,24.1,100.79,2,434.396
5/4/2012 18:00,17.4,13,75,4,24.1,100.79,2,462.428
5/4/2012 19:00,15.9,13,83,9,9.7,100.82,3,519.612
5/4/2012 20:00,15.4,13.5,88,9,25,100.89,2,306.14
5/4/2012 21:00,14,9.8,76,32,25,100.99,2,121.032
5/4/2012 22:00,11,5.4,68,30,25,101.08,2,3.84201
5/4/2012 23:00,10.2,4.6,68,17,25,101.17,2,0.70148
5/5/2012 0:00,8.4,4.1,74,4,25,101.25,1,25.5379
5/5/2012 1:00,7.9,3.4,73,11,25,101.32,1,6.73176
5/5/2012 2:00,7.7,2.9,72,11,25,101.36,1,35.4543
5/5/2012 3:00,6.5,1.6,71,15,25,101.42,1,280.166
5/5/2012 4:00,5.7,0.2,68,11,25,101.44,1,168.951
5/5/2012 5:00,5.2,-0.6,66,17,24.1,101.49,1,559.224
5/5/2012 6:00,5.9,-0.7,63,15,48.3,101.55,1,563.936
5/5/2012 7:00,6.5,-0.7,60,19,48.3,101.62,1,452.636
5/5/2012 8:00,7.6,0.3,60,17,48.3,101.66,1,239.818
5/5/2012 9:00,8.3,0.7,59,9,48.3,101.74,1,102.363
5/5/2012 10:00,9.4,1.2,57,11,48.3,101.78,1,12.7244
5/5/2012 11:00,10.8,0.8,50,13,48.3,101.73,1,1.9763
5/5/2012 12:00,11.8,0.4,45,11,48.3,101.69,1,6.28317
5/5/2012 13:00,12.8,-0.7,39,13,48.3,101.63,2,2.50415
5/5/2012 14:00,14.4,-1,35,7,48.3,101.59,1,35.1278
5/5/2012 15:00,15.4,-1,32,6,48.3,101.55,1,89.4853
5/5/2012 16:00,16,-2.4,28,17,48.3,101.51,1,291.993
5/5/2012 17:00,15.9,-1.8,30,9,48.3,101.53,1,628.946
5/5/2012 18:00,15.7,-2.8,28,11,48.3,101.52,1,637.45
5/5/2012 19:00,14.7,-3,29,0,48.3,101.54,1,414.03
5/5/2012 20:00,12.8,-2,36,4,25,101.62,1,658.105
5/5/2012 21:00,12.6,-2.7,34,6,25,101.65,2,90.2567
5/5/2012 22:00,13.1,-4.2,30,9,25,101.65,2,3.28945
5/5/2012 23:00,12.7,-5,29,13,25,101.64,2,5.05268
5/6/2012 0:00,12.1,-4.7,31,9,25,101.67,2,0.2034
5/6/2012 1:00,10.9,-4.1,35,15,25,101.61,1,51.6389
5/6/2012 2:00,7.8,-3.2,46,13,25,101.63,1,37.3254
5/6/2012 3:00,7,-2,53,17,25,101.67,1,225.583
5/6/2012 4:00,6.6,-3.6,48,17,25,101.67,1,217.668
5/6/2012 5:00,6.2,-3.4,50,20,48.3,101.71,2,375.707
5/6/2012 6:00,7.3,-3.1,48,22,48.3,101.72,2,264.157
5/6/2012 7:00,8.2,-2.3,47,22,48.3,101.78,2,741.587
5/6/2012 8:00,9.8,-1.1,47,17,48.3,101.81,2,163.07
5/6/2012 9:00,11,-0.9,44,20,48.3,101.86,1,111.23
5/6/2012 10:00,12.3,-1.1,39,15,48.3,101.84,1,21.4818
5/6/2012 11:00,13.8,-4,29,15,48.3,101.77,1,5.71822
5/6/2012 12:00,14.7,-2.9,30,6,48.3,101.74,1,3.75275
5/6/2012 13:00,15,-1.2,33,7,48.3,101.66,1,10.9122
5/6/2012 14:00,15.7,-2.3,29,9,48.3,101.61,1,0.77195
5/6/2012 15:00,16.6,-3,26,6,48.3,101.61,1,109.904
5/6/2012 16:00,16.6,-2.7,27,7,48.3,101.6,1,258.384
5/6/2012 17:00,16.6,-1.7,29,11,48.3,101.57,1,642.036
5/6/2012 18:00,16.1,-2.7,27,11,48.3,101.56,1,572.381
5/6/2012 19:00,14.4,-1.8,33,9,48.3,101.56,2,683.449
5/6/2012 20:00,13.1,-1.4,37,9,25,101.58,1,317.495
5/6/2012 21:00,12.3,-1,40,6,25,101.57,1,119.125
5/6/2012 22:00,11.7,-1.6,40,0,25,101.58,1,143.815
5/6/2012 23:00,11.1,-2.1,40,0,25,101.57,1,0.42203
5/7/2012 0:00,9.9,-1.6,45,0,25,101.57,1,7.44247
5/7/2012 1:00,6.9,0.3,63,0,25,101.55,1,9.08182
5/7/2012 2:00,5.2,-0.8,65,4,25,101.56,1,18.3886
5/7/2012 3:00,4.6,-0.4,70,4,25,101.55,1,347.585
5/7/2012 4:00,5.1,0.6,73,0,25,101.61,1,249.362
5/7/2012 5:00,5.7,0.4,69,4,48.3,101.6,1,528.94
5/7/2012 6:00,8.2,3.3,71,6,48.3,101.63,1,670.233
5/7/2012 7:00,12.3,0.6,45,4,48.3,101.64,1,469.48
5/7/2012 8:00,14,1,41,7,48.3,101.67,1,219.913
5/7/2012 9:00,16,-3,27,7,48.3,101.68,1,130.232
5/7/2012 10:00,17.1,-5.9,20,13,48.3,101.67,1,8.96177
5/7/2012 11:00,17.8,-3.1,24,7,48.3,101.59,1,0.20418
5/7/2012 12:00,18.9,-4.2,21,13,48.3,101.48,1,14.6215
5/7/2012 13:00,19.7,-2.3,22,13,48.3,101.43,1,8.2562
5/7/2012 14:00,20.1,-3.6,20,19,48.3,101.36,1,95.8359
5/7/2012 15:00,20.6,-2.3,21,7,48.3,101.25,2,109.066
5/7/2012 16:00,20.9,-2,21,11,48.3,101.14,2,227.869
5/7/2012 17:00,21,-2.9,20,13,48.3,101.07,2,277.9
5/7/2012 18:00,20.7,-4.4,18,13,48.3,101,2,796.267
5/7/2012 19:00,19.9,-4,20,11,48.3,100.93,2,341.633
5/7/2012 20:00,19.2,-3.8,21,13,25,100.9,2,258.316
5/7/2012 21:00,18.7,-4.1,21,15,25,100.87,1,179.601
5/7/2012 22:00,18.1,-3.5,23,17,25,100.84,1,9.40578
5/7/2012 23:00,17.6,-2.2,26,15,25,100.77,2,25.1592
5/8/2012 0:00,16.1,0.2,34,11,25,100.77,2,17.809
5/8/2012 1:00,16,4.8,47,15,25,100.74,3,38.0801
5/8/2012 2:00,14.8,5.4,53,4,25,100.71,2,28.5818
5/8/2012 3:00,15.2,6.6,56,6,25,100.64,3,85.4605
5/8/2012 4:00,14.2,10.4,78,17,25,100.6,3,260.88
5/8/2012 5:00,13.7,10.3,80,19,24.1,100.53,2,675.394
5/8/2012 6:00,12.6,10.4,86,22,9.7,100.51,3,656.572
5/8/2012 7:00,12.2,10.1,87,24,6.4,100.48,3,457.57
5/8/2012 8:00,11.6,9.5,87,26,6.4,100.45,3,272.553
5/8/2012 9:00,11.1,9.1,87,32,6.4,100.41,3,150.797
5/8/2012 10:00,10.9,8.9,87,26,8,100.39,3,24.6582
5/8/2012 11:00,11,9.2,89,20,6.4,100.37,3,0
5/8/2012 12:00,11.1,9.3,89,19,6.4,100.37,3,6.30357
5/8/2012 13:00,11.5,9.6,88,17,6.4,100.35,3,10.4603
5/8/2012 14:00,11.7,9.9,89,19,8,100.32,3,4.49918
5/8/2012 15:00,12,10,88,17,12.9,100.3,3,133.607
5/8/2012 16:00,12.2,10.3,88,15,12.9,100.28,3,311.074
5/8/2012 17:00,12.2,10.3,88,9,12.9,100.29,3,586.373
5/8/2012 18:00,12.1,10.3,89,11,9.7,100.29,3,589.271
5/8/2012 19:00,12.3,10.5,89,6,8,100.3,2,495.89
5/8/2012 20:00,12.1,10.5,90,9,8,100.33,3,233.426
5/8/2012 21:00,12.2,10.6,90,6,8,100.31,2,267.452
5/8/2012 22:00,12.3,10.7,90,6,8,100.3,2,10.2458
5/8/2012 23:00,12.4,10.9,91,4,6.4,100.26,3,0.49404
5/9/2012 0:00,12.5,11,91,0,3.2,100.27,3,16.7175
5/9/2012 1:00,12.6,11.2,91,0,3.2,100.2,3,3.23819
5/9/2012 2:00,12.8,11.3,91,6,6.4,100.14,3,60.8157
5/9/2012 3:00,12.9,11.4,91,6,4.8,100.13,3,168.841
5/9/2012 4:00,13,11.6,91,6,3.2,100.08,3,242.222
5/9/2012 5:00,13.5,12,91,9,2.4,100.07,3,539.79
5/9/2012 6:00,13.7,12.2,91,13,2.4,100.08,3,611.303
5/9/2012 7:00,14.3,12.5,89,15,4.8,100.12,2,332.066
5/9/2012 8:00,14.3,12.3,88,17,6.4,100.12,2,250.144
5/9/2012 9:00,14,12.3,89,9,4,100.1,3,240.915
5/9/2012 10:00,14.9,12.2,84,17,16.1,100.07,2,6.37303
5/9/2012 11:00,16.1,13.3,83,9,24.1,100.03,2,6.42947
5/9/2012 12:00,16.1,11.7,75,19,24.1,100.02,2,5.29223
5/9/2012 13:00,17.4,12,71,15,24.1,99.96,2,23.9319
5/9/2012 14:00,17.9,11.2,65,15,24.1,99.88,2,46.8843
5/9/2012 15:00,19,11.4,61,13,24.1,99.78,2,73.9789
5/9/2012 16:00,19.2,10.4,57,13,24.1,99.72,2,249.852
5/9/2012 17:00,18.9,10.2,57,7,24.1,99.67,2,356.157
5/9/2012 18:00,16.8,10.6,67,20,24.1,99.68,2,701.185
5/9/2012 19:00,16.3,10.9,70,11,24.1,99.68,2,364.867
5/9/2012 20:00,15.9,11,73,7,25,99.68,2,221.913
5/9/2012 21:00,15.4,9.5,68,11,25,99.67,2,111.791
5/9/2012 22:00,14.3,9.4,72,13,25,99.67,1,139.852
5/9/2012 23:00,11.9,8.3,79,4,25,99.65,1,1.11792
5/10/2012 0:00,12.2,8.4,78,15,25,99.66,2,2.36234
5/10/2012 1:00,11.6,8.6,82,6,25,99.62,2,29.9072
5/10/2012 2:00,11,8.5,85,7,25,99.59,2,58.5361
5/10/2012 3:00,11.4,8.9,85,6,16.1,99.55,2,195.949
5/10/2012 4:00,11.4,9,85,11,16.1,99.5,2,293.215
5/10/2012 5:00,10.9,8.1,83,17,24.1,99.47,2,281.272
5/10/2012 6:00,10.2,7.3,82,22,24.1,99.5,2,461.884
5/10/2012 7:00,8.9,6.1,83,20,24.1,99.51,2,276.823
5/10/2012 8:00,9,5.6,79,20,24.1,99.51,2,347.207
5/10/2012 9:00,9,5,76,26,24.1,99.51,2,129.201
5/10/2012 10:00,9.3,5.2,76,28,24.1,99.52,2,33.165
5/10/2012 11:00,10.5,5.6,72,28,24.1,99.48,2,6.29039
5/10/2012 12:00,10,5.4,73,30,24.1,99.48,2,1.61393
5/10/2012 13:00,10.4,6,74,26,24.1,99.46,2,21.3381
5/10/2012 14:00,10.1,5.9,75,30,24.1,99.48,2,19.255
5/10/2012 15:00,10.5,5.3,70,28,24.1,99.51,2,195.019
5/10/2012 16:00,10.2,6,75,19,24.1,99.55,3,382.466
5/10/2012 17:00,10.2,5.1,71,26,24.1,99.6,2,589.857
5/10/2012 18:00,9.8,6,77,19,24.1,99.68,3,566.606
5/10/2012 19:00,9.5,6.2,80,15,24.1,99.73,3,261.476
5/10/2012 20:00,9.4,5.6,77,20,25,99.79,3,288.672
5/10/2012 21:00,9.2,5,75,20,25,99.88,3,86.9181
5/10/2012 22:00,9.2,4.1,70,24,25,99.92,2,119.142
5/10/2012 23:00,9,3.1,66,17,25,100,2,6.31867
5/11/2012 0:00,8.7,2.7,66,15,25,100.07,3,10.6943
5/11/2012 1:00,8.4,3.1,69,22,25,100.14,3,18.6183
5/11/2012 2:00,7.3,3.5,77,17,25,100.22,3,4.25047
5/11/2012 3:00,7.3,2.4,71,19,25,100.3,2,157.455
5/11/2012 4:00,7.3,2.1,70,7,25,100.39,3,329.327
5/11/2012 5:00,7.5,2.5,71,7,24.1,100.42,2,429.113
5/11/2012 6:00,8.7,2.9,67,17,48.3,100.49,2,610.431
5/11/2012 7:00,9.5,2.3,61,19,48.3,100.54,2,411.573
5/11/2012 8:00,11.3,3,57,19,48.3,100.6,2,221.405
5/11/2012 9:00,11.7,1.6,50,19,48.3,100.63,1,175.592
5/11/2012 10:00,13.1,1.4,45,22,48.3,100.64,1,4.34117
5/11/2012 11:00,14.6,-0.9,34,24,48.3,100.65,1,2.62996
5/11/2012 12:00,15.3,-1.4,32,22,48.3,100.67,1,7.59007
5/11/2012 13:00,16.4,-1.3,30,20,48.3,100.7,1,39.558
5/11/2012 14:00,17.6,-1,28,32,48.3,100.72,1,22.8781
5/11/2012 15:00,17.1,-1.8,27,26,48.3,100.76,1,133.701
5/11/2012 16:00,17.8,-2.1,26,26,48.3,100.78,1,326.382
5/11/2012 17:00,17.6,-2.2,26,22,48.3,100.82,1,371.785
5/11/2012 18:00,16.8,-2.7,26,22,48.3,100.87,1,575.555
5/11/2012 19:00,15.1,-2.9,29,13,48.3,100.95,1,316.366
5/11/2012 20:00,12.1,-2.1,37,11,25,101.04,1,747.339
5/11/2012 21:00,10.2,-2.1,42,9,25,101.1,1,223.748
5/11/2012 22:00,7.7,-1.2,53,9,25,101.15,1,32.3631
5/11/2012 23:00,7.8,-0.9,54,9,25,101.19,1,7.33182
5/12/2012 0:00,7.1,-0.6,58,9,25,101.19,1,4.94338
5/12/2012 1:00,9.8,-1.1,47,7,25,101.22,1,25.3281
5/12/2012 2:00,8.5,-1,51,0,25,101.23,1,20.2926
5/12/2012 3:00,7,-0.5,59,4,25,101.28,1,99.9117
5/12/2012 4:00,7.9,-1,53,11,25,101.35,1,156.903
5/12/2012 5:00,7.3,-1.4,54,6,48.3,101.37,1,552.279
5/12/2012 6:00,9.4,-0.5,50,7,48.3,101.42,1,373.398
5/12/2012 7:00,11.1,2.3,55,11,48.3,101.45,1,633.872
5/12/2012 8:00,12.9,2.4,49,11,48.3,101.46,1,250.749
5/12/2012 9:00,14.6,4.5,51,13,48.3,101.43,1,47.22
5/12/2012 10:00,16.7,4.6,45,15,48.3,101.41,1,17.8729
5/12/2012 11:00,18.6,4,38,20,48.3,101.36,2,2.27944
5/12/2012 12:00,20.4,5,36,22,48.3,101.3,2,5.30771
5/12/2012 13:00,22,5.6,34,24,48.3,101.25,2,25.2687
5/12/2012 14:00,22.4,6.8,36,28,48.3,101.23,2,23.6988
5/12/2012 15:00,23.9,6.9,34,26,48.3,101.22,2,158.12
5/12/2012 16:00,23.6,7.7,36,22,48.3,101.19,2,394.917
5/12/2012 17:00,22.8,7.3,37,20,48.3,101.21,2,533.732
5/12/2012 18:00,22.8,5.5,33,17,48.3,101.26,2,570.408
5/12/2012 19:00,22,6.2,36,20,48.3,101.27,2,310.979
5/12/2012 20:00,20.7,7.3,42,0,25,101.34,2,366.703
5/12/2012 21:00,19.3,7.8,47,11,25,101.37,3,228.993
5/12/2012 22:00,18.4,8.8,54,6,25,101.34,3,7.66937
5/12/2012 23:00,16.6,9.5,63,6,25,101.32,2,21.5583
5/13/2012 0:00,16.5,10,65,7,25,101.34,2,0.0265
5/13/2012 1:00,16,10,68,7,25,101.31,2,30.1397
5/13/2012 2:00,15.9,10.4,70,6,25,101.32,3,5.98596
5/13/2012 3:00,15.4,10.9,75,6,25,101.39,2,103.289
5/13/2012 4:00,15.1,10.9,76,11,25,101.5,3,403.94
5/13/2012 5:00,14.1,11.5,84,6,24.1,101.51,3,390.076
5/13/2012 6:00,14.1,11.8,86,11,24.1,101.58,3,335.537
5/13/2012 7:00,14.2,12,87,13,24.1,101.63,3,501.751
5/13/2012 8:00,14.5,12.3,87,11,24.1,101.6,2,296.256
5/13/2012 9:00,15.7,12.5,81,13,24.1,101.63,2,180.106
5/13/2012 10:00,17,12.3,74,9,24.1,101.63,2,7.05839
5/13/2012 11:00,17.2,11.2,68,17,24.1,101.63,2,1.35544
5/13/2012 12:00,18.1,10.7,62,13,24.1,101.61,2,10.5036
5/13/2012 13:00,19.5,9,51,11,24.1,101.59,2,11.8401
5/13/2012 14:00,19.6,6.8,43,20,48.3,101.56,2,14.8106
5/13/2012 15:00,20,5.8,39,11,48.3,101.53,2,69.324
5/13/2012 16:00,20.9,4,33,11,48.3,101.5,2,465.273
5/13/2012 17:00,20.4,4.1,34,15,48.3,101.48,1,717.301
5/13/2012 18:00,19.7,5.1,38,17,48.3,101.47,1,547.367
5/13/2012 19:00,18.8,5.7,42,13,48.3,101.49,1,614.125
5/13/2012 20:00,16.8,5.8,48,11,25,101.5,1,220.827
5/13/2012 21:00,13.4,6.5,63,7,25,101.54,1,122.557
5/13/2012 22:00,12.7,6.4,65,7,25,101.54,1,46.7906
5/13/2012 23:00,13.3,6.6,64,0,25,101.54,1,0.16198
5/14/2012 0:00,11.8,6.8,71,6,25,101.53,1,1.57736
5/14/2012 1:00,12.8,7.1,68,6,25,101.51,1,15.5098
5/14/2012 2:00,12,6.9,71,4,25,101.5,1,15.5301
5/14/2012 3:00,12,6.9,71,0,25,101.5,1,50.3976
5/14/2012 4:00,8.2,5.4,82,4,25,101.51,1,321.014
5/14/2012 5:00,8.3,5.7,84,0,24.1,101.54,1,503.846
5/14/2012 6:00,12,8.4,79,0,48.3,101.56,2,609.832
5/14/2012 7:00,15.6,9.5,67,0,48.3,101.58,2,458.453
5/14/2012 8:00,17.1,9.6,61,6,48.3,101.59,1,354.547
5/14/2012 9:00,19.2,8.6,50,6,48.3,101.54,2,226.98
5/14/2012 10:00,20.1,7.7,45,11,48.3,101.5,2,7.19556
5/14/2012 11:00,21.2,7.7,42,13,48.3,101.44,2,2.27083
5/14/2012 12:00,21.9,8,41,17,48.3,101.36,1,0.09005
5/14/2012 13:00,22,7.4,39,17,48.3,101.32,1,28.8248
5/14/2012 14:00,23.2,8.5,39,0,48.3,101.24,1,123.366
5/14/2012 15:00,23.2,9.2,41,9,48.3,101.17,1,188.578
5/14/2012 16:00,23.4,10,43,9,48.3,101.13,1,356.941
5/14/2012 17:00,23.5,11.3,46,6,48.3,101.11,2,459.402
5/14/2012 18:00,22.9,12.1,51,9,48.3,101.1,2,345.623
5/14/2012 19:00,21.5,12.4,56,15,48.3,101.11,2,651.6
5/14/2012 20:00,19.8,12.6,63,17,25,101.15,2,291.108
5/14/2012 21:00,18.3,12.6,69,15,25,101.18,1,134.946
5/14/2012 22:00,17.5,12.7,73,6,25,101.2,2,4.54599
5/14/2012 23:00,17.5,13.1,75,7,25,101.22,2,7.21845
5/15/2012 0:00,16,12.2,78,11,25,101.23,1,9.50147
5/15/2012 1:00,16.6,12.1,75,6,25,101.23,1,18.1531
5/15/2012 2:00,15.8,12.7,82,9,25,101.21,2,11.294
5/15/2012 3:00,15.9,13.1,83,11,25,101.19,2,243.23
5/15/2012 4:00,16,13.1,83,11,25,101.19,2,327.274
5/15/2012 5:00,15.9,12.9,82,11,24.1,101.21,2,783.675
5/15/2012 6:00,16.3,12.9,80,9,24.1,101.23,2,460.039
5/15/2012 7:00,16.4,13.8,85,7,24.1,101.24,2,578.413
5/15/2012 8:00,17.3,13.9,80,11,24.1,101.23,2,222.544
5/15/2012 9:00,18.7,14.5,77,9,24.1,101.2,2,264.913
5/15/2012 10:00,20.7,15,70,7,24.1,101.17,2,69.0747
5/15/2012 11:00,20.3,14.3,68,11,24.1,101.12,2,3.15451
5/15/2012 12:00,20.7,15,70,13,24.1,101.06,2,5.14758
5/15/2012 13:00,20.1,14.6,71,20,24.1,101.02,2,24.3795
5/15/2012 14:00,19.2,14.4,74,19,24.1,100.98,2,39.3477
5/15/2012 15:00,17.8,15.2,85,9,16.1,100.95,3,170.641
5/15/2012 16:00,18.2,15.4,84,15,24.1,100.9,2,194.522
5/15/2012 17:00,18.2,15.3,83,17,24.1,100.85,2,269.781
5/15/2012 18:00,17.9,15.1,84,19,24.1,100.83,2,661.474
5/15/2012 19:00,17.4,15,86,17,24.1,100.81,2,443.541
5/15/2012 20:00,17,14.4,85,17,24.1,100.79,2,452.43
5/15/2012 21:00,16.6,14,85,15,25,100.77,2,81.3453
5/15/2012 22:00,15.9,13.6,86,11,25,100.75,1,16.4857
5/15/2012 23:00,15.4,13.2,87,11,25,100.74,1,0.1343
5/16/2012 0:00,14.6,12.6,88,4,25,100.71,1,29.3725
5/16/2012 1:00,13.9,12,88,6,25,100.66,1,25.4597
5/16/2012 2:00,13.9,12,88,6,25,100.6,1,57.1202
5/16/2012 3:00,13.3,11.4,88,0,25,100.58,1,333.39
5/16/2012 4:00,12.9,11,88,6,19.3,100.59,1,208.787
5/16/2012 5:00,13,11.1,88,0,16.1,100.56,2,442.53
5/16/2012 6:00,13.8,12,89,11,19.3,100.56,2,522.932
5/16/2012 7:00,15,12.8,87,9,24.1,100.57,2,509.659
5/16/2012 8:00,17.5,13.9,79,9,24.1,100.54,2,323.417
5/16/2012 9:00,20.1,14.2,69,13,24.1,100.45,1,64.8117
5/16/2012 10:00,21.9,14.1,61,15,24.1,100.35,1,6.26408
5/16/2012 11:00,22,13.1,57,20,19.3,100.35,2,0.82889
5/16/2012 12:00,22.9,12.5,52,11,24.1,100.23,2,27.2062
5/16/2012 13:00,23.4,12.3,50,15,24.1,100.21,2,15.227
5/16/2012 14:00,17.9,13.2,74,19,19.3,100.22,2,42.1676
5/16/2012 15:00,19.3,10.4,56,32,24.1,100.29,2,145.949
5/16/2012 16:00,18.7,10.2,58,33,24.1,100.27,2,198.366
5/16/2012 17:00,17.6,10.7,64,22,24.1,100.32,2,460.273
5/16/2012 18:00,18.2,11.1,63,26,24.1,100.35,1,408.849
5/16/2012 19:00,17.6,10.7,64,22,24.1,100.34,1,429.219
5/16/2012 20:00,17.1,9.9,63,17,25,100.37,1,230.536
5/16/2012 21:00,14.2,6.9,61,17,25,100.53,2,88.1687
5/16/2012 22:00,13.3,5.7,60,20,25,100.66,2,2.02702
5/16/2012 23:00,11.5,3.2,57,22,25,100.82,2,0.35446
5/17/2012 0:00,10,2.9,61,24,25,100.93,2,25.9673
5/17/2012 1:00,9.8,2.1,59,24,25,101.05,2,17.3206
5/17/2012 2:00,8.3,1.6,63,15,25,101.07,1,21.6969
5/17/2012 3:00,7.3,1.6,67,15,25,101.16,1,171.733
5/17/2012 4:00,6.6,1.4,69,9,48.3,101.24,1,309.845
5/17/2012 5:00,6,1,70,11,48.3,101.32,1,383.063
5/17/2012 6:00,8.5,1.9,63,9,48.3,101.4,1,451.998
5/17/2012 7:00,10.2,1.8,56,15,48.3,101.45,2,358.178
5/17/2012 8:00,10.7,2.2,56,15,48.3,101.5,2,297.065
5/17/2012 9:00,11.3,2.1,53,22,48.3,101.48,1,284.818
5/17/2012 10:00,12.2,2.2,50,26,48.3,101.46,2,8.55173
5/17/2012 11:00,13.9,2.5,46,22,48.3,101.49,1,0.81369
5/17/2012 12:00,14.3,1.8,43,17,48.3,101.49,2,0.81116
5/17/2012 13:00,15.4,0.5,36,26,48.3,101.46,1,16.2432
5/17/2012 14:00,15.3,0.9,38,20,48.3,101.48,1,51.7841
5/17/2012 15:00,15.8,0.4,35,24,48.3,101.46,1,267.018
5/17/2012 16:00,15.8,0,34,30,48.3,101.46,1,270.761
5/17/2012 17:00,15.7,0.8,36,24,48.3,101.48,1,425.059
5/17/2012 18:00,15.1,0.4,37,20,48.3,101.5,1,395.186
5/17/2012 19:00,14.1,0.4,39,13,48.3,101.54,1,538.033
5/17/2012 20:00,13.8,0.6,40,7,48.3,101.58,1,412.309
5/17/2012 21:00,12.4,1.4,47,6,25,101.64,1,297.256
5/17/2012 22:00,10.1,2.1,58,0,25,101.64,1,43.8025
5/17/2012 23:00,9.9,3.8,66,7,25,101.7,1,0.08892
5/18/2012 0:00,10.4,2.6,58,13,25,101.72,1,2.18307
5/18/2012 1:00,9.9,2.4,60,7,25,101.73,1,5.67583
5/18/2012 2:00,9.2,2.3,62,9,25,101.75,1,69.8127
5/18/2012 3:00,8.6,2,63,11,25,101.77,1,107.859
5/18/2012 4:00,8.6,1.5,61,9,48.3,101.77,1,356.112
5/18/2012 5:00,7.7,1.5,65,9,48.3,101.79,1,442.622
5/18/2012 6:00,10.1,3.3,63,11,48.3,101.84,1,631.931
5/18/2012 7:00,11.2,2.9,57,20,48.3,101.9,1,446.662
5/18/2012 8:00,13,4.6,57,15,48.3,101.91,2,497.411
5/18/2012 9:00,14.4,4.6,52,17,48.3,101.94,1,261.153
5/18/2012 10:00,16.4,4.7,46,22,48.3,101.91,1,1.08203
5/18/2012 11:00,18.1,5.9,45,17,48.3,101.89,1,30.1635
5/18/2012 12:00,18.3,4.2,39,20,48.3,101.82,1,4.94443
5/18/2012 13:00,19.7,-0.7,25,22,48.3,101.75,1,53.1801
5/18/2012 14:00,20.1,2.6,31,22,48.3,101.73,2,41.4551
5/18/2012 15:00,20.8,1.7,28,20,48.3,101.66,1,265.178
5/18/2012 16:00,20.5,0.9,27,19,48.3,101.64,2,338.362
5/18/2012 17:00,20.9,2.5,30,17,48.3,101.59,2,383.859
5/18/2012 18:00,20.4,4,34,13,48.3,101.57,2,428.44
5/18/2012 19:00,17.7,4.2,41,9,48.3,101.58,2,504.491
5/18/2012 20:00,16.6,4.2,44,4,25,101.59,2,273.255
5/18/2012 21:00,14.4,5.3,54,6,25,101.62,1,238.586
5/18/2012 22:00,14.4,5,53,6,25,101.63,1,45.6929
5/18/2012 23:00,14,5.9,58,6,25,101.64,1,0.34566
5/19/2012 0:00,13.8,6.9,63,6,25,101.65,1,8.43542
5/19/2012 1:00,14.2,6.6,60,9,25,101.68,1,11.1358
5/19/2012 2:00,13.1,8.3,73,7,25,101.68,2,66.8256
5/19/2012 3:00,13.3,7.2,67,9,25,101.68,2,325.503
5/19/2012 4:00,13.1,7.2,67,9,48.3,101.69,2,397.104
5/19/2012 5:00,11.8,6.4,69,7,48.3,101.7,2,528.721
5/19/2012 6:00,13.8,7.1,64,6,48.3,101.75,2,575.004
5/19/2012 7:00,14.7,6.8,59,9,48.3,101.72,1,448.978
5/19/2012 8:00,17.3,7.2,51,9,48.3,101.72,1,364.827
5/19/2012 9:00,19.1,6.6,44,7,48.3,101.73,2,124.113
5/19/2012 10:00,21,7.8,43,4,48.3,101.74,1,7.79009
5/19/2012 11:00,22.3,8.5,41,11,48.3,101.72,1,0.24329
5/19/2012 12:00,23.4,7.7,37,19,48.3,101.64,1,0.95331
5/19/2012 13:00,24.1,7,33,15,48.3,101.61,2,37.1688
5/19/2012 14:00,25.4,7.3,32,15,48.3,101.56,2,36.8968
5/19/2012 15:00,25.6,7.8,32,15,48.3,101.52,2,77.3122
5/19/2012 16:00,25.8,6.9,30,15,48.3,101.46,2,208.921
5/19/2012 17:00,26,6.9,30,15,48.3,101.46,2,562.629
5/19/2012 18:00,25.2,6.6,30,11,48.3,101.43,2,429.562
5/19/2012 19:00,24.3,7.6,34,11,48.3,101.47,2,516.673
5/19/2012 20:00,23.5,8,37,6,25,101.53,1,204.392
5/19/2012 21:00,21.6,8.2,42,9,25,101.57,1,194.603
5/19/2012 22:00,21.9,6.4,37,7,25,101.61,1,110.718
5/19/2012 23:00,18.2,8.8,54,4,25,101.62,1,0.81345
5/20/2012 0:00,18.3,7.8,50,0,25,101.64,1,1.46508
5/20/2012 1:00,16.9,8.4,57,6,25,101.64,1,0.0057
5/20/2012 2:00,16.1,8.6,61,6,25,101.67,1,48.0227
5/20/2012 3:00,16.8,8.6,58,9,25,101.7,1,134.69
5/20/2012 4:00,14.8,8.9,68,6,48.3,101.72,1,201.181
5/20/2012 5:00,14.7,9.3,70,6,48.3,101.76,2,424.819
5/20/2012 6:00,17.1,9.2,60,4,48.3,101.81,2,639.217
5/20/2012 7:00,18.7,9.6,55,7,48.3,101.87,2,461.463
5/20/2012 8:00,20.4,9.4,49,7,48.3,101.91,2,326.631
5/20/2012 9:00,22.2,9.6,45,11,48.3,101.93,2,261.506
5/20/2012 10:00,24.8,9.1,37,11,48.3,101.91,2,38.4084
5/20/2012 11:00,26.8,11.4,38,11,48.3,101.9,1,2.73628
5/20/2012 12:00,28.6,10.7,33,13,48.3,101.86,1,2.819
5/20/2012 13:00,29.5,11,32,9,48.3,101.78,1,2.5095
5/20/2012 14:00,30.9,11.5,30,11,48.3,101.72,1,58.8997
5/20/2012 15:00,30.9,10.7,29,4,48.3,101.67,1,255.301
5/20/2012 16:00,31.2,10.7,28,4,48.3,101.61,1,288.571
5/20/2012 17:00,30.8,10.6,29,13,48.3,101.58,2,504.859
5/20/2012 18:00,29.2,11.7,34,15,48.3,101.56,2,603.285
5/20/2012 19:00,26.9,12.3,40,11,24.1,101.56,2,342.201
5/20/2012 20:00,25.9,11.6,41,11,24.1,101.57,1,352.395
5/20/2012 21:00,24,11.8,46,11,25,101.6,1,273.719
5/20/2012 22:00,23.9,11.8,47,17,25,101.59,1,49.1966
5/20/2012 23:00,23.6,11.3,46,15,25,101.59,1,1.43815
5/21/2012 0:00,22.2,11,49,11,25,101.61,1,13.7329
5/21/2012 1:00,19.3,11.2,59,9,25,101.63,1,7.78775
5/21/2012 2:00,18.7,11.7,64,7,25,101.65,1,64.1822
5/21/2012 3:00,18.5,11.7,65,0,25,101.65,1,114.384
5/21/2012 4:00,18.2,11.9,67,9,24.1,101.65,1,317.316
5/21/2012 5:00,18.8,12.2,65,13,24.1,101.63,2,543.459
5/21/2012 6:00,20.4,12.7,61,6,48.3,101.68,2,652.124
5/21/2012 7:00,21.8,12.7,56,11,48.3,101.7,2,397.148
5/21/2012 8:00,24,11.1,44,19,48.3,101.69,2,415.956
5/21/2012 9:00,24.8,11.2,42,24,48.3,101.63,1,119.564
5/21/2012 10:00,25.5,10.7,39,20,48.3,101.6,1,17.1858
5/21/2012 11:00,26.7,10.8,37,22,48.3,101.54,1,0.75467
5/21/2012 12:00,28,9.3,31,24,48.3,101.45,1,15.6634
5/21/2012 13:00,28.4,8.4,28,26,48.3,101.36,1,20.5793
5/21/2012 14:00,28.8,9,29,26,48.3,101.29,1,23.3158
5/21/2012 15:00,28.9,9,29,33,48.3,101.21,1,91.1713
5/21/2012 16:00,28.2,8.7,29,30,48.3,101.14,1,250.974
5/21/2012 17:00,27.7,9.9,33,26,48.3,101.1,1,683.143
5/21/2012 18:00,26.5,11.7,40,28,48.3,101.07,1,466.429
5/21/2012 19:00,25.4,12.8,46,26,25,101.05,2,450.3
5/21/2012 20:00,23.8,13.4,52,22,25,101.05,1,212.264
5/21/2012 21:00,22.5,13.8,58,24,25,101.05,1,177.784
5/21/2012 22:00,22.2,14,60,15,25,101.06,2,0.14087
5/21/2012 23:00,21.8,14,61,15,25,101.05,2,6.70821
5/22/2012 0:00,21.2,14.4,65,13,25,101.03,3,4.17168
5/22/2012 1:00,19.2,16,82,15,12.9,101.02,3,2.55556
5/22/2012 2:00,18.5,16,85,9,25,100.97,3,63.0167
5/22/2012 3:00,18.2,15.8,86,0,16.1,100.95,3,117.456
5/22/2012 4:00,18.6,16.2,86,7,12.9,100.89,3,214.981
5/22/2012 5:00,18.8,16.4,86,4,12.9,100.9,3,477.064
5/22/2012 6:00,18.2,16.1,88,9,2,100.92,3,548.997
5/22/2012 7:00,18.3,16.4,89,11,12.9,100.92,3,451.5
5/22/2012 8:00,18.5,16.5,88,9,9.7,100.9,3,265.446
5/22/2012 9:00,18.6,16.4,87,9,12.9,100.89,3,171.876
5/22/2012 10:00,19.2,16.9,87,9,12.9,100.87,3,115.431
5/22/2012 11:00,18.8,16.5,86,13,16.1,100.85,3,0.82756
5/22/2012 12:00,18.4,16.3,88,15,19.3,100.78,3,12.145
5/22/2012 13:00,20.4,17.3,82,9,24.1,100.7,2,4.21711
5/22/2012 14:00,21.1,17.3,79,11,24.1,100.66,2,83.9227
5/22/2012 15:00,21.5,16.2,72,9,24.1,100.63,2,118.754
5/22/2012 16:00,19.7,13.9,69,20,16.1,100.64,2,287.922
5/22/2012 17:00,17.7,15.3,86,11,12.9,100.67,3,595.058
5/22/2012 18:00,18.2,15.1,82,28,19.3,100.66,2,483.284
5/22/2012 19:00,16.1,13.3,83,24,24.1,100.73,3,510.976
5/22/2012 20:00,15.4,12.3,82,20,24.1,100.77,2,338.255
5/22/2012 21:00,15.2,11.8,80,15,25,100.78,2,173.323
5/22/2012 22:00,14.9,10.8,76,17,25,100.81,2,55.2849
5/22/2012 23:00,14,10.7,80,9,25,100.84,1,4.08725
5/23/2012 0:00,13.1,10.4,84,0,25,100.82,1,21.3908
5/23/2012 1:00,12.2,10.2,88,4,25,100.82,1,27.3864
5/23/2012 2:00,11.8,9.9,88,6,25,100.85,2,12.6682
5/23/2012 3:00,12,9.4,84,7,25,100.84,1,68.7759
5/23/2012 4:00,12.6,9.4,81,4,24.1,100.87,2,129.986
5/23/2012 5:00,13.2,9.7,79,9,24.1,100.95,2,412.538
5/23/2012 6:00,13.5,10.5,82,7,24.1,101.03,2,527.145
5/23/2012 7:00,14.8,10.9,77,11,24.1,101.05,2,339.035
5/23/2012 8:00,15.7,11.2,75,15,24.1,101.1,2,230.859
5/23/2012 9:00,16.1,11.7,75,15,24.1,101.15,2,78.5405
5/23/2012 10:00,17.1,11.8,71,11,24.1,101.21,2,0.52471
5/23/2012 11:00,18.7,12.7,68,13,24.1,101.21,2,1.44234
5/23/2012 12:00,19.5,12.7,65,11,24.1,101.18,2,4.36869
5/23/2012 13:00,20.1,12.2,60,13,24.1,101.15,2,31.3106
5/23/2012 14:00,20.9,12,57,9,24.1,101.16,2,18.0814
5/23/2012 15:00,21.6,13.5,60,0,24.1,101.16,2,137.765
5/23/2012 16:00,21.5,12.2,55,6,24.1,101.13,1,214.459
5/23/2012 17:00,22.3,12.7,55,4,24.1,101.1,1,226.438
5/23/2012 18:00,22.2,11.8,52,4,24.1,101.12,1,401.132
5/23/2012 19:00,21.5,11.6,53,7,24.1,101.11,1,476.307
5/23/2012 20:00,20.4,10.9,54,9,24.1,101.16,1,268.075
5/23/2012 21:00,20.4,10.6,53,9,25,101.19,1,166.99
5/23/2012 22:00,19.6,10.3,55,7,25,101.21,1,6.81405
5/23/2012 23:00,18.9,10.3,57,4,25,101.25,1,2.76849
5/24/2012 0:00,16.4,10.4,68,0,25,101.28,1,25.2933
5/24/2012 1:00,15,10.6,75,4,25,101.29,1,20.4774
5/24/2012 2:00,12.6,9.7,82,6,25,101.31,1,83.1661
5/24/2012 3:00,14.5,11.2,81,6,25,101.3,1,122.485
5/24/2012 4:00,14,10.7,80,9,24.1,101.32,1,359.432
5/24/2012 5:00,15,11,77,7,24.1,101.36,1,465.967
5/24/2012 6:00,16.6,12.1,75,9,24.1,101.43,1,443.91
5/24/2012 7:00,18.8,13.9,73,4,24.1,101.5,1,553.256
5/24/2012 8:00,21.1,14.6,66,0,24.1,101.54,1,388.106
5/24/2012 9:00,22.9,15.6,63,7,48.3,101.51,1,402.994
5/24/2012 10:00,24.6,15.2,56,0,48.3,101.46,1,0.19915
5/24/2012 11:00,26.1,16.7,56,9,24.1,101.44,1,4.4506
5/24/2012 12:00,26.7,16.4,53,6,24.1,101.4,1,0.03981
5/24/2012 13:00,27.1,15.9,50,13,24.1,101.37,1,0.97754
5/24/2012 14:00,27.6,17,52,13,48.3,101.33,1,47.3186
5/24/2012 15:00,28.1,17.7,53,17,48.3,101.27,1,27.0602
5/24/2012 16:00,28.1,17.5,53,17,24.1,101.23,1,250.843
5/24/2012 17:00,27.6,17.3,53,22,24.1,101.21,1,360.87
5/24/2012 18:00,25.5,16.5,58,24,24.1,101.23,2,669.317
5/24/2012 19:00,24.4,16.4,61,15,24.1,101.25,1,347.803
5/24/2012 20:00,23.1,16.1,65,19,24.1,101.3,1,389.229
5/24/2012 21:00,22.4,15.9,67,19,25,101.31,1,134.597
5/24/2012 22:00,21.9,15.5,67,22,25,101.35,1,29.934
5/24/2012 23:00,21.1,15.2,69,19,25,101.39,1,0.58055
5/25/2012 0:00,20.7,15.3,71,13,25,101.43,1,6.16273
5/25/2012 1:00,19.7,15.6,77,15,25,101.4,1,22.7065
5/25/2012 2:00,19.4,15.6,79,15,25,101.41,1,22.3121
5/25/2012 3:00,19.2,15.3,78,17,25,101.42,1,87.3954
5/25/2012 4:00,19.1,15.3,79,19,24.1,101.44,1,192.679
5/25/2012 5:00,19,15.5,80,17,24.1,101.45,2,972.536
5/25/2012 6:00,20.6,15.7,73,17,24.1,101.44,1,294.587
5/25/2012 7:00,21.6,15.9,70,20,24.1,101.42,1,510.77
5/25/2012 8:00,22.8,16.1,66,20,24.1,101.36,1,208.662
5/25/2012 9:00,23.3,16.1,64,20,24.1,101.29,1,169.7
5/25/2012 10:00,24.9,16.5,60,20,24.1,101.21,1,5.16209
5/25/2012 11:00,25.5,16.9,59,22,24.1,101.12,2,0.60981
5/25/2012 12:00,25.9,16.8,57,20,24.1,101.07,2,8.66949
5/25/2012 13:00,27.2,17.5,55,28,24.1,100.97,2,22.2978
5/25/2012 14:00,26,17.2,58,19,24.1,100.94,2,6.04963
5/25/2012 15:00,27.1,17.1,54,26,24.1,100.86,2,95.3012
5/25/2012 16:00,27.3,16.7,52,24,24.1,100.79,2,319.335
5/25/2012 17:00,27.2,16.7,53,19,24.1,100.72,2,399.432
5/25/2012 18:00,26.2,16.1,54,20,24.1,100.65,2,509.042
5/25/2012 19:00,26.4,16.1,53,22,25,100.59,2,401.382
5/25/2012 20:00,21.3,18.3,83,13,16.1,100.83,3,207.679
5/25/2012 21:00,22.1,18.5,80,15,25,100.79,1,170.023
5/25/2012 22:00,21.5,18.1,81,11,25,100.88,1,0.1717
5/25/2012 23:00,21.3,15.4,69,17,25,100.96,1,0.7377
5/26/2012 0:00,19.8,14.8,73,9,25,101,1,0.58449
5/26/2012 1:00,19.3,14,71,13,25,101.09,1,0.9191
5/26/2012 2:00,18.6,12.3,67,11,25,101.16,1,33.631
5/26/2012 3:00,17.1,10.5,65,13,25,101.21,1,117.506
5/26/2012 4:00,16.4,10.1,66,9,25,101.28,1,272.534
5/26/2012 5:00,16.3,9.8,65,9,24.1,101.36,1,459.493
5/26/2012 6:00,17.1,10,63,9,48.3,101.37,1,572.234
5/26/2012 7:00,18.1,10.8,62,9,48.3,101.51,1,299.125
5/26/2012 8:00,19.4,12.2,63,6,48.3,101.56,1,266.525
5/26/2012 9:00,21.1,12.7,59,9,24.1,101.56,1,238.534
5/26/2012 10:00,21.6,12.5,56,7,19.3,101.6,2,13.3191
5/26/2012 11:00,22.6,12.5,53,0,16.1,101.6,1,0.78731
5/26/2012 12:00,23.3,12.8,52,13,16.1,101.56,1,5.94211
5/26/2012 13:00,24.4,9.9,40,30,19.3,101.53,1,19.8919
5/26/2012 14:00,24.2,10.6,42,22,19.3,101.54,1,24.7424
5/26/2012 15:00,23.2,10.2,44,20,24.1,101.54,1,213.125
5/26/2012 16:00,23.8,10.2,42,22,24.1,101.52,2,238.66
5/26/2012 17:00,23.1,9.4,42,19,24.1,101.49,2,502.621
5/26/2012 18:00,22.2,8.6,42,20,24.1,101.51,2,569.584
5/26/2012 19:00,21,7.7,42,13,24.1,101.56,1,326.531
5/26/2012 20:00,18.5,7.4,48,9,24.1,101.64,1,270.624
5/26/2012 21:00,16.6,7.5,55,7,25,101.71,1,316.161
5/26/2012 22:00,17.3,7.3,52,6,25,101.71,1,29.8628
5/26/2012 23:00,15.6,7.7,59,6,25,101.75,1,0.15303
5/27/2012 0:00,15.7,7.1,57,6,25,101.76,1,0.27337
5/27/2012 1:00,14.6,7.4,62,9,25,101.77,1,37.1055
5/27/2012 2:00,13.9,6.9,63,11,25,101.76,1,37.4934
5/27/2012 3:00,14.8,3.1,45,13,25,101.76,2,52.9001
5/27/2012 4:00,14.4,3.5,48,13,25,101.84,2,192.222
5/27/2012 5:00,13.7,3.9,52,13,24.1,101.9,2,448.92
5/27/2012 6:00,14.2,2.4,45,17,24.1,101.92,2,602.78
5/27/2012 7:00,14.6,4,49,9,48.3,101.95,2,556.13
5/27/2012 8:00,15.6,3.1,43,11,48.3,101.94,2,286.953
5/27/2012 9:00,17.1,4.6,44,9,48.3,101.95,2,102.255
5/27/2012 10:00,18.6,4,38,0,48.3,101.89,2,33.2288
5/27/2012 11:00,19.5,3.9,36,4,48.3,101.83,2,14.7019
5/27/2012 12:00,19.7,4.4,36,0,48.3,101.76,2,15.4377
5/27/2012 13:00,20.2,5.4,38,13,48.3,101.68,2,0.87698
5/27/2012 14:00,21.2,5.4,36,0,48.3,101.63,2,22.8879
5/27/2012 15:00,20.3,5.1,37,11,48.3,101.57,2,53.478
5/27/2012 16:00,20.4,5.5,38,13,48.3,101.55,2,183.664
5/27/2012 17:00,20.3,5.3,37,6,48.3,101.49,2,423.554
5/27/2012 18:00,19.2,6.9,45,7,48.3,101.41,3,429.89
5/27/2012 19:00,18.1,9.5,57,0,48.3,101.42,3,456.18
5/27/2012 20:00,18.2,8.5,53,4,25,101.31,2,318.377
5/27/2012 21:00,18.4,8.4,52,0,25,101.34,2,175.73
5/27/2012 22:00,17.5,9.1,58,0,25,101.33,2,23.6765
5/27/2012 23:00,17.6,8.9,57,6,25,101.29,2,29.1764
5/28/2012 0:00,17.5,10.5,63,4,25,101.31,2,24.1993
5/28/2012 1:00,17.4,8.8,57,13,25,101.23,2,3.72153
5/28/2012 2:00,16.6,8.3,58,11,25,101.19,2,95.0896
5/28/2012 3:00,16.6,8.3,58,9,25,101.21,2,145.831
5/28/2012 4:00,16.6,8.3,58,17,25,101.21,2,197.062
5/28/2012 5:00,16.4,7.4,55,19,25,101.17,2,318.576
5/28/2012 6:00,16.4,7.3,55,24,24.1,101.31,2,511.037
5/28/2012 7:00,16.6,6.2,50,22,48.3,101.26,2,377.757
5/28/2012 8:00,16.7,7.1,53,28,48.3,101.24,2,363.87
5/28/2012 9:00,17,7.4,53,20,48.3,101.24,2,132.535
5/28/2012 10:00,18,7.6,51,22,48.3,101.21,2,2.10312
5/28/2012 11:00,17.8,7.8,52,24,48.3,101.2,2,0.45729
5/28/2012 12:00,16.1,8.9,62,20,24.1,101.12,2,8.01219
5/28/2012 13:00,17,7.2,52,26,24.1,101.05,2,7.75839
5/28/2012 14:00,19.1,7.8,48,28,48.3,100.98,2,53.2339
5/28/2012 15:00,17.5,6.6,49,24,48.3,100.94,2,107.727
5/28/2012 16:00,17.3,6.4,49,22,24.1,100.88,2,267.954
5/28/2012 17:00,17.4,6.9,50,26,24.1,100.82,2,800.141
5/28/2012 18:00,16.8,7.1,53,26,48.3,100.81,2,511.001
5/28/2012 19:00,15.9,6.9,55,22,48.3,100.77,2,415.247
5/28/2012 20:00,15.3,7,58,20,48.3,100.71,2,199.112
5/28/2012 21:00,14.6,6.7,59,19,25,100.69,1,128.784
5/28/2012 22:00,14,7.1,63,15,25,100.66,2,23.7808
5/28/2012 23:00,13.2,7.1,66,13,25,100.54,2,1.31776
5/29/2012 0:00,12.7,7.2,69,15,25,100.44,2,3.66924
5/29/2012 1:00,11.9,6.8,71,9,25,100.31,2,0.74622
5/29/2012 2:00,12.2,6.8,70,11,25,100.26,2,90.9436
5/29/2012 3:00,11.8,5.9,67,15,25,100.18,2,157.083
5/29/2012 4:00,11.4,7,74,30,24.1,100.34,3,125.659
5/29/2012 5:00,11,8.9,87,15,12.9,100.14,3,416.228
5/29/2012 6:00,10.9,9,88,9,2.4,100.26,3,543.448
5/29/2012 7:00,12.4,10.3,87,6,19.3,100.23,2,539.158
5/29/2012 8:00,15.4,12.7,84,0,19.3,100.17,1,324.491
5/29/2012 9:00,18.6,15.1,80,4,19.3,100.12,1,66.7082
5/29/2012 10:00,20.4,15.8,75,4,19.3,100.08,2,25.0749
5/29/2012 11:00,22.2,16.9,72,7,19.3,100.08,2,0.59785
5/29/2012 12:00,24.2,17.7,67,7,19.3,100,2,16.7087
5/29/2012 13:00,26.1,18.7,64,6,16.1,99.87,1,16.3557
5/29/2012 14:00,25.6,18.4,64,11,19.3,99.75,3,30.2124
5/29/2012 15:00,26.8,19,62,13,19.3,99.65,2,88.686
5/29/2012 16:00,21,17.5,80,15,9.7,99.75,3,153.278
5/29/2012 17:00,20.7,17.4,81,13,12.9,99.84,3,636.673
5/29/2012 18:00,20.4,17.6,84,28,19.3,99.78,3,550.896
5/29/2012 19:00,20.1,17.8,87,24,16.1,99.76,3,421.068
5/29/2012 20:00,20.2,17.9,87,11,16.1,99.8,2,404.488
5/29/2012 21:00,20.1,17.8,87,17,16.1,99.75,2,296.902
5/29/2012 22:00,20.8,17.7,82,9,19.3,99.75,2,55.8865
5/29/2012 23:00,20.5,17.5,83,6,25,99.74,2,0.05075
5/30/2012 0:00,20.6,17.1,80,17,25,99.77,2,11.8691
5/30/2012 1:00,19.7,14.4,71,24,25,99.77,1,6.31247
5/30/2012 2:00,18.6,10.5,59,22,25,99.88,1,8.55389
5/30/2012 3:00,17.6,9.8,60,19,25,99.91,2,69.8946
5/30/2012 4:00,16.6,10.3,66,13,24.1,99.98,2,147.566
5/30/2012 5:00,15.9,10,68,11,24.1,100.02,2,363.691
5/30/2012 6:00,17.2,10.2,63,15,24.1,100.07,2,517.82
5/30/2012 7:00,17.8,10.4,62,17,48.3,100.12,2,478.907
5/30/2012 8:00,19.1,10.7,58,19,48.3,100.11,1,279.091
5/30/2012 9:00,20.5,10,51,20,48.3,100.08,1,160.661
5/30/2012 10:00,21.5,10.2,49,15,48.3,100.1,1,71.9736
5/30/2012 11:00,22.1,9.6,45,17,24.1,100.08,1,0.2358
5/30/2012 12:00,23.1,8.2,38,35,48.3,100.06,1,1.34663
5/30/2012 13:00,23.5,8.1,37,30,48.3,100.05,1,26.5107
5/30/2012 14:00,23.5,8.5,38,32,48.3,100.04,1,25.2717
5/30/2012 15:00,23.5,8.6,39,22,48.3,100.03,1,104.872
5/30/2012 16:00,23.7,8.3,37,15,48.3,100,1,155.076
5/30/2012 17:00,23.1,8.4,39,24,48.3,100.04,1,317.996
5/30/2012 18:00,22.4,8.4,41,20,48.3,100.06,1,375.331
5/30/2012 19:00,20.5,8,44,0,48.3,100.08,1,424.779
5/30/2012 20:00,18.3,8.1,51,6,48.3,100.13,1,199.335
5/30/2012 21:00,17.3,8.9,58,7,25,100.18,1,87.8432
5/30/2012 22:00,17.4,9.5,60,9,25,100.17,2,2.57908
5/30/2012 23:00,16.8,9.9,64,15,16.1,100.26,3,0.02066
5/31/2012 0:00,16.7,10.5,67,6,25,100.28,2,4.79803
5/31/2012 1:00,16.3,10.8,70,7,25,100.31,2,31.0566
5/31/2012 2:00,15.6,11.2,75,4,25,100.32,2,46.4803
5/31/2012 3:00,15.5,9.5,67,9,25,100.3,2,111.753
5/31/2012 4:00,13.6,8.5,71,11,24.1,100.34,1,492.833
5/31/2012 5:00,13.9,8.2,68,9,48.3,100.44,1,478.214
5/31/2012 6:00,14.4,8.3,67,15,48.3,100.5,1,430.427
5/31/2012 7:00,13.1,8.9,76,15,24.1,100.61,3,287.732
5/31/2012 8:00,14.9,8.6,66,13,24.1,100.64,1,384.063
5/31/2012 9:00,16.2,9.3,64,11,24.1,100.68,2,174.955
5/31/2012 10:00,15.9,8.7,62,9,24.1,100.71,2,96.3741
5/31/2012 11:00,16.9,9.4,61,4,24.1,100.71,2,44.2418
5/31/2012 12:00,16.8,8.6,58,0,48.3,100.72,2,5.48967
5/31/2012 13:00,18.4,7.5,49,20,48.3,100.77,2,0.04505
5/31/2012 14:00,18.8,7.5,48,19,48.3,100.78,2,118.325
5/31/2012 15:00,18.1,5.8,44,19,48.3,100.83,2,148.729
5/31/2012 16:00,18.8,6,43,19,48.3,100.85,1,333.845
5/31/2012 17:00,18.9,6.1,43,15,48.3,100.86,1,382.049
5/31/2012 18:00,18.4,4.6,40,22,48.3,100.91,1,780.355
5/31/2012 19:00,17.1,4.9,44,15,48.3,100.96,1,375.054
5/31/2012 20:00,14.8,3.7,47,13,24.1,101.01,1,334.658
5/31/2012 21:00,12.8,4.2,56,9,25,101.05,1,219.244
5/31/2012 22:00,12.5,4.4,58,7,25,101.13,1,20.3715
5/31/2012 23:00,12.8,4.4,57,7,25,101.18,1,0.7203
6/1/2012 0:00,11.6,3.8,59,6,25,101.21,1,2.66038
6/1/2012 1:00,11.3,3.6,59,7,25,101.24,1,12.4828
6/1/2012 2:00,10.8,3.1,59,9,25,101.27,1,12.8183
6/1/2012 3:00,9.5,2.6,62,9,25,101.29,1,94.5976
6/1/2012 4:00,10.1,2.8,60,11,48.3,101.34,2,251.874
6/1/2012 5:00,10.7,3.3,60,11,48.3,101.38,2,338.62
6/1/2012 6:00,11.6,4.5,62,7,48.3,101.42,2,682.34
6/1/2012 7:00,14.6,5.3,54,9,48.3,101.44,2,279.506
6/1/2012 8:00,15.2,3.5,45,11,48.3,101.48,2,343.686
6/1/2012 9:00,17.1,4.6,44,11,48.3,101.47,2,195.543
6/1/2012 10:00,18.5,1.2,31,20,48.3,101.44,2,51.6203
6/1/2012 11:00,18.4,1,31,17,48.3,101.4,2,0.85572
6/1/2012 12:00,19.3,3.3,35,20,48.3,101.32,2,1.18694
6/1/2012 13:00,19.5,4,36,17,48.3,101.29,2,17.157
6/1/2012 14:00,19.6,4.6,37,15,48.3,101.21,2,31.1362
6/1/2012 15:00,19.8,4.9,38,17,48.3,101.16,2,81.9646
6/1/2012 16:00,20.2,4.3,35,22,48.3,101.04,2,284.795
6/1/2012 17:00,20.2,4.1,35,19,48.3,101.03,2,652.306
6/1/2012 18:00,20.1,4.6,36,19,24.1,100.98,2,473.475
6/1/2012 19:00,20,5.3,38,19,25,100.88,2,435.298
6/1/2012 20:00,19.9,4.9,37,20,25,100.86,2,215.449
6/1/2012 21:00,19.6,5.7,40,26,25,100.8,3,98.277
6/1/2012 22:00,19.6,6.5,42,20,25,100.77,2,41.4419
6/1/2012 23:00,18.2,8.3,52,19,25,100.77,3,2.1749
6/2/2012 0:00,17.5,8.2,54,15,19.3,100.78,3,3.89109
6/2/2012 1:00,15.9,9.5,66,19,16.1,100.67,3,33.824
6/2/2012 2:00,14.6,8.7,68,19,16.1,100.58,3,25.9827
6/2/2012 3:00,14.2,8.8,70,19,16.1,100.5,3,304.988
6/2/2012 4:00,13.6,9.5,76,24,12.9,100.43,3,329.388
6/2/2012 5:00,13.4,9.2,76,24,16.1,100.36,3,490.912
6/2/2012 6:00,13.6,9.5,76,19,16.1,100.44,3,514.169
6/2/2012 7:00,13.4,8.7,73,17,19.3,100.45,3,287.439
6/2/2012 8:00,12.3,9.7,84,11,19.3,100.48,3,184.801
6/2/2012 9:00,13.1,9.6,79,13,24.1,100.52,2,149.403
6/2/2012 10:00,12.5,9.8,84,7,8,100.48,3,35.8673
6/2/2012 11:00,12.5,10.3,86,7,16.1,100.48,3,19.7034
6/2/2012 12:00,12.8,10.5,86,9,24.1,100.43,3,0.6893
6/2/2012 13:00,13.1,10.9,86,11,24.1,100.43,3,7.28948
6/2/2012 14:00,13.6,10.9,84,20,24.1,100.39,2,25.2145
6/2/2012 15:00,13.9,10.9,82,17,24.1,100.38,2,137.157
6/2/2012 16:00,13.5,11,85,22,24.1,100.35,3,363.313
6/2/2012 17:00,13.5,11,85,17,24.1,100.36,3,488.343
6/2/2012 18:00,13.1,11.1,88,19,6.4,100.38,3,425.095
6/2/2012 19:00,13.2,11.2,88,9,4.8,100.4,3,359.019
6/2/2012 20:00,12.9,10.5,85,4,19.3,100.4,3,372.462
6/2/2012 21:00,13,10.7,86,7,25,100.41,2,107.964
6/2/2012 22:00,13.3,10.4,83,15,25,100.34,2,8.64631
6/2/2012 23:00,13.1,10.2,83,6,25,100.33,2,0.58537
6/3/2012 0:00,13.1,10.4,84,9,19.3,100.33,2,11.8392
6/3/2012 1:00,13,10.9,87,6,19.3,100.29,2,15.3143
6/3/2012 2:00,13.1,11,87,6,19.3,100.26,2,20.5132
6/3/2012 3:00,12.9,10.6,86,4,19.3,100.23,2,80.0346
6/3/2012 4:00,13,10.4,84,7,19.3,100.2,2,116.378
6/3/2012 5:00,12,9.9,87,0,19.3,100.24,2,425.375
6/3/2012 6:00,13.6,10.9,84,9,24.1,100.25,2,526.512
6/3/2012 7:00,14.6,10.5,76,15,24.1,100.25,2,536.167
6/3/2012 8:00,14.9,10.3,74,13,24.1,100.24,2,417.903
6/3/2012 9:00,16.1,10.9,71,11,24.1,100.2,2,113.73
6/3/2012 10:00,17.7,11,65,13,48.3,100.19,2,25.5128
6/3/2012 11:00,18.2,10.4,60,11,48.3,100.14,2,40.2626
6/3/2012 12:00,18.4,9.8,57,9,48.3,100.12,2,3.3678
6/3/2012 13:00,18.9,10.8,59,24,48.3,100.07,2,42.1885
6/3/2012 14:00,19.6,10.5,56,24,48.3,100.04,2,60.7095
6/3/2012 15:00,18.5,10.4,59,24,48.3,100.02,2,74.1954
6/3/2012 16:00,18.3,10.3,60,33,48.3,100.01,2,347.529
6/3/2012 17:00,17.8,9.3,57,30,48.3,100.03,2,340.656
6/3/2012 18:00,16.6,9.6,63,30,48.3,100.13,2,516.119
6/3/2012 19:00,15.3,8.8,65,28,25,100.2,2,395.61
6/3/2012 20:00,14.1,7.4,64,32,25,100.27,2,246.292
6/3/2012 21:00,13.8,7.1,64,28,25,100.29,2,185.85
6/3/2012 22:00,13.6,6.9,64,30,25,100.32,2,1.61647
6/3/2012 23:00,13.3,6.9,65,30,25,100.31,2,0.85529
6/4/2012 0:00,12.8,7.3,69,33,25,100.34,2,23.5086
6/4/2012 1:00,11.9,7.7,75,19,25,100.33,3,27.508
6/4/2012 2:00,11.8,7.6,75,22,25,100.32,2,86.7601
6/4/2012 3:00,11.5,7.5,76,24,25,100.32,3,378.903
6/4/2012 4:00,11,7.6,80,22,19.3,100.38,3,326.596
6/4/2012 5:00,11,8,82,20,19.3,100.41,3,405.931
6/4/2012 6:00,11.3,8.2,81,22,24.1,100.46,2,679.557
6/4/2012 7:00,11.7,7.9,77,33,24.1,100.5,3,376.863
6/4/2012 8:00,11.6,8.3,80,24,19.3,100.55,3,264.709
6/4/2012 9:00,11.6,7.7,77,28,24.1,100.6,3,22.197
6/4/2012 10:00,12.4,7.5,72,28,24.1,100.65,2,1.09602
6/4/2012 11:00,13.1,7.4,68,28,24.1,100.67,2,44.4069
6/4/2012 12:00,13,7.3,68,22,24.1,100.7,3,0.37417
6/4/2012 13:00,13,7.4,69,24,24.1,100.75,3,21.1194
6/4/2012 14:00,14.3,7.3,63,20,24.1,100.73,2,39.1975
6/4/2012 15:00,15.8,7.2,57,22,24.1,100.73,2,179.316
6/4/2012 16:00,16,6.6,54,22,24.1,100.71,2,166.775
6/4/2012 17:00,15.9,7.1,56,22,24.1,100.71,2,413.265
6/4/2012 18:00,16.5,7.1,54,15,48.3,100.74,2,420.955
6/4/2012 19:00,16.3,6.9,54,20,48.3,100.77,2,544.534
6/4/2012 20:00,15.6,7.3,58,13,24.1,100.8,1,284.621
6/4/2012 21:00,14.5,7.5,63,15,25,100.84,1,39.4172
6/4/2012 22:00,14.6,6.4,58,17,25,100.83,2,38.9091
6/4/2012 23:00,14.6,5.9,56,11,25,100.83,2,3.49806
6/5/2012 0:00,13.8,4.9,55,13,25,100.83,2,11.3977
6/5/2012 1:00,13.7,7.1,64,15,25,100.82,2,36.6821
6/5/2012 2:00,12.7,6.3,65,13,25,100.82,2,104.064
6/5/2012 3:00,11.4,6.7,73,15,25,100.85,1,191.055
6/5/2012 4:00,10.7,6.5,75,13,24.1,100.87,1,377.107
6/5/2012 5:00,10.7,6.7,76,13,24.1,100.94,1,396.943
6/5/2012 6:00,12.6,7.1,69,15,48.3,100.98,1,434.307
6/5/2012 7:00,14.3,6.5,59,20,48.3,100.99,1,484.295
6/5/2012 8:00,15.9,6.4,53,26,48.3,101.02,1,305.01
6/5/2012 9:00,17.4,6.9,50,19,48.3,101.01,1,280.982
6/5/2012 10:00,18.8,6.7,45,19,48.3,100.99,1,19.5985
6/5/2012 11:00,19.8,5.3,39,26,48.3,101,1,32.1243
6/5/2012 12:00,20.3,4.9,36,20,48.3,100.97,1,15.9246
6/5/2012 13:00,21.3,3.8,32,15,48.3,100.93,1,4.05208
6/5/2012 14:00,21.6,4.4,32,7,48.3,100.88,1,9.63009
6/5/2012 15:00,21.9,4.4,32,11,48.3,100.83,1,172.021
6/5/2012 16:00,22.6,6.2,35,4,48.3,100.75,1,507.684
6/5/2012 17:00,22.2,5.4,34,15,48.3,100.74,2,565.81
6/5/2012 18:00,20.9,6.8,40,11,48.3,100.76,3,715.063
6/5/2012 19:00,17,10.3,65,22,24.1,100.89,3,427.289
6/5/2012 20:00,15.6,11.6,77,9,24.1,100.88,3,381.452
6/5/2012 21:00,16.3,9.9,66,6,25,100.9,2,129.73
6/5/2012 22:00,14.7,11,78,7,25,100.95,2,4.52029
6/5/2012 23:00,16.4,9.3,63,15,25,100.97,2,6.63063
6/6/2012 0:00,14.7,7.9,64,9,25,100.97,2,7.44035
6/6/2012 1:00,13.8,7.2,64,9,25,100.97,2,10.7857
6/6/2012 2:00,12.6,6.6,67,11,25,100.99,2,95.98
6/6/2012 3:00,11,6.8,75,9,25,100.99,2,119.024
6/6/2012 4:00,11.2,6.9,75,6,24.1,101.03,2,325.358
6/6/2012 5:00,12,7.2,72,9,48.3,101.05,2,498.385
6/6/2012 6:00,12.4,7.7,73,15,24.1,101.07,2,409.884
6/6/2012 7:00,14.1,8.3,68,13,24.1,101.1,1,359.347
6/6/2012 8:00,15.3,9.6,69,7,24.1,101.14,1,325.074
6/6/2012 9:00,16.1,9.6,65,9,24.1,101.13,1,97.375
6/6/2012 10:00,17.6,9.7,60,11,24.1,101.12,1,26.3739
6/6/2012 11:00,19.4,9.4,52,7,24.1,101.08,1,5.6936
6/6/2012 12:00,19.8,9.7,52,9,24.1,101.05,1,5.97641
6/6/2012 13:00,19.6,9.6,52,0,24.1,101.01,1,2.43015
6/6/2012 14:00,20.6,9.8,50,4,48.3,100.94,2,17.3861
6/6/2012 15:00,20.3,9.3,49,7,48.3,100.89,2,179.735
6/6/2012 16:00,21.3,8.2,43,13,48.3,100.9,2,210.662
6/6/2012 17:00,20.6,7.4,42,11,24.1,100.91,2,296.929
6/6/2012 18:00,20,7.6,45,15,24.1,100.95,2,571.737
6/6/2012 19:00,18.9,7.8,48,15,24.1,101,2,304.698
6/6/2012 20:00,17.4,9.6,60,9,24.1,101.04,3,460.341
6/6/2012 21:00,16.3,9.7,65,11,25,101.04,2,252.867
6/6/2012 22:00,17.4,9.3,59,9,25,101.04,2,135.81
6/6/2012 23:00,17.1,9.1,59,11,25,101.05,3,6.83946
6/7/2012 0:00,14.9,9,68,9,25,101.06,1,3.04431
6/7/2012 1:00,13.3,9.2,76,7,25,101.06,1,9.38784
6/7/2012 2:00,12.8,9.4,80,11,25,101.04,1,57.131
6/7/2012 3:00,12.3,8.9,80,17,25,101.02,1,210.204
6/7/2012 4:00,12,8.3,78,9,24.1,101.05,1,137.362
6/7/2012 5:00,11.3,8.1,81,11,48.3,101.11,1,521.268
6/7/2012 6:00,12.3,8.4,77,13,48.3,101.12,1,589.099
6/7/2012 7:00,13.9,8.4,69,4,24.1,101.13,1,634.122
6/7/2012 8:00,15.9,9.2,64,11,24.1,101.12,1,357.247
6/7/2012 9:00,17.5,9.5,59,6,48.3,101.09,1,119.269
6/7/2012 10:00,19.4,9.6,53,6,48.3,101.05,1,29.0261
6/7/2012 11:00,20.1,10.5,54,7,48.3,101.02,1,15.8961
6/7/2012 12:00,20.8,10.1,50,13,48.3,100.98,1,0.87756
6/7/2012 13:00,21.6,10.9,51,11,48.3,100.92,1,31.1986
6/7/2012 14:00,22.7,9.4,43,11,48.3,100.86,1,70.323
6/7/2012 15:00,22.3,9.3,43,13,48.3,100.8,1,205.354
6/7/2012 16:00,22.8,9.2,42,15,48.3,100.74,1,418.672
6/7/2012 17:00,22.6,8.9,42,11,48.3,100.69,2,517.33
6/7/2012 18:00,22,7.9,40,9,48.3,100.67,2,546.468
6/7/2012 19:00,22.2,9,43,11,48.3,100.67,2,479.413
6/7/2012 20:00,21.7,9.4,45,11,24.1,100.66,2,281.161
6/7/2012 21:00,18.6,10.4,59,30,25,100.74,2,164.222
6/7/2012 22:00,16.4,11.6,73,17,25,100.74,3,91.5198
6/7/2012 23:00,16.3,12.2,77,17,25,100.78,3,12.0457
6/8/2012 0:00,15.9,13.1,83,13,25,100.68,2,2.88141
6/8/2012 1:00,15.7,12.9,83,7,25,100.65,1,18.6473
6/8/2012 2:00,15.3,12.9,86,11,25,100.6,1,15.3381
6/8/2012 3:00,14.1,11.7,85,7,25,100.56,1,93.4202
6/8/2012 4:00,13.9,11,83,7,24.1,100.58,1,287.091
6/8/2012 5:00,14.4,11.2,81,7,48.3,100.58,1,370.973
6/8/2012 6:00,16.2,11.7,75,17,48.3,100.58,2,480.33
6/8/2012 7:00,16.7,11.3,70,22,48.3,100.56,2,176.275
6/8/2012 8:00,17.3,11.5,69,22,48.3,100.54,2,333.963
6/8/2012 9:00,17.7,12.6,72,17,24.1,100.53,2,270.976
6/8/2012 10:00,18.3,12.7,70,13,24.1,100.53,2,3.81756
6/8/2012 11:00,18.6,12.9,69,17,24.1,100.53,2,4.31961
6/8/2012 12:00,19.5,13.7,69,17,24.1,100.46,2,1.02665
6/8/2012 13:00,20.5,14.4,68,20,24.1,100.33,2,45.7316
6/8/2012 14:00,20.2,12.8,62,17,24.1,100.25,2,104.692
6/8/2012 15:00,19.4,12.8,66,20,12.9,100.33,3,222.121
6/8/2012 16:00,18.4,13.4,73,4,24.1,100.22,2,278.321
6/8/2012 17:00,20,14.3,70,7,24.1,100.22,2,521.461
6/8/2012 18:00,19,14.4,75,0,24.1,100.17,2,522.194
6/8/2012 19:00,19,12,64,15,24.1,100.28,1,358.344
6/8/2012 20:00,16,9.9,67,9,24.1,100.34,1,294.101
6/8/2012 21:00,14.1,8.3,68,9,25,100.41,1,225.056
6/8/2012 22:00,13.5,7.8,68,6,25,100.48,1,57.4948
6/8/2012 23:00,12,7.6,74,9,25,100.5,1,15.7285
6/9/2012 0:00,12.8,8,73,6,25,100.51,1,15.5629
6/9/2012 1:00,12.9,8,72,0,25,100.53,1,28.323
6/9/2012 2:00,12.2,7.8,74,0,25,100.54,1,41.9833
6/9/2012 3:00,11.5,7.3,75,0,25,100.56,1,195.31
6/9/2012 4:00,10,6.9,81,0,25,100.6,1,355.596
6/9/2012 5:00,11.1,8,81,6,48.3,100.68,1,411.503
6/9/2012 6:00,14.2,9.4,73,0,48.3,100.71,1,412.073
6/9/2012 7:00,16,9.7,66,6,48.3,100.76,1,404.229
6/9/2012 8:00,18.4,8.9,54,4,48.3,100.79,1,514.93
6/9/2012 9:00,19.3,7.8,47,0,48.3,100.81,1,263.402
6/9/2012 10:00,21,10.1,50,4,48.3,100.78,1,21.6794
6/9/2012 11:00,21.2,9.5,47,15,48.3,100.76,2,28.904
6/9/2012 12:00,22.2,9.2,43,17,48.3,100.73,2,6.15095
6/9/2012 13:00,23,7.6,37,19,48.3,100.71,2,50.8807
6/9/2012 14:00,23.2,7.2,36,7,48.3,100.68,2,9.63505
6/9/2012 15:00,23.8,5.6,31,20,48.3,100.67,1,38.8075
6/9/2012 16:00,23.9,6.5,33,17,48.3,100.68,2,207.565
6/9/2012 17:00,23.8,7.2,34,17,48.3,100.69,2,273.337
6/9/2012 18:00,23.6,7.1,35,11,48.3,100.73,1,462.745
6/9/2012 19:00,21.8,7.6,40,9,48.3,100.75,2,318.474
6/9/2012 20:00,18.5,8.2,51,6,48.3,100.8,1,272.882
6/9/2012 21:00,19.4,6.8,44,6,25,100.87,1,135.043
6/9/2012 22:00,17,6.6,50,4,25,100.93,1,6.02325
6/9/2012 23:00,16.9,7.8,55,4,25,100.97,1,2.99477
6/10/2012 0:00,15.8,9.2,65,6,25,101.03,1,9.06548
6/10/2012 1:00,15.6,9.3,66,4,25,101.07,1,47.1214
6/10/2012 2:00,13.7,9.9,78,0,25,101.08,1,87.7526
6/10/2012 3:00,14.3,11.6,84,4,25,101.11,1,135.085
6/10/2012 4:00,12.4,10.3,87,4,25,101.15,1,404.466
6/10/2012 5:00,13.9,9.1,73,6,48.3,101.24,1,519.834
6/10/2012 6:00,16.6,9.6,63,0,48.3,101.36,1,484.528
6/10/2012 7:00,18,8.8,55,4,48.3,101.42,1,458.954
6/10/2012 8:00,20.2,9.5,50,6,48.3,101.45,1,356.76
6/10/2012 9:00,21.2,10.3,50,6,48.3,101.45,1,143.515
6/10/2012 10:00,23.5,11.8,48,7,48.3,101.42,1,18.7967
6/10/2012 11:00,24.6,7.4,33,7,48.3,101.45,2,0.01082
6/10/2012 12:00,25.4,7.8,33,7,48.3,101.41,1,13.981
6/10/2012 13:00,25.5,5.8,28,11,48.3,101.38,2,27.5964
6/10/2012 14:00,26.5,5.9,27,6,48.3,101.4,2,89.831
6/10/2012 15:00,26.5,9.2,34,6,48.3,101.42,1,164.774
6/10/2012 16:00,26.8,10.7,37,6,48.3,101.41,1,204.148
6/10/2012 17:00,26.6,10,35,6,48.3,101.37,2,373.326
6/10/2012 18:00,26.5,9.3,34,15,48.3,101.39,2,317.352
6/10/2012 19:00,26,9,34,9,48.3,101.47,2,361.903
6/10/2012 20:00,25.3,7.5,32,9,48.3,101.47,2,166.025
6/10/2012 21:00,22.8,8.4,40,7,25,101.51,1,91.0517
6/10/2012 22:00,22.7,8.9,41,9,25,101.5,1,9.18975
6/10/2012 23:00,23,8.9,41,11,25,101.5,1,0.14889
6/11/2012 0:00,21.7,9,44,6,25,101.49,1,9.51787
6/11/2012 1:00,20.4,9.2,49,0,25,101.45,1,29.6508
6/11/2012 2:00,18.9,10.5,58,7,25,101.47,1,21.9067
6/11/2012 3:00,18.5,10.9,61,9,25,101.45,2,53.7673
6/11/2012 4:00,18.1,10.7,62,11,24.1,101.47,2,212.226
6/11/2012 5:00,17.5,11.8,69,11,24.1,101.54,1,410.046
6/11/2012 6:00,19.5,12.7,65,7,48.3,101.58,1,585.233
6/11/2012 7:00,19.4,13.8,70,11,48.3,101.63,2,494.813
6/11/2012 8:00,20.2,14.5,70,9,48.3,101.64,2,371.108
6/11/2012 9:00,22.4,15.6,65,7,24.1,101.63,2,79.6197
6/11/2012 10:00,24.8,16.3,59,4,24.1,101.58,2,140.99
6/11/2012 11:00,26.6,17.2,56,4,24.1,101.54,2,1.21624
6/11/2012 12:00,27.3,17.5,55,7,24.1,101.47,2,7.05748
6/11/2012 13:00,28.7,18.3,53,15,24.1,101.4,2,22.9102
6/11/2012 14:00,29.4,18.3,51,17,48.3,101.32,1,52.8844
6/11/2012 15:00,30.1,18.4,50,17,48.3,101.27,1,166.541
6/11/2012 16:00,29.6,17.4,48,22,48.3,101.2,1,232.497
6/11/2012 17:00,29.1,18,51,22,48.3,101.16,1,397.807
6/11/2012 18:00,28.2,18.1,54,19,48.3,101.16,1,436.68
6/11/2012 19:00,27.1,17.6,56,19,48.3,101.11,2,386.234
6/11/2012 20:00,25.9,16.7,57,20,24.1,101.09,2,258.422
6/11/2012 21:00,25.3,16.6,59,20,25,101.09,2,263.608
6/11/2012 22:00,24.7,16.6,61,22,25,101.08,2,6.52539
6/11/2012 23:00,23.8,16.5,64,17,25,101.09,2,0.41104
6/12/2012 0:00,22.7,16.3,67,19,25,101.08,2,9.95175
6/12/2012 1:00,21.7,15.5,68,17,25,101.07,2,21.4791
6/12/2012 2:00,20.9,15,69,19,25,101.04,1,69.1094
6/12/2012 3:00,20.2,14.3,69,17,25,101,2,148.762
6/12/2012 4:00,19.5,13.4,68,19,24.1,101,2,205.94
6/12/2012 5:00,19.3,13.1,67,17,24.1,101.01,2,438.014
6/12/2012 6:00,19.5,13.2,67,15,24.1,100.98,2,525.725
6/12/2012 7:00,21.1,14.1,64,22,24.1,100.95,2,381.913
6/12/2012 8:00,21.8,14.4,63,19,24.1,100.92,2,398.26
6/12/2012 9:00,22.8,14.9,61,19,24.1,100.86,2,45.9865
6/12/2012 10:00,23.9,15.5,59,15,24.1,100.8,2,11.493
6/12/2012 11:00,24.7,15.5,57,24,24.1,100.74,2,31.8516
6/12/2012 12:00,24.4,15.8,59,17,16.1,100.71,3,19.5979
6/12/2012 13:00,19.8,16.7,82,19,6.4,100.73,3,33.4868
6/12/2012 14:00,19,17.3,90,19,6.4,100.71,3,104.975
6/12/2012 15:00,19.1,17.3,89,15,6.4,100.67,3,191.096
6/12/2012 16:00,18.4,16.7,90,22,8,100.6,3,228.972
6/12/2012 17:00,18.2,16.3,89,20,12.9,100.57,3,368.339
6/12/2012 18:00,18.2,16.3,89,20,9.7,100.55,3,651.001
6/12/2012 19:00,17.9,16.1,89,20,11.3,100.52,3,468.56
6/12/2012 20:00,18.5,16.2,86,19,19.3,100.47,2,274.832
6/12/2012 21:00,18.4,16.1,86,19,25,100.46,2,174.975
6/12/2012 22:00,18.6,16.1,85,17,25,100.45,2,102.414
6/12/2012 23:00,18.6,16.1,85,13,25,100.44,2,0.02981
6/13/2012 0:00,18.5,16.1,86,11,25,100.46,2,0.3407
6/13/2012 1:00,19.6,16.6,83,15,25,100.44,2,0.10675
6/13/2012 2:00,19.6,16.5,82,19,25,100.4,2,5.22216
6/13/2012 3:00,19.3,16.4,83,22,25,100.46,2,50.6288
6/13/2012 4:00,18.7,15.6,82,22,24.1,100.54,2,322.274
6/13/2012 5:00,17.2,13.9,81,22,24.1,100.62,1,338.123
6/13/2012 6:00,17.7,14.1,79,22,24.1,100.75,1,800.869
6/13/2012 7:00,18.1,14.1,77,20,24.1,100.86,2,453.255
6/13/2012 8:00,17.9,12.6,71,32,24.1,100.96,2,340.816
6/13/2012 9:00,17,11.7,71,24,24.1,101.09,2,272.28
6/13/2012 10:00,17.9,11,64,19,24.1,101.18,2,12.5447
6/13/2012 11:00,19.5,11.6,60,13,24.1,101.28,1,5.91518
6/13/2012 12:00,19.6,10.6,56,13,48.3,101.3,1,20.0385
6/13/2012 13:00,20.4,10.6,53,15,48.3,101.32,1,26.8679
6/13/2012 14:00,20.7,9.8,50,9,48.3,101.36,1,76.7595
6/13/2012 15:00,21.9,10.7,49,17,48.3,101.39,1,202.779
6/13/2012 16:00,21.8,9.3,45,17,48.3,101.42,1,439.359
6/13/2012 17:00,22.2,9.8,45,19,48.3,101.44,1,366.512
6/13/2012 18:00,21.6,9.8,47,20,48.3,101.48,1,356.645
6/13/2012 19:00,20,8.5,47,17,48.3,101.57,1,429.486
6/13/2012 20:00,17.6,8,53,11,48.3,101.62,1,320.606
6/13/2012 21:00,15.1,8.1,63,7,25,101.7,1,181.583
6/13/2012 22:00,14.6,7.9,64,11,25,101.74,1,5.0709
6/13/2012 23:00,15.2,6.2,55,11,25,101.79,1,0.21109
6/14/2012 0:00,14.5,5.4,54,11,25,101.85,1,1.05632
6/14/2012 1:00,13.4,5.2,58,9,25,101.88,1,8.84245
6/14/2012 2:00,13,5.4,60,9,25,101.93,1,31.1425
6/14/2012 3:00,12.3,5.3,62,13,25,101.96,1,113.584
6/14/2012 4:00,12.4,4.9,60,15,48.3,102.04,1,385.625
6/14/2012 5:00,12.4,5.7,64,9,48.3,102.14,1,437.875
6/14/2012 6:00,14.7,6.3,57,9,48.3,102.2,1,355.399
6/14/2012 7:00,16.5,7.5,55,13,48.3,102.28,1,394.333
6/14/2012 8:00,18.5,7.9,50,11,48.3,102.33,1,247.686
6/14/2012 9:00,20,5.5,39,19,48.3,102.32,1,250.576
6/14/2012 10:00,20,3.8,34,17,48.3,102.31,1,21.9283
6/14/2012 11:00,21.2,6.5,38,9,48.3,102.27,1,0.00843
6/14/2012 12:00,21.3,4.7,34,24,48.3,102.26,1,16.0598
6/14/2012 13:00,22.2,5.5,34,19,48.3,102.22,1,1.62475
6/14/2012 14:00,22.4,5.5,33,15,48.3,102.17,1,54.9691
6/14/2012 15:00,22.9,6.7,35,11,48.3,102.12,1,203.641
6/14/2012 16:00,22.5,6.9,36,7,48.3,102.15,1,164.443
6/14/2012 17:00,22.9,6.9,36,15,48.3,102.17,1,622.822
6/14/2012 18:00,22.7,7.5,38,17,48.3,102.16,1,615.753
6/14/2012 19:00,22.5,6.5,36,13,48.3,102.17,1,380.547
6/14/2012 20:00,21.7,5.7,35,15,48.3,102.16,1,258.746
6/14/2012 21:00,21,6,38,11,25,102.16,1,84.9505
6/14/2012 22:00,20.2,6,39,9,25,102.2,1,127.723
6/14/2012 23:00,19.6,5.8,40,6,25,102.21,1,0.62698
6/15/2012 0:00,18.9,5.5,41,6,25,102.18,1,4.05949
6/15/2012 1:00,17.1,6.1,48,6,25,102.17,1,13.9698
6/15/2012 2:00,14.2,7.9,66,13,25,102.19,1,46.4431
6/15/2012 3:00,13.8,9.1,73,13,25,102.17,1,103.609
6/15/2012 4:00,13,9,77,15,24.1,102.19,1,229.51
6/15/2012 5:00,13.3,8.9,75,15,48.3,102.27,1,470.844
6/15/2012 6:00,15.6,8.5,63,17,48.3,102.32,1,747.537
6/15/2012 7:00,16.8,8.8,59,19,48.3,102.38,1,199.356
6/15/2012 8:00,18.6,9.5,55,17,48.3,102.4,1,227.284
6/15/2012 9:00,20.3,7.9,45,17,48.3,102.39,1,270.92
6/15/2012 10:00,21.4,6.3,37,13,48.3,102.37,2,34.4858
6/15/2012 11:00,22.2,7.9,40,15,48.3,102.35,2,25.0712
6/15/2012 12:00,23.5,7,35,11,48.3,102.3,1,3.8527
6/15/2012 13:00,24.4,6.7,32,15,48.3,102.22,2,3.20108
6/15/2012 14:00,24.3,5.6,30,11,48.3,102.17,2,36.3113
6/15/2012 15:00,24.9,5.7,29,17,48.3,102.13,2,226.008
6/15/2012 16:00,25,5.1,28,15,48.3,102.08,2,202.54
6/15/2012 17:00,24.8,5.3,28,11,48.3,102.06,2,539.037
6/15/2012 18:00,24.5,6,30,9,48.3,102.08,2,319.079
6/15/2012 19:00,23.2,8.8,40,15,48.3,102.07,2,244.488
6/15/2012 20:00,22,8.7,43,15,48.3,102.06,2,247.653
6/15/2012 21:00,22.1,7.8,40,11,25,102.06,1,345.506
6/15/2012 22:00,21.3,8.6,44,13,25,102.06,1,6.17463
6/15/2012 23:00,20.1,9.5,50,11,25,102.06,1,6.5125
6/16/2012 0:00,17.5,9.9,61,9,25,102.05,1,13.6412
6/16/2012 1:00,16.1,10.4,69,11,25,102.02,1,6.00206
6/16/2012 2:00,15.3,10.3,72,13,25,102.03,1,73.5596
6/16/2012 3:00,14.7,9.6,71,17,25,102.03,1,146.875
6/16/2012 4:00,13.8,8.8,72,19,25,102.11,1,257.578
6/16/2012 5:00,13.9,8.5,70,13,24.1,102.16,2,263.16
6/16/2012 6:00,15.2,8.8,66,17,24.1,102.18,2,409.154
6/16/2012 7:00,16.2,9.3,64,15,48.3,102.25,2,220.255
6/16/2012 8:00,17.4,9.5,60,9,48.3,102.23,2,282.964
6/16/2012 9:00,18.9,10.7,59,11,48.3,102.2,2,236.316
6/16/2012 10:00,21.6,12,54,4,48.3,102.15,2,5.77824
6/16/2012 11:00,21.9,11.6,52,6,48.3,102.1,2,2.564
6/16/2012 12:00,23.8,13.1,51,6,48.3,102.04,2,0.00249
6/16/2012 13:00,24.6,12.5,47,9,48.3,101.96,2,6.08321
6/16/2012 14:00,24.9,13.5,49,6,48.3,101.91,2,7.92641
6/16/2012 15:00,26,13.6,46,6,48.3,101.84,2,341.871
6/16/2012 16:00,26.5,11,38,7,48.3,101.77,2,199.635
6/16/2012 17:00,26.5,11.3,39,4,48.3,101.73,2,274.958
6/16/2012 18:00,26.2,12.1,41,6,48.3,101.71,1,428.041
6/16/2012 19:00,25,13,47,7,48.3,101.66,1,320.256
6/16/2012 20:00,23.1,11.8,49,4,48.3,101.62,1,361.797
6/16/2012 21:00,20.8,12.3,58,0,25,101.6,1,112.708
6/16/2012 22:00,21.5,11.9,54,9,25,101.6,1,24.2999
6/16/2012 23:00,20.9,12.9,60,0,25,101.58,1,2.98989
6/17/2012 0:00,19.3,12.6,65,0,25,101.55,1,1.04976
6/17/2012 1:00,19.8,13.7,68,7,25,101.52,1,46.5265
6/17/2012 2:00,18.6,13.5,72,11,25,101.48,1,15.9467
6/17/2012 3:00,18.4,13.7,74,13,25,101.45,1,312.651
6/17/2012 4:00,17.4,13.4,77,9,24.1,101.46,1,180.555
6/17/2012 5:00,17.3,13.7,79,6,48.3,101.47,1,481.578
6/17/2012 6:00,18.9,14.1,74,9,48.3,101.51,1,496.747
6/17/2012 7:00,20.2,14.4,69,11,48.3,101.52,1,898.072
6/17/2012 8:00,22.2,15.1,64,9,48.3,101.5,1,396.955
6/17/2012 9:00,23.4,15.3,60,9,48.3,101.47,1,229.974
6/17/2012 10:00,25,16.1,58,9,48.3,101.43,1,39.532
6/17/2012 11:00,25.7,16.3,56,9,48.3,101.39,2,0.10678
6/17/2012 12:00,26,16.3,55,6,48.3,101.33,2,22.6256
6/17/2012 13:00,26.6,16.7,55,11,48.3,101.23,2,12.5362
6/17/2012 14:00,26.1,16.5,55,17,48.3,101.17,2,38.8424
6/17/2012 15:00,27,16.8,54,17,48.3,101.1,2,101.169
6/17/2012 16:00,27.4,16.3,51,20,48.3,101.02,2,206.353
6/17/2012 17:00,26.2,14.7,49,19,48.3,100.97,2,477.063
6/17/2012 18:00,26,15.9,54,17,48.3,100.92,2,588.575
6/17/2012 19:00,25.5,16.4,57,17,48.3,100.91,2,311.883
6/17/2012 20:00,24.5,15.1,56,15,48.3,100.95,2,235.861
6/17/2012 21:00,24.1,14.1,54,19,25,100.99,2,160.93
6/17/2012 22:00,23.4,13.8,55,22,25,101,2,6.53971
6/17/2012 23:00,23.2,13.7,55,13,25,101.03,2,2.27446
6/18/2012 0:00,21.7,13.4,59,15,25,101.04,1,0.65574
6/18/2012 1:00,20.5,13.4,64,13,25,101.07,1,16.0921
6/18/2012 2:00,19.7,13.5,67,19,25,101.08,1,26.2234
6/18/2012 3:00,19.3,13.4,69,17,25,101.06,1,199.444
6/18/2012 4:00,18.4,13.3,72,17,25,101.1,1,209.835
6/18/2012 5:00,17.9,13.2,74,19,24.1,101.12,2,224.577
6/18/2012 6:00,18.2,13.3,73,20,24.1,101.14,2,558.314
6/18/2012 7:00,19.3,13.4,69,17,48.3,101.16,2,317.717
6/18/2012 8:00,20.6,14,66,17,48.3,101.17,2,298.646
6/18/2012 9:00,22,14.4,62,17,48.3,101.15,2,171.9
6/18/2012 10:00,22.6,14.2,59,19,48.3,101.15,2,49.8057
6/18/2012 11:00,24,14.9,57,19,24.1,101.14,2,3.71126
6/18/2012 12:00,25.3,14.8,52,19,24.1,101.13,2,0.02014
6/18/2012 13:00,25.3,14.2,50,20,24.1,101.06,2,4.31731
6/18/2012 14:00,26.1,14,47,22,24.1,101.06,2,98.9955
6/18/2012 15:00,25.8,13.4,46,24,24.1,101.02,2,283.174
6/18/2012 16:00,25.6,13.6,47,24,24.1,100.98,1,274.778
6/18/2012 17:00,25.2,13.5,48,20,24.1,100.95,1,451.158
6/18/2012 18:00,24.1,13.1,50,22,24.1,100.96,2,358.158
6/18/2012 19:00,23.2,13.1,53,20,24.1,100.97,2,293.918
6/18/2012 20:00,22.3,13.2,56,7,24.1,100.99,2,349.922
6/18/2012 21:00,21.8,13.4,59,9,25,101.02,1,207.224
6/18/2012 22:00,21.5,14,62,13,25,101.02,1,8.98786
6/18/2012 23:00,21.5,14.7,65,13,25,101.13,2,17.4939
6/19/2012 0:00,20.8,14.7,68,13,25,101.14,2,4.69858
6/19/2012 1:00,20,14.6,71,9,25,101.17,2,20.0933
6/19/2012 2:00,19.1,14.3,74,9,25,101.11,1,23.1504
6/19/2012 3:00,18.3,14.1,76,9,25,101.12,1,89.8199
6/19/2012 4:00,18.1,13.6,75,9,24.1,101.13,2,258.967
6/19/2012 5:00,18,13.7,76,6,25,101.19,2,626.279
6/19/2012 6:00,18.8,14.1,74,9,24.1,101.19,2,414.579
6/19/2012 7:00,19.6,14.3,71,22,24.1,101.01,2,1012.02
6/19/2012 8:00,20.7,14.8,69,6,24.1,101.12,2,275.258
6/19/2012 9:00,22,15.5,67,15,24.1,101.03,2,52.3823
6/19/2012 10:00,23.2,16,64,13,24.1,100.98,2,19.8951
6/19/2012 11:00,24.3,16.3,61,11,24.1,101,2,0.95423
6/19/2012 12:00,25.3,17,60,9,24.1,100.99,2,17.7638
6/19/2012 13:00,25.8,17.9,62,15,24.1,100.99,2,2.89884
6/19/2012 14:00,26.5,18.9,63,11,24.1,101.01,2,49.1879
6/19/2012 15:00,28.1,19.2,58,20,24.1,100.92,2,204.675
6/19/2012 16:00,27.7,19,59,17,24.1,100.87,2,237.962
6/19/2012 17:00,28,19.4,60,19,24.1,100.91,2,283.547
6/19/2012 18:00,27.9,19.1,59,19,24.1,100.93,2,494.22
6/19/2012 19:00,27,19,62,20,24.1,100.94,2,388.252
6/19/2012 20:00,26.1,19.2,66,19,24.1,100.85,2,245.315
6/19/2012 21:00,25.9,19.3,67,11,25,100.81,2,166.98
6/19/2012 22:00,25.5,19.3,69,9,25,100.86,2,21.3492
6/19/2012 23:00,25.3,19.3,69,13,25,100.89,2,16.9888
6/20/2012 0:00,25,18.8,68,17,25,100.82,2,1.14107
6/20/2012 1:00,25,18.5,67,19,25,100.87,1,11.6018
6/20/2012 2:00,24.1,18.3,70,24,25,100.88,1,9.01275
6/20/2012 3:00,23.7,18.4,72,20,25,100.9,1,115.73
6/20/2012 4:00,23.1,18.2,74,13,24.1,100.97,1,307.156
6/20/2012 5:00,23,18.1,74,19,24.1,101.01,1,357.403
6/20/2012 6:00,24.2,18.2,69,22,48.3,101.04,1,473.361
6/20/2012 7:00,25.4,18.1,64,24,48.3,101.07,2,395.807
6/20/2012 8:00,25.3,18,64,19,48.3,101.1,2,234.519
6/20/2012 9:00,26.3,18.5,62,17,24.1,101.09,2,254.758
6/20/2012 10:00,27.4,19.3,61,9,24.1,101.06,2,0.00089
6/20/2012 11:00,28.5,19.8,59,17,24.1,101.06,1,0.57815
6/20/2012 12:00,29.1,20,58,20,24.1,101,1,0.1202
6/20/2012 13:00,29.7,20,56,19,24.1,100.91,1,32.3783
6/20/2012 14:00,31.7,20.4,51,17,24.1,100.83,1,11.8894
6/20/2012 15:00,32.2,19.6,47,22,24.1,100.75,1,53.5327
6/20/2012 16:00,32.2,20,49,26,24.1,100.74,1,179.551
6/20/2012 17:00,32.3,20.3,49,15,24.1,100.69,1,372.435
6/20/2012 18:00,32.4,19.9,48,17,24.1,100.61,2,403.483
6/20/2012 19:00,30.6,21.1,57,11,24.1,100.63,2,481.268
6/20/2012 20:00,29.7,21.1,60,17,24.1,100.61,2,330.746
6/20/2012 21:00,28,21,66,15,25,100.61,1,57.4383
6/20/2012 22:00,28.1,20.2,62,24,25,100.57,1,0.22844
6/20/2012 23:00,27.3,20.1,65,19,25,100.6,1,0.30376
6/21/2012 0:00,26.5,19.9,67,20,25,100.61,1,8.75886
6/21/2012 1:00,25.9,19.6,68,22,25,100.6,1,24.1695
6/21/2012 2:00,25.1,19.3,70,11,25,100.6,1,21.2529
6/21/2012 3:00,24.6,18.9,71,11,25,100.58,1,198.791
6/21/2012 4:00,24,18.5,71,11,25,100.57,1,167.221
6/21/2012 5:00,24.1,18.2,70,17,24.1,100.6,1,450.405
6/21/2012 6:00,24.5,18.2,68,17,24.1,100.6,1,715.223
6/21/2012 7:00,25.6,18.6,65,17,24.1,100.6,1,512.127
6/21/2012 8:00,26,18.5,63,11,24.1,100.59,1,353.869
6/21/2012 9:00,28.1,19,58,19,24.1,100.52,1,81.5994
6/21/2012 10:00,29.4,19.3,55,17,24.1,100.47,1,4.60815
6/21/2012 11:00,30.8,20,53,13,24.1,100.42,1,5.97798
6/21/2012 12:00,31.8,20.8,52,15,24.1,100.36,1,18.5356
6/21/2012 13:00,31.6,20.6,52,24,24.1,100.32,2,16.2548
6/21/2012 14:00,32.6,20.4,49,20,24.1,100.25,1,70.7981
6/21/2012 15:00,33,19,44,24,24.1,100.2,1,66.1616
6/21/2012 16:00,32.5,17.9,42,24,24.1,100.14,1,267.215
6/21/2012 17:00,32.1,17.9,43,30,24.1,100.09,1,341.042
6/21/2012 18:00,31.1,18.5,47,22,24.1,100.06,1,540.907
6/21/2012 19:00,30.3,17.3,46,30,24.1,100.08,1,493.21
6/21/2012 20:00,28.9,17.6,51,22,24.1,100.1,1,291.549
6/21/2012 21:00,28.1,17.7,53,20,25,100.13,1,199.171
6/21/2012 22:00,27.5,17.8,55,17,25,100.14,1,126.285
6/21/2012 23:00,26.7,17.7,58,17,25,100.09,1,1.69035
6/22/2012 0:00,25.8,18.1,63,9,25,100.07,1,1.29152
6/22/2012 1:00,24.8,18.1,66,9,25,100.11,1,0.14722
6/22/2012 2:00,24.7,16.9,62,15,25,100.1,1,62.7686
6/22/2012 3:00,24,16.7,64,22,25,100.12,1,229.589
6/22/2012 4:00,23,16.7,68,19,24.1,100.14,1,302.197
6/22/2012 5:00,22.6,16.9,70,20,24.1,100.21,1,528.775
6/22/2012 6:00,22.7,17.2,71,19,24.1,100.28,2,415.257
6/22/2012 7:00,23.4,17.3,69,19,24.1,100.33,2,435.166
6/22/2012 8:00,23,17.3,70,17,24.1,100.37,2,282.872
6/22/2012 9:00,24.6,17.6,65,17,24.1,100.4,2,76.6518
6/22/2012 10:00,24.4,16.9,63,19,24.1,100.4,2,4.48053
6/22/2012 11:00,24.7,17.3,63,22,24.1,100.41,2,6.51869
6/22/2012 12:00,26.8,17.8,58,22,24.1,100.41,2,2.4001
6/22/2012 13:00,28,14.8,45,20,24.1,100.39,2,16.7112
6/22/2012 14:00,29.1,14,40,22,48.3,100.37,2,35.0165
6/22/2012 15:00,29,13.8,39,20,48.3,100.32,1,79.8924
6/22/2012 16:00,28.5,12.7,38,22,48.3,100.29,1,206.714
6/22/2012 17:00,27.9,12.4,38,24,48.3,100.29,1,606.088
6/22/2012 18:00,27.2,11.7,38,17,48.3,100.31,1,376.786
6/22/2012 19:00,25.7,11.7,42,11,48.3,100.38,2,401.075
6/22/2012 20:00,23.2,10.9,46,7,24.1,100.42,2,288.777
6/22/2012 21:00,22.8,11.8,50,9,25,100.47,2,190.116
6/22/2012 22:00,21.1,11.7,55,9,25,100.48,1,53.8007
6/22/2012 23:00,20,11.7,59,9,25,100.52,1,0.0104
6/23/2012 0:00,19.6,12.1,62,7,25,100.56,2,0.3257
6/23/2012 1:00,20.8,11.9,57,9,25,100.6,1,40.4723
6/23/2012 2:00,20.1,12,60,13,25,100.62,1,32.017
6/23/2012 3:00,19.5,12.3,63,13,25,100.65,1,169.242
6/23/2012 4:00,19.5,12.3,63,15,24.1,100.7,1,317.756
6/23/2012 5:00,19.3,12.4,64,15,48.3,100.82,2,525.691
6/23/2012 6:00,17.4,12.7,74,15,24.1,100.8,3,707.404
6/23/2012 7:00,18.6,13.7,73,11,48.3,100.84,2,367.376
6/23/2012 8:00,20,12.6,62,15,48.3,100.89,2,181.867
6/23/2012 9:00,21.5,11.8,54,15,48.3,100.9,2,72.9881
6/23/2012 10:00,22.2,11.7,51,7,48.3,100.91,2,32.9518
6/23/2012 11:00,23.8,11.4,46,11,48.3,100.89,2,1.97838
6/23/2012 12:00,25.1,9.8,38,13,48.3,100.85,2,7.07224
6/23/2012 13:00,25.6,9.6,36,19,48.3,100.84,1,22.9071
6/23/2012 14:00,26.1,7.1,30,15,48.3,100.82,1,78.9631
6/23/2012 15:00,26.4,5.7,27,13,48.3,100.86,2,203.005
6/23/2012 16:00,26.5,5.9,27,22,48.3,100.84,2,315.752
6/23/2012 17:00,26.4,4.4,24,15,48.3,100.83,1,224.887
6/23/2012 18:00,25.8,3.6,24,20,48.3,100.82,1,559.799
6/23/2012 19:00,25.8,3.5,24,13,48.3,100.84,1,624.073
6/23/2012 20:00,23.5,5.4,31,6,48.3,100.88,1,623.689
6/23/2012 21:00,20.1,7.3,43,0,25,100.95,1,133.63
6/23/2012 22:00,19.6,7.5,45,0,25,100.99,1,4.91701
6/23/2012 23:00,18.8,8.5,51,0,25,101.01,1,7.61877
6/24/2012 0:00,18.3,8.4,52,0,25,101,1,13.9546
6/24/2012 1:00,17.6,8.7,56,6,25,101.02,1,65.6833
6/24/2012 2:00,14.1,8.7,70,4,25,101.01,1,53.425
6/24/2012 3:00,14.9,9.1,68,0,25,101.02,1,29.6299
6/24/2012 4:00,14.4,9,70,11,48.3,101.04,1,229.508
6/24/2012 5:00,14,9.2,73,6,48.3,101.04,1,357.968
6/24/2012 6:00,17.8,10.5,62,4,48.3,101.04,1,487.922
6/24/2012 7:00,20,12.2,61,7,48.3,101.03,1,388.641
6/24/2012 8:00,22.2,10.6,48,7,48.3,101.03,1,212.273
6/24/2012 9:00,23.2,12.7,52,11,48.3,101,1,185.89
6/24/2012 10:00,24.3,13,49,15,48.3,100.97,1,48.9485
6/24/2012 11:00,26.3,12,41,17,48.3,100.91,1,0.01352
6/24/2012 12:00,27.1,8.4,31,9,48.3,100.82,1,10.7854
6/24/2012 13:00,27.3,9.9,34,17,48.3,100.75,2,28.6799
6/24/2012 14:00,26.8,9.4,33,19,48.3,100.67,2,123.023
6/24/2012 15:00,26.7,8.9,33,22,48.3,100.63,2,115.429
6/24/2012 16:00,26.4,8.7,33,19,24.1,100.61,2,234.761
6/24/2012 17:00,21.5,11.8,54,32,24.1,100.69,2,549.54
6/24/2012 18:00,19.4,12.7,65,26,24.1,100.71,3,327.091
6/24/2012 19:00,19,14,73,20,24.1,100.74,3,223.517
6/24/2012 20:00,18.7,14.5,77,24,24.1,100.69,3,269.975
6/24/2012 21:00,18.6,13.6,73,19,25,100.67,2,51.2185
6/24/2012 22:00,18.3,13.1,72,9,25,100.6,2,9.41034
6/24/2012 23:00,17.8,13.2,74,13,25,100.57,2,13.5853
6/25/2012 0:00,16.7,13.6,82,9,19.3,100.51,3,7.99686
6/25/2012 1:00,15.7,13.6,87,9,19.3,100.41,3,12.5831
6/25/2012 2:00,15.7,13.8,88,7,12.9,100.32,3,8.35921
6/25/2012 3:00,15.9,14.2,90,9,11.3,100.26,3,44.7567
6/25/2012 4:00,16.1,14.1,88,15,19.3,100.21,3,281.536
6/25/2012 5:00,16.4,14.3,87,15,19.3,100.21,2,786.245
6/25/2012 6:00,16.7,14.3,86,15,24.1,100.19,2,454.244
6/25/2012 7:00,17.2,13.8,80,15,24.1,100.18,2,696.272
6/25/2012 8:00,18.7,13.9,74,17,24.1,100.16,1,239.95
6/25/2012 9:00,18.8,13,69,26,24.1,100.13,2,70.0824
6/25/2012 10:00,17.9,12.8,72,24,24.1,100.12,3,3.32205
6/25/2012 11:00,19.8,13.1,65,22,24.1,100.1,2,0.06706
6/25/2012 12:00,19,11.9,63,26,24.1,100.12,2,3.05691
6/25/2012 13:00,19.7,12.4,63,19,24.1,100.12,2,5.51192
6/25/2012 14:00,20.2,12.2,60,26,24.1,100.13,2,0.05684
6/25/2012 15:00,18.8,10.8,60,28,24.1,100.09,2,297.624
6/25/2012 16:00,18.1,10.8,62,26,24.1,100.12,2,209.147
6/25/2012 17:00,16.5,10.8,69,26,24.1,100.14,2,732.781
6/25/2012 18:00,16,10.7,71,28,24.1,100.12,2,353.252
6/25/2012 19:00,15,10.9,76,22,24.1,100.14,2,407.441
6/25/2012 20:00,15.2,11.3,78,11,24.1,100.12,2,193.233
6/25/2012 21:00,16.6,12.3,76,13,25,100.13,2,162.603
6/25/2012 22:00,17.1,11.8,71,24,25,100.13,2,15.8119
6/25/2012 23:00,16.7,11.6,72,22,25,100.14,2,10.6704
6/26/2012 0:00,16.6,11.3,71,26,25,100.12,2,8.7212
6/26/2012 1:00,16.2,10.9,71,24,25,100.13,2,23.461
6/26/2012 2:00,15.7,10.6,72,11,25,100.11,2,42.3547
6/26/2012 3:00,15.8,10.5,71,13,25,100.12,2,118.086
6/26/2012 4:00,15.6,10.2,70,13,24.1,100.12,2,266.631
6/26/2012 5:00,15.4,10.2,71,17,24.1,100.16,2,547.481
6/26/2012 6:00,15.6,10.2,70,17,24.1,100.18,2,767.513
6/26/2012 7:00,16,10.4,69,11,24.1,100.19,2,306.786
6/26/2012 8:00,16.4,10.3,67,17,24.1,100.18,2,273.808
6/26/2012 9:00,16.9,10.5,66,9,24.1,100.16,2,177.51
6/26/2012 10:00,17,10.4,65,13,24.1,100.15,2,25.508
6/26/2012 11:00,17.6,10.8,64,11,24.1,100.12,2,0.04428
6/26/2012 12:00,16.9,11.5,70,15,24.1,100.12,3,14.8878
6/26/2012 13:00,16.2,10.9,71,26,19.3,100.1,2,5.67389
6/26/2012 14:00,16.3,11.6,74,20,19.3,100.07,3,53.2531
6/26/2012 15:00,16.6,11.4,71,20,24.1,100.03,2,120.237
6/26/2012 16:00,15.8,12.4,80,17,24.1,100,2,326.943
6/26/2012 17:00,16.1,12.5,79,13,24.1,99.99,3,605.515
6/26/2012 18:00,15.6,12.6,82,13,19.3,99.99,3,495.969
6/26/2012 19:00,15.4,12.6,83,15,19.3,99.93,3,737.185
6/26/2012 20:00,15.3,12.8,85,15,24.1,99.9,3,383.276
6/26/2012 21:00,15.4,12.9,85,15,12.9,99.9,3,153.624
6/26/2012 22:00,15.4,12.8,84,15,16.1,99.85,3,15.4586
6/26/2012 23:00,15.4,12.8,84,15,19.3,99.8,3,0.00822
6/27/2012 0:00,15.7,12.9,83,17,19.3,99.75,3,2.25106
6/27/2012 1:00,15.7,12.9,83,13,19.3,99.72,3,29.7185
6/27/2012 2:00,15.6,12.7,83,11,19.3,99.69,3,76.6334
6/27/2012 3:00,15.3,12.7,84,9,19.3,99.69,3,162.34
6/27/2012 4:00,15.2,12.4,83,13,19.3,99.72,3,280.501
6/27/2012 5:00,15.2,12.2,82,17,24.1,99.76,3,432.564
6/27/2012 6:00,15.4,12.2,81,15,24.1,99.79,3,468.194
6/27/2012 7:00,16.3,12.2,77,20,24.1,99.81,3,334.72
6/27/2012 8:00,18,12.9,72,28,24.1,99.83,2,185.82
6/27/2012 9:00,18,12,68,20,24.1,99.86,2,218.287
6/27/2012 10:00,18.7,13,69,20,24.1,99.89,3,130.107
6/27/2012 11:00,17.8,13.5,76,24,24.1,99.93,3,4.99061
6/27/2012 12:00,19.8,13.5,67,20,19.3,99.92,3,1.3331
6/27/2012 13:00,19.3,14.4,73,13,19.3,99.96,3,52.7534
6/27/2012 14:00,19.1,14.7,76,19,19.3,99.99,3,65.26
6/27/2012 15:00,19.6,15.1,75,19,24.1,100.02,2,109.438
6/27/2012 16:00,20.3,14.2,68,20,24.1,100.03,3,320.563
6/27/2012 17:00,19.9,14.3,70,20,24.1,100.05,2,766.414
6/27/2012 18:00,21.1,14.1,64,15,24.1,100.06,2,632.049
6/27/2012 19:00,19.4,13.8,70,17,24.1,100.09,3,608.192
6/27/2012 20:00,19.3,13.2,68,11,24.1,100.13,2,201.041
6/27/2012 21:00,19.3,12.7,66,13,25,100.19,2,244.715
6/27/2012 22:00,18.7,13.4,71,11,25,100.19,2,21.013
6/27/2012 23:00,17.5,14.1,80,9,25,100.17,2,19.4961
6/28/2012 0:00,17.2,14,81,6,25,100.17,2,0.29132
6/28/2012 1:00,17.7,13.3,75,11,25,100.15,2,33.7543
6/28/2012 2:00,17.6,13.4,76,7,25,100.16,2,13.1223
6/28/2012 3:00,17.5,13.3,76,6,25,100.18,3,227.216
6/28/2012 4:00,17.7,13.9,78,11,25,100.2,3,354.499
6/28/2012 5:00,17.6,13.7,78,9,48.3,100.25,2,522.397
6/28/2012 6:00,17.7,13.7,77,11,48.3,100.27,2,624.896
6/28/2012 7:00,18.6,14.2,76,11,48.3,100.29,2,358.844
6/28/2012 8:00,19.4,14.2,72,9,48.3,100.28,2,195.451
6/28/2012 9:00,20.4,14.1,67,11,48.3,100.27,2,55.233
6/28/2012 10:00,21.7,14.7,64,11,48.3,100.23,2,8.40755
6/28/2012 11:00,23,14.7,60,13,48.3,100.21,2,16.6593
6/28/2012 12:00,24.6,15.3,56,9,48.3,100.19,2,5.29986
6/28/2012 13:00,24.9,15,54,17,48.3,100.11,1,32.7776
6/28/2012 14:00,25.5,15.3,53,22,48.3,100.08,1,81.4802
6/28/2012 15:00,27,14.8,47,22,48.3,100.03,1,144.341
6/28/2012 16:00,27.1,14,45,22,48.3,100.01,1,438.896
6/28/2012 17:00,27.2,12.6,40,19,48.3,99.92,2,644.838
6/28/2012 18:00,26.4,12.1,41,19,48.3,99.9,2,604.175
6/28/2012 19:00,25.4,12.9,46,13,48.3,99.91,2,423.692
6/28/2012 20:00,24.1,13.5,52,11,24.1,99.89,1,247.244
6/28/2012 21:00,23.6,14.3,56,11,25,99.95,1,140.361
6/28/2012 22:00,22.5,15,63,11,25,99.88,2,52.6143
6/28/2012 23:00,21.9,15.4,67,15,25,99.85,2,0.92268
6/29/2012 0:00,22.2,14,60,15,25,99.83,3,0.81033
6/29/2012 1:00,21.1,14.7,67,4,25,99.75,2,7.77238
6/29/2012 2:00,20.3,15.3,73,7,25,99.71,2,10.455
6/29/2012 3:00,19.5,16.1,81,7,9.7,99.71,3,330.499
6/29/2012 4:00,18.8,16.5,86,9,24.1,99.68,2,197.267
6/29/2012 5:00,18.9,16.4,85,13,24.1,99.71,2,603.185
6/29/2012 6:00,19.7,16.7,83,17,24.1,99.72,2,276.94
6/29/2012 7:00,21.4,16.7,75,20,24.1,99.65,1,437.713
6/29/2012 8:00,22.8,17.4,72,24,24.1,99.61,1,342.129
6/29/2012 9:00,24.8,18,66,24,24.1,99.55,1,333.453
6/29/2012 10:00,25.5,18.3,64,26,48.3,99.52,1,89.3188
6/29/2012 11:00,26.5,19.2,64,26,24.1,99.51,1,2.12559
6/29/2012 12:00,27.3,18.5,59,32,24.1,99.47,2,0.37143
6/29/2012 13:00,28.6,18.2,53,37,48.3,99.46,1,37.7137
6/29/2012 14:00,29.8,17.1,46,33,48.3,99.44,1,25.2565
6/29/2012 15:00,30.7,14.6,38,32,48.3,99.42,1,149.653
6/29/2012 16:00,31.1,13,33,28,48.3,99.39,1,307.686
6/29/2012 17:00,30.2,12.2,33,30,48.3,99.43,1,570.203
6/29/2012 18:00,29.8,12.5,35,24,48.3,99.45,1,479.862
6/29/2012 19:00,28.5,12.3,37,17,48.3,99.45,1,340.538
6/29/2012 20:00,27.6,13.4,42,9,25,99.51,1,319.17
6/29/2012 21:00,26.5,15.3,50,22,25,99.58,1,298.594
6/29/2012 22:00,25.7,14,48,22,25,99.59,2,74.9472
6/29/2012 23:00,24.5,13.5,50,17,25,99.61,1,0.08277
6/30/2012 0:00,23.1,11.9,49,20,25,99.63,1,0.83205
6/30/2012 1:00,22.6,11.4,49,15,25,99.68,1,4.45144
6/30/2012 2:00,22,11.5,51,17,25,99.67,1,26.2286
6/30/2012 3:00,21.2,12.3,57,17,25,99.66,1,186.424
6/30/2012 4:00,20.5,13,62,20,48.3,99.7,1,300.067
6/30/2012 5:00,20.8,12.4,59,26,48.3,99.83,2,583.023
6/30/2012 6:00,21.6,13.2,59,28,48.3,99.85,2,506.578
6/30/2012 7:00,22.1,13.8,59,20,48.3,99.86,2,478.53
6/30/2012 8:00,23.4,14.4,57,26,48.3,99.88,2,230.131
6/30/2012 9:00,24.2,13.9,53,26,48.3,99.83,1,83.0429
6/30/2012 10:00,25.1,14.5,52,30,48.3,99.83,1,4.25047
6/30/2012 11:00,26.3,14.9,50,26,48.3,99.79,1,5.10306
6/30/2012 12:00,27.6,15.5,48,26,48.3,99.74,1,10.3983
6/30/2012 13:00,28,14.8,45,30,48.3,99.68,1,10.9028
6/30/2012 14:00,29.9,13.8,37,33,48.3,99.67,1,7.77532
6/30/2012 15:00,28.8,13.2,38,28,24.1,99.66,2,135.889
6/30/2012 16:00,29,13.1,38,26,48.3,99.65,2,350.062
6/30/2012 17:00,24.8,17.6,64,11,48.3,99.69,2,429.508
6/30/2012 18:00,24.3,16.2,61,22,24.1,99.79,2,316.506
6/30/2012 19:00,23.9,16.6,64,7,48.3,99.86,2,806.554
6/30/2012 20:00,22.9,16.2,66,6,25,99.92,2,527.605
6/30/2012 21:00,23.6,16.3,64,13,25,100.02,2,77.1145
6/30/2012 22:00,23.3,15.3,61,7,25,100.04,2,58.0797
6/30/2012 23:00,22.3,15.6,66,4,25,100.07,2,1.20948
7/1/2012 0:00,22,15.7,67,0,25,100.1,2,2.20118
7/1/2012 1:00,21.1,16.8,76,6,25,100.14,2,25.7535
7/1/2012 2:00,20.4,16.1,76,9,24.1,100.16,2,103.99
7/1/2012 3:00,20.2,13.8,67,7,25,100.22,2,82.0514
7/1/2012 4:00,20,12.3,61,6,24.1,100.27,2,273.926
7/1/2012 5:00,20.2,12.3,60,0,24.1,100.32,2,434.396
7/1/2012 6:00,21,12.9,60,7,24.1,100.41,2,462.428
7/1/2012 7:00,21.3,13.4,61,11,24.1,100.46,2,519.612
7/1/2012 8:00,21.6,13.1,58,6,24.1,100.5,1,306.14
7/1/2012 9:00,22.9,13,54,4,48.3,100.51,1,121.032
7/1/2012 10:00,23.4,13.5,54,13,48.3,100.5,1,3.84201
7/1/2012 11:00,24.6,14.4,53,19,48.3,100.5,1,0.70148
7/1/2012 12:00,24.2,13.4,51,22,48.3,100.54,1,25.5379
7/1/2012 13:00,25.4,14,49,22,48.3,100.55,1,6.73176
7/1/2012 14:00,25.1,13.9,50,17,48.3,100.56,1,35.4543
7/1/2012 15:00,24.7,14,51,15,48.3,100.56,2,280.166
7/1/2012 16:00,24.7,13.8,51,15,48.3,100.55,2,168.951
7/1/2012 17:00,25.3,14.5,51,11,48.3,100.52,1,559.224
7/1/2012 18:00,24.5,13.9,52,17,48.3,100.52,1,563.936
7/1/2012 19:00,23.6,13,51,15,48.3,100.51,1,452.636
7/1/2012 20:00,21.9,12.9,57,11,25,100.55,1,239.818
7/1/2012 21:00,21.3,12.9,59,7,25,100.63,1,102.363
7/1/2012 22:00,19.6,13,66,11,25,100.63,1,12.7244
7/1/2012 23:00,19.1,12.9,67,9,25,100.67,1,1.9763
7/2/2012 0:00,18.1,13,72,13,25,100.69,1,6.28317
7/2/2012 1:00,17.3,12.6,74,7,25,100.71,1,2.50415
7/2/2012 2:00,16.6,12.5,77,7,25,100.72,1,35.1278
7/2/2012 3:00,16.6,12.5,77,6,25,100.72,1,89.4853
7/2/2012 4:00,16.8,12.4,75,0,24.1,100.75,1,291.993
7/2/2012 5:00,16.6,12.7,78,6,24.1,100.76,1,628.946
7/2/2012 6:00,19.5,14,71,6,48.3,100.79,1,637.45
7/2/2012 7:00,21.5,14.6,65,9,48.3,100.81,1,414.03
7/2/2012 8:00,22.2,14.8,63,15,48.3,100.84,2,658.105
7/2/2012 9:00,23.4,15,59,15,48.3,100.83,1,90.2567
7/2/2012 10:00,23.6,15.1,59,13,48.3,100.81,1,3.28945
7/2/2012 11:00,25.2,15.6,55,19,48.3,100.78,1,5.05268
7/2/2012 12:00,25.9,15.6,53,15,48.3,100.73,1,0.2034
7/2/2012 13:00,26.5,13.7,45,17,48.3,100.66,1,51.6389
7/2/2012 14:00,26.7,12.8,42,19,48.3,100.61,2,37.3254
7/2/2012 15:00,28.3,12.3,37,30,48.3,100.55,1,225.583
7/2/2012 16:00,28,11.6,36,22,48.3,100.54,1,217.668
7/2/2012 17:00,26.3,9.7,35,26,48.3,100.62,2,375.707
7/2/2012 18:00,25.9,10,37,20,48.3,100.66,2,264.157
7/2/2012 19:00,24.5,9.7,39,15,48.3,100.69,2,741.587
7/2/2012 20:00,21.7,10,47,9,25,100.75,1,163.07
7/2/2012 21:00,20,10.4,54,6,25,100.81,1,111.23
7/2/2012 22:00,19.1,10.5,57,6,25,100.82,1,21.4818
7/2/2012 23:00,19,10.8,59,7,25,100.81,1,5.71822
7/3/2012 0:00,18.2,10.8,62,7,25,100.83,1,3.75275
7/3/2012 1:00,16.7,10.5,67,4,25,100.84,1,10.9122
7/3/2012 2:00,17.2,11.1,67,4,25,100.83,1,0.77195
7/3/2012 3:00,16.9,10.4,66,0,25,100.83,1,109.904
7/3/2012 4:00,14.3,10.5,78,6,24.1,100.89,1,258.384
7/3/2012 5:00,17.6,10.8,64,6,48.3,100.84,1,642.036
7/3/2012 6:00,18.5,11.1,62,9,48.3,100.98,1,572.381
7/3/2012 7:00,20.3,10.3,53,6,48.3,100.97,1,683.449
7/3/2012 8:00,21.5,10.9,51,0,48.3,100.96,1,317.495
7/3/2012 9:00,21.9,11.1,50,9,48.3,100.94,1,119.125
7/3/2012 10:00,23,11.6,49,4,48.3,100.89,1,143.815
7/3/2012 11:00,24.1,12,47,9,48.3,100.85,2,0.42203
7/3/2012 12:00,25.2,12.3,45,11,48.3,100.79,2,7.44247
7/3/2012 13:00,26.9,13.1,43,13,48.3,100.74,2,9.08182
7/3/2012 14:00,27.3,13,41,9,48.3,100.66,2,18.3886
7/3/2012 15:00,26.9,12.3,40,15,48.3,100.58,2,347.585
7/3/2012 16:00,27.4,11.4,37,15,48.3,100.55,2,249.362
7/3/2012 17:00,27.5,10.4,34,15,48.3,100.49,2,528.94
7/3/2012 18:00,27,10.7,36,11,48.3,100.44,2,670.233
7/3/2012 19:00,25.3,14.4,51,17,48.3,100.41,2,469.48
7/3/2012 20:00,24.8,12.8,47,17,48.3,100.36,2,219.913
7/3/2012 21:00,25,13.9,50,13,25,100.37,3,130.232
7/3/2012 22:00,21.5,14.8,66,17,25,100.35,3,8.96177
7/3/2012 23:00,20.8,14.8,69,0,25,100.32,3,0.20418
7/4/2012 0:00,19.8,15.9,78,6,16.1,100.34,3,14.6215
7/4/2012 1:00,19.4,16.6,84,6,25,100.25,2,8.2562
7/4/2012 2:00,19.3,16.5,84,13,25,100.21,2,95.8359
7/4/2012 3:00,19.3,16.4,83,13,25,100.19,2,109.066
7/4/2012 4:00,19.9,16.9,83,13,19.3,100.21,2,227.869
7/4/2012 5:00,20.3,17.1,82,15,12.9,100.25,2,277.9
7/4/2012 6:00,20.5,17.3,82,15,16.1,100.24,2,796.267
7/4/2012 7:00,21.1,17.7,81,15,16.1,100.24,2,341.633
7/4/2012 8:00,22.3,18.1,77,17,16.1,100.23,2,258.316
7/4/2012 9:00,23.2,18.4,74,17,16.1,100.2,2,179.601
7/4/2012 10:00,24.6,18.9,71,19,19.3,100.16,2,9.40578
7/4/2012 11:00,24.8,18.9,70,24,19.3,100.13,2,25.1592
7/4/2012 12:00,26.1,20.2,70,24,19.3,100.14,2,17.809
7/4/2012 13:00,27,20.1,66,24,19.3,100.07,2,38.0801
7/4/2012 14:00,27.5,19.9,63,24,19.3,100.04,2,28.5818
7/4/2012 15:00,28.4,19.9,60,19,19.3,99.98,2,85.4605
7/4/2012 16:00,26.7,20.1,67,15,24.1,99.84,3,260.88
7/4/2012 17:00,21.6,20,91,11,24.1,100.02,3,675.394
7/4/2012 18:00,23.4,20.7,85,9,24.1,100.06,1,656.572
7/4/2012 19:00,23.3,20.2,83,6,24.1,100.09,1,457.57
7/4/2012 20:00,21.8,19.1,85,9,24.1,100.15,1,272.553
7/4/2012 21:00,21.2,18.3,84,9,25,100.25,1,150.797
7/4/2012 22:00,21.1,16.9,77,17,25,100.31,1,24.6582
7/4/2012 23:00,19.1,15.9,82,11,25,100.37,1,0
7/5/2012 0:00,17.9,14.8,82,9,25,100.38,1,6.30357
7/5/2012 1:00,17.2,14.8,86,6,25,100.45,1,10.4603
7/5/2012 2:00,16.6,14.6,88,11,25,100.43,1,4.49918
7/5/2012 3:00,16.8,14.6,87,11,25,100.46,1,133.607
7/5/2012 4:00,15.8,14.1,90,7,24.1,100.47,1,311.074
7/5/2012 5:00,16.1,14.5,90,9,24.1,100.56,1,586.373
7/5/2012 6:00,18.3,14.5,79,13,24.1,100.62,1,589.271
7/5/2012 7:00,19.4,14.7,74,17,24.1,100.68,1,495.89
7/5/2012 8:00,20.4,15,71,7,24.1,100.73,1,233.426
7/5/2012 9:00,21.1,15.3,69,6,48.3,100.74,2,267.452
7/5/2012 10:00,22,15.6,67,9,48.3,100.72,2,10.2458
7/5/2012 11:00,23.3,16.3,65,7,48.3,100.69,2,0.49404
7/5/2012 12:00,23.3,16.3,65,6,48.3,100.68,2,16.7175
7/5/2012 13:00,24.3,16.8,63,9,48.3,100.66,2,3.23819
7/5/2012 14:00,24.5,16.1,59,11,48.3,100.66,2,60.8157
7/5/2012 15:00,24.3,16.7,63,11,48.3,100.69,2,168.841
7/5/2012 16:00,24.8,17.9,66,17,48.3,100.66,2,242.222
7/5/2012 17:00,25.8,17.5,60,17,48.3,100.65,1,539.79
7/5/2012 18:00,25,17.2,62,19,48.3,100.64,1,611.303
7/5/2012 19:00,24.5,17.4,65,15,48.3,100.65,1,332.066
7/5/2012 20:00,23.4,17.2,68,13,48.3,100.69,1,250.144
7/5/2012 21:00,23.1,17.1,69,9,25,100.76,1,240.915
7/5/2012 22:00,21.9,17.6,77,9,25,100.76,1,6.37303
7/5/2012 23:00,20.8,17.6,82,7,25,100.74,1,6.42947
7/6/2012 0:00,20.5,17.2,81,7,25,100.73,1,5.29223
7/6/2012 1:00,20.7,17.4,81,0,25,100.75,1,23.9319
7/6/2012 2:00,19.9,16.9,83,4,25,100.74,1,46.8843
7/6/2012 3:00,19.1,16.1,83,7,25,100.76,1,73.9789
7/6/2012 4:00,19.3,16.2,82,7,25,100.75,1,249.852
7/6/2012 5:00,19.3,16.3,83,6,48.3,100.78,1,356.157
7/6/2012 6:00,20.7,17.5,82,9,48.3,100.79,2,701.185
7/6/2012 7:00,20.6,16.8,79,13,48.3,100.79,2,364.867
7/6/2012 8:00,22.1,16.7,71,15,48.3,100.76,2,221.913
7/6/2012 9:00,23.8,16.9,65,19,48.3,100.69,2,111.791
7/6/2012 10:00,25.7,18.3,64,15,48.3,100.65,2,139.852
7/6/2012 11:00,26.9,18.1,59,15,48.3,100.61,2,1.11792
7/6/2012 12:00,27.7,17.6,54,22,48.3,100.52,2,2.36234
7/6/2012 13:00,28.5,18.5,55,22,24.1,100.5,2,29.9072
7/6/2012 14:00,29,18.5,53,22,24.1,100.45,2,58.5361
7/6/2012 15:00,29.6,19.7,55,20,24.1,100.47,2,195.949
7/6/2012 16:00,30.5,20.4,55,20,24.1,100.41,2,293.215
7/6/2012 17:00,29.5,20.2,57,15,24.1,100.38,2,281.272
7/6/2012 18:00,29.7,20.8,59,11,24.1,100.33,2,461.884
7/6/2012 19:00,29.1,20.9,61,15,24.1,100.36,2,276.823
7/6/2012 20:00,28.7,21.2,64,13,24.1,100.33,2,347.207
7/6/2012 21:00,28.3,21.7,67,7,25,100.36,2,129.201
7/6/2012 22:00,26.8,21.9,75,9,25,100.39,2,33.165
7/6/2012 23:00,26.3,21,73,11,25,100.46,3,6.29039
7/7/2012 0:00,25.8,20.8,74,6,25,100.44,2,1.61393
7/7/2012 1:00,25.1,17.2,62,11,25,100.4,2,21.3381
7/7/2012 2:00,24,16.3,62,7,25,100.33,2,19.255
7/7/2012 3:00,24.1,16,61,9,25,100.38,2,195.019
7/7/2012 4:00,23.9,16,61,13,25,100.47,2,382.466
7/7/2012 5:00,22.2,17,72,11,25,100.52,3,589.857
7/7/2012 6:00,23.2,17.4,70,9,24.1,100.45,2,566.606
7/7/2012 7:00,23.5,17.1,67,19,24.1,100.42,2,261.476
7/7/2012 8:00,23.3,16.3,65,17,24.1,100.4,2,288.672
7/7/2012 9:00,23.1,16.1,65,15,24.1,100.42,2,86.9181
7/7/2012 10:00,24.1,16,61,19,24.1,100.43,2,119.142
7/7/2012 11:00,24.4,16.2,60,17,24.1,100.44,2,6.31867
7/7/2012 12:00,26.5,16.5,54,22,24.1,100.42,1,10.6943
7/7/2012 13:00,27.8,16.4,50,20,48.3,100.37,1,18.6183
7/7/2012 14:00,28.8,16.5,47,17,48.3,100.32,1,4.25047
7/7/2012 15:00,28.9,16.4,47,22,48.3,100.28,2,157.455
7/7/2012 16:00,29.1,15.7,44,17,48.3,100.28,2,329.327
7/7/2012 17:00,28.7,14.5,42,20,48.3,100.28,1,429.113
7/7/2012 18:00,27.7,15.3,47,15,48.3,100.33,1,610.431
7/7/2012 19:00,26.4,15.1,50,13,48.3,100.4,2,411.573
7/7/2012 20:00,25.5,14.5,51,9,48.3,100.43,2,221.405
7/7/2012 21:00,24.5,14.7,54,11,25,100.48,2,175.592
7/7/2012 22:00,23.2,15.1,60,9,25,100.49,1,4.34117
7/7/2012 23:00,23.8,13.9,54,17,25,100.53,1,2.62996
7/8/2012 0:00,22,13.6,59,17,25,100.56,1,7.59007
7/8/2012 1:00,21,12.9,60,15,25,100.59,1,39.558
7/8/2012 2:00,20,12.7,63,11,25,100.62,1,22.8781
7/8/2012 3:00,17.7,11.7,68,7,25,100.64,1,133.701
7/8/2012 4:00,16.3,12.2,77,7,24.1,100.7,1,326.382
7/8/2012 5:00,16.6,13.1,80,9,24.1,100.76,1,371.785
7/8/2012 6:00,18.6,12.5,68,15,48.3,100.8,1,575.555
7/8/2012 7:00,18.8,12.2,65,20,48.3,100.83,1,316.366
7/8/2012 8:00,19.3,6.5,43,22,48.3,100.84,1,747.339
7/8/2012 9:00,20.6,8.5,46,20,48.3,100.81,1,223.748
7/8/2012 10:00,21.6,7.8,41,22,48.3,100.82,1,32.3631
7/8/2012 11:00,22,7.1,38,19,48.3,100.81,1,7.33182
7/8/2012 12:00,23,7.8,38,24,48.3,100.79,1,4.94338
7/8/2012 13:00,23.9,7.7,35,17,48.3,100.76,1,25.3281
7/8/2012 14:00,24.5,9.6,39,17,48.3,100.72,1,20.2926
7/8/2012 15:00,24.3,8.5,37,15,48.3,100.72,1,99.9117
7/8/2012 16:00,24.5,7.7,34,24,48.3,100.72,1,156.903
7/8/2012 17:00,24.2,7.8,35,26,48.3,100.7,1,552.279
7/8/2012 18:00,23.6,8.3,38,20,48.3,100.69,1,373.398
7/8/2012 19:00,22.2,8.5,41,19,48.3,100.72,1,633.872
7/8/2012 20:00,20.3,8.4,46,11,48.3,100.74,1,250.749
7/8/2012 21:00,19.8,8,46,9,25,100.8,1,47.22
7/8/2012 22:00,17.9,8.1,53,7,25,100.81,1,17.8729
7/8/2012 23:00,17.1,8.4,57,9,25,100.85,1,2.27944
7/9/2012 0:00,16,8.9,63,13,25,100.83,1,5.30771
7/9/2012 1:00,14.4,9,70,9,25,100.84,1,25.2687
7/9/2012 2:00,14.9,9.1,68,9,25,100.86,1,23.6988
7/9/2012 3:00,13.2,9,76,9,25,100.88,1,158.12
7/9/2012 4:00,13.5,8.9,74,9,25,100.91,1,394.917
7/9/2012 5:00,12.8,9.4,80,7,24.1,100.98,1,533.732
7/9/2012 6:00,16.1,9.6,65,13,48.3,101.07,1,570.408
7/9/2012 7:00,17.8,8.7,55,11,48.3,101.1,1,310.979
7/9/2012 8:00,18.2,8.1,52,11,48.3,101.13,1,366.703
7/9/2012 9:00,19.2,7.9,48,9,48.3,101.13,1,228.993
7/9/2012 10:00,19.9,7.5,45,17,48.3,101.12,1,7.66937
7/9/2012 11:00,21.4,7.9,42,20,48.3,101.09,1,21.5583
7/9/2012 12:00,22.2,7.1,38,13,48.3,101.07,1,0.0265
7/9/2012 13:00,23.1,7.9,38,19,48.3,101.04,1,30.1397
7/9/2012 14:00,24.3,6.5,32,22,48.3,101.01,1,5.98596
7/9/2012 15:00,24.4,5.3,29,17,48.3,101,1,103.289
7/9/2012 16:00,24.5,4.7,28,15,48.3,100.99,1,403.94
7/9/2012 17:00,24.2,5.3,29,11,48.3,100.98,1,390.076
7/9/2012 18:00,23.6,6.9,34,13,48.3,101,1,335.537
7/9/2012 19:00,22.3,7.2,38,13,48.3,101.01,1,501.751
7/9/2012 20:00,19.5,7.9,47,7,48.3,101.02,1,296.256
7/9/2012 21:00,19.9,8.1,46,6,25,101.05,1,180.106
7/9/2012 22:00,17.6,9,57,4,25,101.04,1,7.05839
7/9/2012 23:00,16.3,9.6,64,6,25,101.05,1,1.35544
7/10/2012 0:00,18.2,11.2,64,7,25,101.04,1,10.5036
7/10/2012 1:00,18.7,9.4,55,13,25,101.04,1,11.8401
7/10/2012 2:00,17,9.8,63,7,25,101.06,1,14.8106
7/10/2012 3:00,16.6,11,69,9,25,101.06,1,69.324
7/10/2012 4:00,16.4,12.4,77,11,24.1,101.11,1,465.273
7/10/2012 5:00,16.6,11.7,73,9,48.3,101.15,1,717.301
7/10/2012 6:00,17.1,12.3,73,9,48.3,101.19,1,547.367
7/10/2012 7:00,19.3,11.8,62,9,48.3,101.22,1,614.125
7/10/2012 8:00,20.4,13.7,65,15,48.3,101.22,1,220.827
7/10/2012 9:00,22.3,12.9,55,9,48.3,101.24,1,122.557
7/10/2012 10:00,23.6,11.6,47,9,48.3,101.23,1,46.7906
7/10/2012 11:00,25,10.7,41,15,48.3,101.21,1,0.16198
7/10/2012 12:00,25.9,9.4,35,26,48.3,101.15,1,1.57736
7/10/2012 13:00,25.8,8.5,33,22,48.3,101.14,1,15.5098
7/10/2012 14:00,27,10.7,36,19,48.3,101.11,2,15.5301
7/10/2012 15:00,26.5,11.2,38,19,48.3,101.09,1,50.3976
7/10/2012 16:00,26.1,10.6,38,13,48.3,101.09,2,321.014
7/10/2012 17:00,26.5,10.3,36,13,48.3,101.1,1,503.846
7/10/2012 18:00,25.6,9.1,35,19,48.3,101.13,1,609.832
7/10/2012 19:00,23.9,10.1,42,13,48.3,101.18,1,458.453
7/10/2012 20:00,21.5,9.5,46,11,48.3,101.26,1,354.547
7/10/2012 21:00,21.9,7.7,40,11,25,101.34,1,226.98
7/10/2012 22:00,20.2,6.6,41,7,25,101.37,1,7.19556
7/10/2012 23:00,17.7,7.8,52,9,25,101.43,1,2.27083
7/11/2012 0:00,18.5,6.5,45,7,25,101.45,1,0.09005
7/11/2012 1:00,15.5,8.2,62,0,25,101.5,1,28.8248
7/11/2012 2:00,14.9,8,63,4,25,101.52,1,123.366
7/11/2012 3:00,15.1,6,54,4,25,101.55,1,188.578
7/11/2012 4:00,13.5,8.6,72,4,24.1,101.6,1,356.941
7/11/2012 5:00,13.1,8.7,75,4,48.3,101.66,1,459.402
7/11/2012 6:00,15.4,9.9,70,6,48.3,101.71,1,345.623
7/11/2012 7:00,18.2,9.6,57,4,48.3,101.73,1,651.6
7/11/2012 8:00,20.4,8.9,48,4,48.3,101.75,1,291.108
7/11/2012 9:00,22.5,9.5,44,9,48.3,101.73,1,134.946
7/11/2012 10:00,23.9,9.2,39,7,48.3,101.74,1,4.54599
7/11/2012 11:00,24.9,10.1,39,9,48.3,101.72,1,7.21845
7/11/2012 12:00,26.4,8.7,33,13,48.3,101.69,1,9.50147
7/11/2012 13:00,26.7,9.3,33,15,48.3,101.66,1,18.1531
7/11/2012 14:00,27.4,9.4,32,13,48.3,101.61,2,11.294
7/11/2012 15:00,27.8,8.9,31,19,48.3,101.59,2,243.23
7/11/2012 16:00,27.6,8.9,31,20,48.3,101.54,2,327.274
7/11/2012 17:00,27.5,10.1,34,19,48.3,101.5,2,783.675
7/11/2012 18:00,27.3,8,30,19,48.3,101.48,2,460.039
7/11/2012 19:00,26.5,8.8,33,13,24.1,101.5,2,578.413
7/11/2012 20:00,25.6,10.5,39,9,25,101.49,1,222.544
7/11/2012 21:00,22.5,11.8,51,13,25,101.53,1,264.913
7/11/2012 22:00,21.8,11.2,51,9,25,101.5,1,69.0747
7/11/2012 23:00,22.8,11.8,50,17,25,101.5,1,3.15451
7/12/2012 0:00,21.8,12.8,57,11,25,101.5,1,5.14758
7/12/2012 1:00,18.5,13.3,72,6,25,101.5,1,24.3795
7/12/2012 2:00,20.6,12.9,61,6,25,101.49,1,39.3477
7/12/2012 3:00,20.6,12.5,60,11,25,101.5,1,170.641
7/12/2012 4:00,20.3,12.6,61,7,24.1,101.52,1,194.522
7/12/2012 5:00,17.7,12.8,73,9,48.3,101.56,1,269.781
7/12/2012 6:00,20.2,12.2,60,17,48.3,101.57,1,661.474
7/12/2012 7:00,21.6,12.6,57,15,48.3,101.58,1,443.541
7/12/2012 8:00,22.6,13.2,55,13,48.3,101.59,1,452.43
7/12/2012 9:00,24.2,16.1,61,15,48.3,101.56,1,81.3453
7/12/2012 10:00,26,14.8,50,20,48.3,101.57,1,16.4857
7/12/2012 11:00,27.6,13.5,42,22,48.3,101.54,1,0.1343
7/12/2012 12:00,29,13.9,40,22,48.3,101.5,1,29.3725
7/12/2012 13:00,29.6,13.6,38,24,48.3,101.46,1,25.4597
7/12/2012 14:00,30.8,13.5,35,24,48.3,101.44,2,57.1202
7/12/2012 15:00,30.6,12.9,34,24,48.3,101.38,2,333.39
7/12/2012 16:00,30.4,13,34,24,48.3,101.37,2,208.787
7/12/2012 17:00,29.8,13.1,36,19,48.3,101.33,2,442.53
7/12/2012 18:00,29.1,13.6,39,13,48.3,101.32,2,522.932
7/12/2012 19:00,28.2,14,42,11,24.1,101.34,2,509.659
7/12/2012 20:00,26.9,14.6,47,7,25,101.36,2,323.417
7/12/2012 21:00,25.7,15,52,6,25,101.41,1,64.8117
7/12/2012 22:00,24.4,17.1,64,9,25,101.4,1,6.26408
7/12/2012 23:00,23.5,16.1,63,11,25,101.41,1,0.82889
7/13/2012 0:00,21.8,16.7,73,6,25,101.45,1,27.2062
7/13/2012 1:00,22.6,15.5,64,7,25,101.44,1,15.227
7/13/2012 2:00,22.4,14.6,61,9,25,101.37,1,42.1676
7/13/2012 3:00,21.1,14.7,67,11,25,101.45,1,145.949
7/13/2012 4:00,20.8,14.6,68,13,24.1,101.49,1,198.366
7/13/2012 5:00,20.7,14.7,68,15,24.1,101.56,1,460.273
7/13/2012 6:00,21.7,15.7,69,15,24.1,101.57,1,408.849
7/13/2012 7:00,22.5,15.1,63,15,48.3,101.59,2,429.219
7/13/2012 8:00,24.4,15.1,56,13,24.1,101.61,2,230.536
7/13/2012 9:00,25.9,16.5,56,15,48.3,101.6,2,88.1687
7/13/2012 10:00,27.2,17.2,54,15,48.3,101.59,2,2.02702
7/13/2012 11:00,29,16.1,46,17,48.3,101.57,1,0.35446
7/13/2012 12:00,30.1,15.2,40,19,48.3,101.54,1,25.9673
7/13/2012 13:00,31.2,14.6,37,20,48.3,101.51,1,17.3206
7/13/2012 14:00,32.1,10.2,26,20,48.3,101.49,1,21.6969
7/13/2012 15:00,31.9,12.3,30,22,48.3,101.46,1,171.733
7/13/2012 16:00,31.6,11.8,30,22,48.3,101.4,1,309.845
7/13/2012 17:00,31.4,13.8,34,20,48.3,101.36,1,383.063
7/13/2012 18:00,30.9,14.5,37,13,48.3,101.33,1,451.998
7/13/2012 19:00,29.9,15.4,41,11,24.1,101.33,1,358.178
7/13/2012 20:00,28.5,15.8,46,11,25,101.35,1,297.065
7/13/2012 21:00,27.4,16.4,51,11,25,101.38,1,284.818
7/13/2012 22:00,26.6,16.4,54,9,25,101.37,1,8.55173
7/13/2012 23:00,26,16.2,55,7,25,101.38,1,0.81369
7/14/2012 0:00,25.2,16.6,59,11,25,101.38,1,0.81116
7/14/2012 1:00,25,15.4,55,15,25,101.37,1,16.2432
7/14/2012 2:00,24.2,15.6,59,11,25,101.34,1,51.7841
7/14/2012 3:00,23.3,15.3,61,13,25,101.35,1,267.018
7/14/2012 4:00,23.1,15.4,62,15,24.1,101.4,1,270.761
7/14/2012 5:00,23,16.7,68,13,24.1,101.45,1,425.059
7/14/2012 6:00,23.4,16.8,66,15,24.1,101.47,1,395.186
7/14/2012 7:00,24.3,17,64,13,24.1,101.49,1,538.033
7/14/2012 8:00,25.7,16.7,58,17,24.1,101.49,1,412.309
7/14/2012 9:00,27.3,17,53,15,48.3,101.45,1,297.256
7/14/2012 10:00,30.2,17.7,47,17,48.3,101.46,1,43.8025
7/14/2012 11:00,29.6,19.8,56,17,48.3,101.44,1,0.08892
7/14/2012 12:00,31.7,19.7,49,22,48.3,101.41,1,2.18307
7/14/2012 13:00,31.9,19.3,47,19,48.3,101.37,1,5.67583
7/14/2012 14:00,32.7,15.3,35,28,48.3,101.35,1,69.8127
7/14/2012 15:00,33,16.8,38,22,48.3,101.31,1,107.859
7/14/2012 16:00,32.9,15.3,35,24,48.3,101.26,1,356.112
7/14/2012 17:00,32.5,16.5,38,19,48.3,101.22,1,442.622
7/14/2012 18:00,31.5,18.4,46,15,24.1,101.19,1,631.931
7/14/2012 19:00,30.8,18.2,47,11,24.1,101.21,1,446.662
7/14/2012 20:00,29.8,17.7,48,9,25,101.22,1,497.411
7/14/2012 21:00,28.3,18.8,56,9,25,101.28,1,261.153
7/14/2012 22:00,27.8,18.3,56,11,25,101.29,1,1.08203
7/14/2012 23:00,26,19.2,66,9,25,101.31,1,30.1635
7/15/2012 0:00,25.5,18.9,67,7,25,101.32,1,4.94443
7/15/2012 1:00,25.2,18.7,67,9,25,101.29,1,53.1801
7/15/2012 2:00,24.5,18.9,71,9,25,101.28,1,41.4551
7/15/2012 3:00,24.1,18.6,71,11,25,101.26,1,265.178
7/15/2012 4:00,21.6,17.8,79,7,24.1,101.24,1,338.362
7/15/2012 5:00,23.2,18.4,74,9,24.1,101.26,2,383.859
7/15/2012 6:00,23.9,18.4,71,9,24.1,101.23,2,428.44
7/15/2012 7:00,24.5,18.3,68,9,24.1,101.24,2,504.491
7/15/2012 8:00,25.8,17.9,62,15,24.1,101.24,2,273.255
7/15/2012 9:00,26.5,18.8,63,13,24.1,101.21,2,238.586
7/15/2012 10:00,28.1,19.2,58,13,24.1,101.17,2,45.6929
7/15/2012 11:00,29.3,20.2,58,15,48.3,101.14,2,0.34566
7/15/2012 12:00,29.4,19.7,56,9,48.3,101.06,2,8.43542
7/15/2012 13:00,30.5,19.2,51,15,24.1,100.98,2,11.1358
7/15/2012 14:00,30.2,20.3,55,17,24.1,100.92,2,66.8256
7/15/2012 15:00,22.7,20.9,90,24,12.9,100.92,3,325.503
7/15/2012 16:00,24,20.5,81,0,24.1,100.78,2,397.104
7/15/2012 17:00,23.5,20.6,84,11,24.1,100.78,2,528.721
7/15/2012 18:00,24.4,20.5,79,0,25,100.79,2,575.004
7/15/2012 19:00,23.8,21.1,85,20,25,100.73,2,448.978
7/15/2012 20:00,23.2,19.5,80,6,25,100.73,2,364.827
7/15/2012 21:00,23,19,78,9,25,100.72,1,124.113
7/15/2012 22:00,22.2,18.9,82,7,25,100.67,1,7.79009
7/15/2012 23:00,21.8,19.1,85,6,25,100.67,1,0.24329
7/16/2012 0:00,21.2,19,87,6,25,100.64,2,0.95331
7/16/2012 1:00,21.6,19.4,87,0,25,100.62,3,37.1688
7/16/2012 2:00,20.4,18.6,89,6,19.3,100.52,3,36.8968
7/16/2012 3:00,20.8,19.2,91,7,25,100.52,2,77.3122
7/16/2012 4:00,20.4,19.2,93,0,19.3,100.52,2,208.921
7/16/2012 5:00,20.3,19.6,96,4,9.7,100.55,2,562.629
7/16/2012 6:00,21.8,19.8,88,6,19.3,100.55,1,429.562
7/16/2012 7:00,23,19.8,82,6,24.1,100.57,2,516.673
7/16/2012 8:00,24.5,20.8,80,7,24.1,100.57,2,204.392
7/16/2012 9:00,25.7,20.8,74,9,24.1,100.56,2,194.603
7/16/2012 10:00,26.8,20.9,70,9,24.1,100.55,2,110.718
7/16/2012 11:00,27.4,20.4,66,13,24.1,100.54,2,0.81345
7/16/2012 12:00,27.4,20.3,65,11,24.1,100.52,2,1.46508
7/16/2012 13:00,28.1,19.9,61,15,24.1,100.45,2,0.0057
7/16/2012 14:00,28.1,20.7,64,13,24.1,100.43,2,48.0227
7/16/2012 15:00,28.6,20,60,11,24.1,100.39,2,134.69
7/16/2012 16:00,28.8,17.5,50,15,24.1,100.35,2,201.181
7/16/2012 17:00,28.7,16.1,46,19,24.1,100.35,2,424.819
7/16/2012 18:00,27.6,16.6,51,15,24.1,100.35,2,639.217
7/16/2012 19:00,26.5,17.2,57,4,24.1,100.32,2,461.463
7/16/2012 20:00,24.3,17.9,67,7,24.1,100.3,2,326.631
7/16/2012 21:00,24.5,18.5,69,4,25,100.37,2,261.506
7/16/2012 22:00,24.2,17.7,67,9,25,100.38,2,38.4084
7/16/2012 23:00,23.5,18,71,6,25,100.36,2,2.73628
7/17/2012 0:00,23.8,17.6,68,0,25,100.33,2,2.819
7/17/2012 1:00,24.4,17,63,6,25,100.28,2,2.5095
7/17/2012 2:00,23.9,19.3,75,6,25,100.21,2,58.8997
7/17/2012 3:00,23.3,19.9,81,4,25,100.14,2,255.301
7/17/2012 4:00,22.8,20.4,86,7,12.9,100.1,3,288.571
7/17/2012 5:00,20.6,18.6,88,19,4.8,100.08,3,504.859
7/17/2012 6:00,19.6,18.5,93,15,3.2,100.01,3,603.285
7/17/2012 7:00,19.9,19.1,95,9,6.4,99.99,3,342.201
7/17/2012 8:00,21.5,20.4,93,19,12.9,99.87,3,352.395
7/17/2012 9:00,22.9,21.3,91,17,9.7,99.84,3,273.719
7/17/2012 10:00,24.7,20.8,79,19,16.1,99.79,2,49.1966
7/17/2012 11:00,27.2,20.4,66,22,16.1,99.75,1,1.43815
7/17/2012 12:00,28.3,21,65,17,16.1,99.72,2,13.7329
7/17/2012 13:00,29.4,22.3,66,9,19.3,99.66,2,7.78775
7/17/2012 14:00,25.5,23.1,87,17,6.4,99.65,3,64.1822
7/17/2012 15:00,25.8,22,80,4,24.1,99.69,2,114.384
7/17/2012 16:00,23.8,21.7,88,24,16.1,99.81,3,317.316
7/17/2012 17:00,25.9,22.2,80,7,24.1,99.83,2,543.459
7/17/2012 18:00,26,20.4,71,19,24.1,99.84,2,652.124
7/17/2012 19:00,24.3,18.9,72,19,24.1,99.94,2,397.148
7/17/2012 20:00,23.2,18.6,75,11,24.1,100,2,415.956
7/17/2012 21:00,23,18.5,76,9,25,100.09,2,119.564
7/17/2012 22:00,22.4,18.3,78,9,25,100.19,2,17.1858
7/17/2012 23:00,21.6,18.1,80,13,25,100.25,2,0.75467
7/18/2012 0:00,20.7,17.6,82,9,25,100.28,2,15.6634
7/18/2012 1:00,21.3,17.6,79,11,25,100.37,2,20.5793
7/18/2012 2:00,19.9,17.6,87,7,25,100.35,2,23.3158
7/18/2012 3:00,19.3,17.2,88,9,25,100.33,1,91.1713
7/18/2012 4:00,19,16.6,86,6,24.1,100.38,1,250.974
7/18/2012 5:00,18.8,16.7,88,0,48.3,100.44,1,683.143
7/18/2012 6:00,20,17.2,84,6,24.1,100.56,2,466.429
7/18/2012 7:00,20.5,16.6,78,11,24.1,100.6,2,450.3
7/18/2012 8:00,21.1,14.4,66,22,24.1,100.66,1,212.264
7/18/2012 9:00,22.6,13.1,55,24,24.1,100.73,1,177.784
7/18/2012 10:00,22.3,10.3,47,26,24.1,100.77,1,0.14087
7/18/2012 11:00,22.6,10.9,48,24,48.3,100.8,1,6.70821
7/18/2012 12:00,23.2,10.2,44,24,48.3,100.8,1,4.17168
7/18/2012 13:00,23.9,10.6,43,24,48.3,100.83,2,2.55556
7/18/2012 14:00,23.3,10.2,43,19,48.3,100.87,2,63.0167
7/18/2012 15:00,24,10.1,41,26,48.3,100.83,1,117.456
7/18/2012 16:00,24.1,9.6,40,24,48.3,100.77,1,214.981
7/18/2012 17:00,23.5,9.8,42,15,48.3,100.78,1,477.064
7/18/2012 18:00,22.6,10.9,48,17,48.3,100.88,1,548.997
7/18/2012 19:00,21.5,10.7,50,17,48.3,100.98,1,451.5
7/18/2012 20:00,20,10.2,53,13,24.1,101.03,1,265.446
7/18/2012 21:00,19.4,9.9,54,11,25,101.06,1,171.876
7/18/2012 22:00,17.5,10.3,63,11,25,101.06,1,115.431
7/18/2012 23:00,15.7,10.7,72,7,25,101.09,1,0.82756
7/19/2012 0:00,14.4,10.9,79,4,25,101.14,1,12.145
7/19/2012 1:00,14.2,11.1,82,7,25,101.11,1,4.21711
7/19/2012 2:00,14.6,10.6,77,6,25,101.11,1,83.9227
7/19/2012 3:00,13.8,10.5,80,7,25,101.09,1,118.754
7/19/2012 4:00,12.4,10.4,88,6,25,101.11,1,287.922
7/19/2012 5:00,12.7,10.5,86,0,48.3,101.2,1,595.058
7/19/2012 6:00,15.2,11,76,6,48.3,101.25,1,483.284
7/19/2012 7:00,16.7,9.7,63,11,48.3,101.27,1,510.976
7/19/2012 8:00,18.4,9.4,56,6,48.3,101.28,1,338.255
7/19/2012 9:00,19.3,9.7,54,6,48.3,101.29,1,173.323
7/19/2012 10:00,19.2,8.9,51,9,48.3,101.3,2,55.2849
7/19/2012 11:00,20.3,10.2,52,7,48.3,101.33,2,4.08725
7/19/2012 12:00,21.5,10,48,6,48.3,101.29,2,21.3908
7/19/2012 13:00,21.3,8.8,45,7,48.3,101.27,2,27.3864
7/19/2012 14:00,22.6,9,42,4,48.3,101.22,2,12.6682
7/19/2012 15:00,22.9,9,41,13,48.3,101.21,2,68.7759
7/19/2012 16:00,22.8,7.9,38,11,48.3,101.21,1,129.986
7/19/2012 17:00,22.9,8.2,39,15,48.3,101.21,1,412.538
7/19/2012 18:00,21.9,8,41,15,48.3,101.2,1,527.145
7/19/2012 19:00,21.4,8.5,44,11,48.3,101.25,1,339.035
7/19/2012 20:00,20,8.5,47,7,48.3,101.28,1,230.859
7/19/2012 21:00,19.2,9.2,52,13,25,101.34,1,78.5405
7/19/2012 22:00,18.7,9.9,57,11,25,101.39,1,0.52471
7/19/2012 23:00,19.5,8.1,48,15,25,101.41,1,1.44234
7/20/2012 0:00,17.2,9.3,60,11,25,101.45,1,4.36869
7/20/2012 1:00,16,9.5,65,15,25,101.48,1,31.3106
7/20/2012 2:00,14.6,9.8,73,11,25,101.46,1,18.0814
7/20/2012 3:00,14.2,9.8,75,11,25,101.44,1,137.765
7/20/2012 4:00,14.4,9.3,71,11,48.3,101.49,1,214.459
7/20/2012 5:00,14.5,9.3,71,13,48.3,101.51,1,226.438
7/20/2012 6:00,15.5,9.6,68,13,48.3,101.55,1,401.132
7/20/2012 7:00,17.1,9.9,63,9,48.3,101.56,1,476.307
7/20/2012 8:00,19.3,10.1,55,9,48.3,101.57,1,268.075
7/20/2012 9:00,20.3,9.7,51,11,48.3,101.58,1,166.99
7/20/2012 10:00,21.3,10.8,51,13,48.3,101.57,1,6.81405
7/20/2012 11:00,21.3,10.7,51,9,48.3,101.57,1,2.76849
7/20/2012 12:00,22.6,9.5,43,6,48.3,101.51,1,25.2933
7/20/2012 13:00,23.2,10.4,44,9,48.3,101.45,1,20.4774
7/20/2012 14:00,23.9,10,41,13,48.3,101.42,1,83.1661
7/20/2012 15:00,24.2,9.9,40,4,48.3,101.37,1,122.485
7/20/2012 16:00,24.4,9.7,39,11,48.3,101.34,1,359.432
7/20/2012 17:00,24.2,9.8,40,4,48.3,101.34,1,465.967
7/20/2012 18:00,24.6,9.6,39,4,48.3,101.35,1,443.91
7/20/2012 19:00,23.5,7.6,36,7,48.3,101.33,1,553.256
7/20/2012 20:00,22.2,9.5,44,6,48.3,101.34,1,388.106
7/20/2012 21:00,19.6,12,61,0,25,101.36,1,402.994
7/20/2012 22:00,18.1,12.3,69,0,25,101.37,1,0.19915
7/20/2012 23:00,18.2,12.3,68,0,25,101.36,1,4.4506
7/21/2012 0:00,17.2,12.6,74,4,25,101.4,1,0.03981
7/21/2012 1:00,17.2,12.4,73,0,25,101.4,1,0.97754
7/21/2012 2:00,15.1,12.4,84,0,25,101.39,1,47.3186
7/21/2012 3:00,14,12.3,89,0,25,101.37,1,27.0602
7/21/2012 4:00,14.6,12.9,90,0,24.1,101.4,1,250.843
7/21/2012 5:00,14.5,12.5,88,4,48.3,101.38,1,360.87
7/21/2012 6:00,16.9,13.7,81,4,48.3,101.4,1,669.317
7/21/2012 7:00,20,15,73,0,48.3,101.43,1,347.803
7/21/2012 8:00,21.1,14.2,65,0,48.3,101.47,1,389.229
7/21/2012 9:00,22.3,14.5,61,7,48.3,101.44,1,134.597
7/21/2012 10:00,23.2,14.1,57,9,48.3,101.4,1,29.934
7/21/2012 11:00,24.7,13.7,50,9,48.3,101.39,1,0.58055
7/21/2012 12:00,24.9,12.3,45,6,48.3,101.36,1,6.16273
7/21/2012 13:00,25.5,12.1,43,11,48.3,101.3,1,22.7065
7/21/2012 14:00,26.2,13.5,45,17,48.3,101.26,2,22.3121
7/21/2012 15:00,26.3,12.3,42,17,48.3,101.22,2,87.3954
7/21/2012 16:00,26.2,13.1,44,15,48.3,101.19,2,192.679
7/21/2012 17:00,26.9,12.1,40,15,48.3,101.13,1,972.536
7/21/2012 18:00,26.1,10.8,38,15,48.3,101.11,1,294.587
7/21/2012 19:00,25.4,11.7,42,13,24.1,101.06,2,510.77
7/21/2012 20:00,24.6,13.5,50,13,25,101.08,2,208.662
7/21/2012 21:00,23.4,12.9,52,4,25,101.18,2,169.7
7/21/2012 22:00,23,15.3,62,4,25,101.19,2,5.16209
7/21/2012 23:00,22.9,14.4,59,9,25,101.19,2,0.60981
7/22/2012 0:00,22.7,14.9,61,11,25,101.19,2,8.66949
7/22/2012 1:00,22.5,15.4,64,13,25,101.17,2,22.2978
7/22/2012 2:00,22.4,15.9,67,15,25,101.13,2,6.04963
7/22/2012 3:00,22.4,14.8,62,15,25,101.12,2,95.3012
7/22/2012 4:00,21.9,15.3,66,15,25,101.15,1,319.335
7/22/2012 5:00,21.8,14.8,64,15,48.3,101.18,2,399.432
7/22/2012 6:00,22.2,15.1,64,17,48.3,101.22,1,509.042
7/22/2012 7:00,22.5,15.6,65,19,48.3,101.24,2,401.382
7/22/2012 8:00,23.3,17.2,69,19,48.3,101.26,1,207.679
7/22/2012 9:00,25.2,17.9,64,26,48.3,101.23,1,170.023
7/22/2012 10:00,25.7,18.5,64,22,48.3,101.2,1,0.1717
7/22/2012 11:00,26.8,18.6,61,24,48.3,101.16,1,0.7377
7/22/2012 12:00,27.8,18.3,56,22,48.3,101.15,1,0.58449
7/22/2012 13:00,28.3,18.8,56,20,48.3,101.11,1,0.9191
7/22/2012 14:00,28.3,18.5,55,20,48.3,101.09,2,33.631
7/22/2012 15:00,30.1,19.2,52,20,48.3,101.06,2,117.506
7/22/2012 16:00,29.9,17.8,48,24,48.3,101.02,2,272.534
7/22/2012 17:00,29.1,17.9,51,17,24.1,101.02,2,459.493
7/22/2012 18:00,29.2,16.9,47,20,48.3,100.99,2,572.234
7/22/2012 19:00,28.6,16.1,47,20,24.1,100.99,2,299.125
7/22/2012 20:00,27.3,17.5,55,13,25,101.05,1,266.525
7/22/2012 21:00,26.9,17,55,15,25,101.07,2,238.534
7/22/2012 22:00,25.8,17.4,60,11,25,101.01,1,13.3191
7/22/2012 23:00,25,17.8,64,9,25,101.03,1,0.78731
7/23/2012 0:00,24.3,17.7,67,11,25,101.01,1,5.94211
7/23/2012 1:00,24.3,17.6,66,11,25,101,1,19.8919
7/23/2012 2:00,23.8,17.8,69,9,25,100.98,2,24.7424
7/23/2012 3:00,23.4,18,72,9,25,100.97,1,213.125
7/23/2012 4:00,23,18.1,74,11,24.1,100.94,2,238.66
7/23/2012 5:00,23.1,17.8,72,13,24.1,100.94,2,502.621
7/23/2012 6:00,23.5,18.3,73,13,24.1,100.94,2,569.584
7/23/2012 7:00,24.1,18.9,73,17,24.1,100.89,2,326.531
7/23/2012 8:00,24.8,19.5,72,19,24.1,100.86,2,270.624
7/23/2012 9:00,26.3,19.8,67,19,48.3,100.76,1,316.161
7/23/2012 10:00,27.6,20.9,67,20,48.3,100.7,1,29.8628
7/23/2012 11:00,27.8,20.7,65,15,48.3,100.64,1,0.15303
7/23/2012 12:00,28.8,20.3,60,13,48.3,100.57,1,0.27337
7/23/2012 13:00,30.1,20.4,56,11,48.3,100.46,1,37.1055
7/23/2012 14:00,30.7,19.7,52,17,48.3,100.35,2,37.4934
7/23/2012 15:00,30.1,19.4,53,11,24.1,100.19,2,52.9001
7/23/2012 16:00,29.9,19.1,52,9,24.1,100.15,2,192.222
7/23/2012 17:00,19.4,18.2,93,4,24.1,100.24,3,448.92
7/23/2012 18:00,20.6,19.1,91,30,19.3,100.19,3,602.78
7/23/2012 19:00,20.7,18.5,87,20,24.1,100.08,3,556.13
7/23/2012 20:00,21,18.5,86,9,25,99.98,2,286.953
7/23/2012 21:00,18.1,17.7,98,11,6.4,100.27,3,102.255
7/23/2012 22:00,18.7,18,96,7,6.4,100.04,3,33.2288
7/23/2012 23:00,19.6,18.7,95,11,25,99.93,2,14.7019
7/24/2012 0:00,19.3,18.3,94,6,25,99.84,2,15.4377
7/24/2012 1:00,19.4,18.3,93,11,25,99.76,2,0.87698
7/24/2012 2:00,19.3,18.3,94,0,25,99.75,2,22.8879
7/24/2012 3:00,18.2,17.9,98,4,25,99.73,1,53.478
7/24/2012 4:00,18.9,18.5,98,7,16.1,99.75,2,183.664
7/24/2012 5:00,19.5,18.6,95,6,24.1,99.78,2,423.554
7/24/2012 6:00,20.5,18.9,91,7,24.1,99.8,1,429.89
7/24/2012 7:00,21.6,19.3,87,13,24.1,99.85,1,456.18
7/24/2012 8:00,22.7,19.2,81,13,24.1,99.89,1,318.377
7/24/2012 9:00,23.5,17.8,70,19,24.1,99.93,2,175.73
7/24/2012 10:00,24,16.2,62,19,24.1,99.95,2,23.6765
7/24/2012 11:00,23.4,16.9,67,17,24.1,99.96,2,29.1764
7/24/2012 12:00,23.5,16.9,66,22,24.1,99.98,2,24.1993
7/24/2012 13:00,23.8,14.6,56,30,24.1,100.04,1,3.72153
7/24/2012 14:00,24.5,12.2,46,28,48.3,100.11,2,95.0896
7/24/2012 15:00,23,10.4,45,24,48.3,100.14,2,145.831
7/24/2012 16:00,23.8,11.7,47,20,48.3,100.15,2,197.062
7/24/2012 17:00,23,11.5,48,24,48.3,100.19,2,318.576
7/24/2012 18:00,22.1,11.8,52,15,24.1,100.25,2,511.037
7/24/2012 19:00,21.4,11.5,53,15,25,100.29,2,377.757
7/24/2012 20:00,20.7,12.2,58,17,25,100.34,2,363.87
7/24/2012 21:00,19.6,12.2,62,17,25,100.41,2,132.535
7/24/2012 22:00,19,12.3,65,19,25,100.45,1,2.10312
7/24/2012 23:00,18,12.5,70,17,25,100.5,1,0.45729
7/25/2012 0:00,16.6,12.4,76,11,25,100.55,1,8.01219
7/25/2012 1:00,15.8,12,78,4,25,100.56,1,7.75839
7/25/2012 2:00,15.4,12.5,83,9,25,100.59,1,53.2339
7/25/2012 3:00,15.4,12.5,83,11,25,100.65,1,107.727
7/25/2012 4:00,14.5,12.2,86,7,25,100.69,1,267.954
7/25/2012 5:00,13.8,12.1,89,7,24.1,100.71,1,800.141
7/25/2012 6:00,16.2,13.2,82,11,24.1,100.76,1,511.001
7/25/2012 7:00,17.5,12.2,71,13,24.1,100.81,1,415.247
7/25/2012 8:00,18.8,12.8,68,13,24.1,100.8,1,199.112
7/25/2012 9:00,19.6,12.9,65,11,48.3,100.79,1,128.784
7/25/2012 10:00,21.1,12.6,58,11,48.3,100.88,1,23.7808
7/25/2012 11:00,22.3,13.5,57,13,48.3,100.76,1,1.31776
7/25/2012 12:00,23.2,12.7,52,9,48.3,100.76,1,3.66924
7/25/2012 13:00,23.4,13.1,52,19,48.3,100.66,2,0.74622
7/25/2012 14:00,23.6,13.6,53,22,48.3,100.61,2,90.9436
7/25/2012 15:00,24.8,13.6,50,19,48.3,100.58,2,157.083
7/25/2012 16:00,24.7,13.8,51,22,48.3,100.51,2,125.659
7/25/2012 17:00,24.1,12.3,48,28,48.3,100.46,2,416.228
7/25/2012 18:00,23.7,13.1,51,20,24.1,100.44,2,543.448
7/25/2012 19:00,23.4,12.9,52,17,25,100.37,2,539.158
7/25/2012 20:00,23.2,12,49,15,25,100.34,2,324.491
7/25/2012 21:00,21.8,13.6,60,13,25,100.31,2,66.7082
7/25/2012 22:00,21.2,13.8,63,13,25,100.29,2,25.0749
7/25/2012 23:00,20.8,13.4,63,11,25,100.29,3,0.59785
7/26/2012 0:00,21.3,14.4,65,13,25,100.23,3,16.7087
7/26/2012 1:00,20.4,13.9,66,13,25,100.18,2,16.3557
7/26/2012 2:00,20.3,13.8,66,11,25,100.12,2,30.2124
7/26/2012 3:00,20.6,14.4,68,9,25,100.07,2,88.686
7/26/2012 4:00,20.6,14.2,67,6,25,100,2,153.278
7/26/2012 5:00,20,14.8,72,7,24.1,99.98,2,636.673
7/26/2012 6:00,19.6,15.5,77,9,16.1,100.01,3,550.896
7/26/2012 7:00,19.4,16,81,7,24.1,100,2,421.068
7/26/2012 8:00,20.4,15,71,4,24.1,99.99,2,404.488
7/26/2012 9:00,20.6,15.3,72,9,24.1,99.97,2,296.902
7/26/2012 10:00,20.6,16.3,76,11,24.1,99.96,2,55.8865
7/26/2012 11:00,21.9,17.5,76,7,24.1,99.93,2,0.05075
7/26/2012 12:00,21.1,16.2,74,6,24.1,99.91,2,11.8691
7/26/2012 13:00,21.3,16.2,73,4,24.1,99.9,2,6.31247
7/26/2012 14:00,21.6,16.8,74,6,24.1,99.86,2,8.55389
7/26/2012 15:00,21.3,16.7,75,4,24.1,99.86,2,69.8946
7/26/2012 16:00,21.9,16.7,72,7,24.1,99.83,2,147.566
7/26/2012 17:00,21.7,16.4,72,7,24.1,99.86,2,363.691
7/26/2012 18:00,21.6,16.5,73,11,24.1,99.89,2,517.82
7/26/2012 19:00,21,17.5,80,11,24.1,99.92,2,478.907
7/26/2012 20:00,20.5,17.6,83,4,24.1,99.94,2,279.091
7/26/2012 21:00,20.3,17.5,84,4,25,99.97,2,160.661
7/26/2012 22:00,18.8,17.5,92,0,25,99.94,1,71.9736
7/26/2012 23:00,18.6,17.5,93,0,25,99.99,2,0.2358
7/27/2012 0:00,18.1,17.2,94,0,25,100.01,1,1.34663
7/27/2012 1:00,17.2,16.5,96,0,25,100.05,2,26.5107
7/27/2012 2:00,16.9,16.3,96,4,25,100.08,1,25.2717
7/27/2012 3:00,15.9,15.3,96,4,25,100.1,2,104.872
7/27/2012 4:00,17.5,16.2,92,0,25,100.19,1,155.076
7/27/2012 5:00,16.2,15.6,96,7,24.1,100.33,2,317.996
7/27/2012 6:00,18.4,15.3,82,17,24.1,100.34,2,375.331
7/27/2012 7:00,19,14.3,74,24,24.1,100.44,2,424.779
7/27/2012 8:00,20.2,14.3,69,13,24.1,100.46,2,199.335
7/27/2012 9:00,21.1,14.5,66,7,24.1,100.51,2,87.8432
7/27/2012 10:00,22,15.3,66,6,24.1,100.53,1,2.57908
7/27/2012 11:00,23.4,16.5,65,4,24.1,100.55,1,0.02066
7/27/2012 12:00,24.1,15.6,59,6,24.1,100.56,1,4.79803
7/27/2012 13:00,24.8,16.1,58,0,24.1,100.55,1,31.0566
7/27/2012 14:00,26.6,16.8,55,0,24.1,100.57,1,46.4803
7/27/2012 15:00,26.1,17,57,11,24.1,100.6,2,111.753
7/27/2012 16:00,25.6,16,55,6,24.1,100.63,2,492.833
7/27/2012 17:00,25.8,15.8,54,6,24.1,100.66,2,478.214
7/27/2012 18:00,26.1,15.2,51,7,24.1,100.71,2,430.427
7/27/2012 19:00,23.7,17,66,4,24.1,100.74,1,287.732
7/27/2012 20:00,22.5,16.6,69,6,24.1,100.8,1,384.063
7/27/2012 21:00,21.4,16.6,74,4,25,100.86,1,174.955
7/27/2012 22:00,21.3,16,72,0,25,100.88,1,96.3741
7/27/2012 23:00,21.1,16.7,76,0,25,100.92,2,44.2418
7/28/2012 0:00,22.8,16.8,69,9,25,100.95,2,5.48967
7/28/2012 1:00,22.3,11.4,50,4,25,101.01,1,0.04505
7/28/2012 2:00,20.8,11.9,57,13,25,101.06,2,118.325
7/28/2012 3:00,18.7,14.3,76,11,25,101.09,2,148.729
7/28/2012 4:00,17.6,12.1,70,13,25,101.14,2,333.845
7/28/2012 5:00,17.4,11.2,67,15,48.3,101.18,2,382.049
7/28/2012 6:00,18.1,11.5,65,17,48.3,101.2,2,780.355
7/28/2012 7:00,19.5,11.1,58,15,48.3,101.22,2,375.054
7/28/2012 8:00,20.3,11.5,57,17,48.3,101.25,2,334.658
7/28/2012 9:00,20.7,12.3,59,19,48.3,101.25,2,219.244
7/28/2012 10:00,21.6,12.8,57,15,48.3,101.29,2,20.3715
7/28/2012 11:00,23.9,14,54,20,48.3,101.26,2,0.7203
7/28/2012 12:00,23.9,14.2,55,13,48.3,101.19,2,2.66038
7/28/2012 13:00,25.5,12.2,44,13,48.3,101.15,2,12.4828
7/28/2012 14:00,26.4,11.1,38,13,48.3,101.13,2,12.8183
7/28/2012 15:00,26.7,11.2,38,22,48.3,101.12,2,94.5976
7/28/2012 16:00,25.8,11.9,42,17,48.3,101.1,2,251.874
7/28/2012 17:00,26.2,10.6,38,17,48.3,101.1,2,338.62
7/28/2012 18:00,26.2,10.3,37,15,48.3,101.15,2,682.34
7/28/2012 19:00,25.6,10.2,38,13,48.3,101.15,2,279.506
7/28/2012 20:00,24.6,10.8,42,9,24.1,101.14,2,343.686
7/28/2012 21:00,22.8,11.8,50,4,25,101.14,1,195.543
7/28/2012 22:00,19.5,13.1,66,7,25,101.16,1,51.6203
7/28/2012 23:00,18.9,13.8,72,9,25,101.18,1,0.85572
7/29/2012 0:00,18.5,13.7,74,9,25,101.18,1,1.18694
7/29/2012 1:00,18.4,13.7,74,13,25,101.16,1,17.157
7/29/2012 2:00,17.7,12.9,73,15,25,101.16,1,31.1362
7/29/2012 3:00,17.1,10.8,66,15,25,101.14,1,81.9646
7/29/2012 4:00,16.8,10.7,67,13,25,101.15,1,284.795
7/29/2012 5:00,16.6,10.8,69,13,48.3,101.23,1,652.306
7/29/2012 6:00,17.6,11.2,66,15,48.3,101.27,1,473.475
7/29/2012 7:00,19.2,12.3,64,15,24.1,101.29,1,435.298
7/29/2012 8:00,20.5,13.3,63,13,24.1,101.31,1,215.449
7/29/2012 9:00,22.2,14.8,63,9,48.3,101.3,1,98.277
7/29/2012 10:00,24,16.9,65,7,48.3,101.28,1,41.4419
7/29/2012 11:00,24.7,16.7,61,11,48.3,101.26,1,2.1749
7/29/2012 12:00,26.6,17.5,57,6,48.3,101.21,1,3.89109
7/29/2012 13:00,26.6,17.5,57,9,48.3,101.17,1,33.824
7/29/2012 14:00,27.3,17.4,55,4,48.3,101.12,1,25.9827
7/29/2012 15:00,27.8,17.7,54,11,48.3,101.09,1,304.988
7/29/2012 16:00,27.5,17.5,54,0,48.3,101.06,1,329.388
7/29/2012 17:00,27,16.9,54,7,48.3,101.03,1,490.912
7/29/2012 18:00,26.8,16.9,55,6,48.3,101.05,1,514.169
7/29/2012 19:00,26.5,17.4,57,6,48.3,101.08,2,287.439
7/29/2012 20:00,25.8,17.3,59,9,24.1,101.12,2,184.801
7/29/2012 21:00,25.3,18.3,65,11,25,101.15,1,149.403
7/29/2012 22:00,22.5,19.5,83,4,25,101.16,1,35.8673
7/29/2012 23:00,21.2,18.6,85,4,25,101.18,1,19.7034
7/30/2012 0:00,21.9,17.6,77,0,25,101.17,1,0.6893
7/30/2012 1:00,19.7,17.2,85,6,25,101.16,1,7.28948
7/30/2012 2:00,20.6,18.6,88,6,25,101.15,1,25.2145
7/30/2012 3:00,20.5,18.3,87,4,25,101.13,1,137.157
7/30/2012 4:00,19,15.6,81,6,25,101.22,1,363.313
7/30/2012 5:00,17.9,16.7,93,0,24.1,101.27,1,488.343
7/30/2012 6:00,20.5,16.9,80,6,24.1,101.28,1,425.095
7/30/2012 7:00,21.6,17.2,76,6,48.3,101.31,1,359.019
7/30/2012 8:00,22.4,16.7,70,7,48.3,101.31,1,372.462
7/30/2012 9:00,24.1,16.9,64,7,48.3,101.31,1,107.964
7/30/2012 10:00,25,15.8,57,15,48.3,101.29,1,8.64631
7/30/2012 11:00,26,15,51,15,48.3,101.27,1,0.58537
7/30/2012 12:00,27.2,15.8,50,19,48.3,101.22,1,11.8392
7/30/2012 13:00,28.5,15.5,45,15,48.3,101.17,2,15.3143
7/30/2012 14:00,29.3,15.9,44,17,48.3,101.13,2,20.5132
7/30/2012 15:00,29,13.5,39,17,48.3,101.1,2,80.0346
7/30/2012 16:00,29.9,14.3,39,9,48.3,101.04,2,116.378
7/30/2012 17:00,29.4,12.9,36,9,48.3,101.03,2,425.375
7/30/2012 18:00,28.2,15.4,46,13,48.3,101.01,1,526.512
7/30/2012 19:00,26.9,16.4,53,11,48.3,101.01,1,536.167
7/30/2012 20:00,25.2,16.5,59,7,48.3,101.01,1,417.903
7/30/2012 21:00,24.3,16.9,63,11,25,101,1,113.73
7/30/2012 22:00,23.8,17.6,68,9,25,101,1,25.5128
7/30/2012 23:00,22.9,17.7,73,6,25,101.02,1,40.2626
7/31/2012 0:00,22.2,19,82,6,25,101.03,1,3.3678
7/31/2012 1:00,21.3,18,81,9,25,101.03,1,42.1885
7/31/2012 2:00,21.5,16.6,74,13,25,101.02,1,60.7095
7/31/2012 3:00,20.1,16.1,78,13,25,101.02,1,74.1954
7/31/2012 4:00,19.4,15.8,80,9,25,101.03,1,347.529
7/31/2012 5:00,19.8,17.1,84,11,25,101.04,1,340.656
7/31/2012 6:00,21.1,17.7,81,7,48.3,101.05,1,516.119
7/31/2012 7:00,22.6,18.2,76,9,48.3,101.03,1,395.61
7/31/2012 8:00,24.2,18.5,71,9,48.3,101.02,1,246.292
7/31/2012 9:00,25.9,19.5,68,7,24.1,100.98,1,185.85
7/31/2012 10:00,27.3,19.8,64,11,24.1,100.97,1,1.61647
7/31/2012 11:00,28.4,20.8,63,13,24.1,100.93,1,0.85529
7/31/2012 12:00,28.9,20.7,61,19,24.1,100.87,1,23.5086
7/31/2012 13:00,28.7,19.2,56,19,24.1,100.79,1,27.508
7/31/2012 14:00,28.8,18.4,53,20,24.1,100.7,1,86.7601
7/31/2012 15:00,28.8,18.4,53,19,24.1,100.64,1,378.903
7/31/2012 16:00,28.8,19.1,56,22,24.1,100.58,2,326.596
7/31/2012 17:00,28,17.7,54,20,24.1,100.55,2,405.931
7/31/2012 18:00,25.3,19.3,69,17,24.1,100.53,2,679.557
7/31/2012 19:00,24.8,18.3,67,22,24.1,100.55,3,376.863
7/31/2012 20:00,22.4,18.7,80,35,9.7,100.64,3,264.709
7/31/2012 21:00,22.8,18.8,78,13,25,100.65,3,22.197
7/31/2012 22:00,22.8,19.4,81,7,25,100.57,2,1.09602
7/31/2012 23:00,21.8,19.2,85,4,25,100.52,1,44.4069
8/1/2012 0:00,21,19.8,93,0,25,100.53,1,0.37417
8/1/2012 1:00,21,19.6,92,4,25,100.54,1,21.1194
8/1/2012 2:00,21.3,19.1,87,9,25,100.55,2,39.1975
8/1/2012 3:00,20.8,19,89,9,25,100.54,2,179.316
8/1/2012 4:00,20.8,18.7,88,6,25,100.57,2,166.775
8/1/2012 5:00,20.8,18.1,85,9,25,100.58,2,413.265
8/1/2012 6:00,20.4,18.6,89,7,25,100.62,3,420.955
8/1/2012 7:00,20.8,18.7,88,11,24.1,100.64,2,544.534
8/1/2012 8:00,21.2,18.9,87,9,24.1,100.65,2,284.621
8/1/2012 9:00,22,18.9,83,13,24.1,100.64,2,39.4172
8/1/2012 10:00,24.1,19.4,75,13,24.1,100.6,2,38.9091
8/1/2012 11:00,24.1,18,69,17,24.1,100.6,2,3.49806
8/1/2012 12:00,25.2,18.6,67,13,24.1,100.56,1,11.3977
8/1/2012 13:00,25.7,18.2,63,15,24.1,100.51,1,36.6821
8/1/2012 14:00,26.9,19.2,63,15,24.1,100.48,1,104.064
8/1/2012 15:00,27.3,18.6,59,13,24.1,100.46,1,191.055
8/1/2012 16:00,27.8,18.7,58,9,24.1,100.4,1,377.107
8/1/2012 17:00,27.4,19,60,13,24.1,100.38,1,396.943
8/1/2012 18:00,27,18.9,61,15,24.1,100.39,1,434.307
8/1/2012 19:00,26.3,19.2,65,13,24.1,100.46,2,484.295
8/1/2012 20:00,25.7,19.1,67,15,25,100.48,2,305.01
8/1/2012 21:00,23.1,20.3,84,6,25,100.49,1,280.982
8/1/2012 22:00,24.2,20.3,79,7,25,100.52,1,19.5985
8/1/2012 23:00,23.9,19.8,78,6,25,100.5,1,32.1243
8/2/2012 0:00,23.9,19.8,78,7,25,100.51,2,15.9246
8/2/2012 1:00,22.6,19.6,83,7,25,100.48,1,4.05208
8/2/2012 2:00,21.8,19.6,87,9,25,100.49,1,9.63009
8/2/2012 3:00,22.2,20.1,88,11,25,100.47,1,172.021
8/2/2012 4:00,21.5,19.6,89,11,25,100.51,1,507.684
8/2/2012 5:00,21.3,19.6,90,7,24.1,100.55,1,565.81
8/2/2012 6:00,21.7,19.6,88,15,48.3,100.55,1,715.063
8/2/2012 7:00,22.5,20.1,86,13,48.3,100.6,1,427.289
8/2/2012 8:00,23.9,19.9,78,11,48.3,100.61,1,381.452
8/2/2012 9:00,24.5,19.8,75,17,48.3,100.63,1,129.73
8/2/2012 10:00,25.8,19.5,68,11,24.1,100.6,1,4.52029
8/2/2012 11:00,27.3,20.1,65,17,24.1,100.56,1,6.63063
8/2/2012 12:00,27.4,18.5,58,13,24.1,100.56,1,7.44035
8/2/2012 13:00,29.1,18,51,20,24.1,100.5,1,10.7857
8/2/2012 14:00,29.6,18.8,52,13,24.1,100.44,1,95.98
8/2/2012 15:00,29.8,18.9,52,19,24.1,100.43,2,119.024
8/2/2012 16:00,30,17.8,48,22,24.1,100.4,2,325.358
8/2/2012 17:00,29.9,16.1,43,20,24.1,100.41,2,498.385
8/2/2012 18:00,28.4,16.3,48,15,24.1,100.42,2,409.884
8/2/2012 19:00,27.7,14.8,45,15,24.1,100.44,2,359.347
8/2/2012 20:00,27.2,15.4,48,19,25,100.52,2,325.074
8/2/2012 21:00,26.8,15.5,50,24,25,100.53,2,97.375
8/2/2012 22:00,25.7,15.9,55,17,25,100.52,2,26.3739
8/2/2012 23:00,25,17.1,62,24,25,100.5,2,5.6936
8/3/2012 0:00,24.4,16.9,63,17,25,100.5,1,5.97641
8/3/2012 1:00,24.1,16.9,64,13,25,100.5,1,2.43015
8/3/2012 2:00,23.5,17.3,68,13,25,100.52,2,17.3861
8/3/2012 3:00,23.4,18,72,15,25,100.54,2,179.735
8/3/2012 4:00,22.9,17.8,73,15,25,100.6,2,210.662
8/3/2012 5:00,22.3,17.9,76,11,24.1,100.68,1,296.929
8/3/2012 6:00,22.5,18.3,77,13,24.1,100.74,1,571.737
8/3/2012 7:00,23.2,18.5,75,17,24.1,100.81,1,304.698
8/3/2012 8:00,24.1,18.5,71,13,24.1,100.87,1,460.341
8/3/2012 9:00,25.6,17.8,62,15,24.1,100.91,1,252.867
8/3/2012 10:00,26,17.7,60,11,24.1,100.95,1,135.81
8/3/2012 11:00,27.1,17.3,55,13,24.1,100.99,1,6.83946
8/3/2012 12:00,27.1,16.7,53,17,24.1,101.03,1,3.04431
8/3/2012 13:00,28.2,16.6,49,19,24.1,101.07,1,9.38784
8/3/2012 14:00,27.6,15.6,48,24,24.1,101.1,1,57.131
8/3/2012 15:00,29.2,16.7,47,17,24.1,101.11,1,210.204
8/3/2012 16:00,28.9,15.9,45,20,24.1,101.1,1,137.362
8/3/2012 17:00,28,16,48,20,48.3,101.14,1,521.268
8/3/2012 18:00,27.2,16.1,51,11,48.3,101.18,1,589.099
8/3/2012 19:00,25.5,15.6,54,7,48.3,101.24,1,634.122
8/3/2012 20:00,23.9,15.7,60,6,24.1,101.31,1,357.247
8/3/2012 21:00,22,15.9,68,6,25,101.39,1,119.269
8/3/2012 22:00,23.3,15.3,61,9,25,101.42,1,29.0261
8/3/2012 23:00,23.1,15.2,61,4,25,101.49,1,15.8961
8/4/2012 0:00,21.3,15.3,69,9,25,101.51,1,0.87756
8/4/2012 1:00,22.3,15.2,64,9,25,101.55,2,31.1986
8/4/2012 2:00,22,15,64,7,25,101.59,2,70.323
8/4/2012 3:00,21.8,14.8,64,6,25,101.61,2,205.354
8/4/2012 4:00,22.1,14.2,61,7,24.1,101.62,2,418.672
8/4/2012 5:00,21.3,14.3,64,11,48.3,101.65,2,517.33
8/4/2012 6:00,20.2,16,77,9,48.3,101.67,2,546.468
8/4/2012 7:00,21.8,15.3,67,17,48.3,101.75,1,479.413
8/4/2012 8:00,23.1,15.6,63,13,48.3,101.75,1,281.161
8/4/2012 9:00,24.7,16.4,60,15,24.1,101.73,1,164.222
8/4/2012 10:00,27.2,17.2,54,13,24.1,101.72,1,91.5198
8/4/2012 11:00,28.3,18,54,17,24.1,101.69,1,12.0457
8/4/2012 12:00,30.1,19.2,52,9,25,101.62,1,2.88141
8/4/2012 13:00,31.2,18.1,46,11,24.1,101.56,1,18.6473
8/4/2012 14:00,32,18.3,44,17,24.1,101.48,1,15.3381
8/4/2012 15:00,32.8,18.8,44,17,24.1,101.39,1,93.4202
8/4/2012 16:00,32.5,18.5,44,15,24.1,101.34,1,287.091
8/4/2012 17:00,32.5,19.8,47,13,24.1,101.32,1,370.973
8/4/2012 18:00,32.2,20.1,49,13,24.1,101.29,2,480.33
8/4/2012 19:00,30.8,19.2,50,20,24.1,101.23,1,176.275
8/4/2012 20:00,29.2,18.7,53,19,24.1,101.23,1,333.963
8/4/2012 21:00,27.5,18.4,58,17,25,101.3,1,270.976
8/4/2012 22:00,26.5,18.2,60,13,25,101.28,1,3.81756
8/4/2012 23:00,26.2,18.6,63,17,25,101.27,1,4.31961
8/5/2012 0:00,25.7,19,67,19,25,101.24,1,1.02665
8/5/2012 1:00,25.1,19.2,70,19,25,101.19,1,45.7316
8/5/2012 2:00,24.2,19.3,74,19,25,101.16,1,104.692
8/5/2012 3:00,24.4,19.3,73,22,25,101.06,1,222.121
8/5/2012 4:00,24.3,19.6,75,19,25,101.04,1,278.321
8/5/2012 5:00,24.1,19.8,77,22,24.1,101.02,2,521.461
8/5/2012 6:00,24.6,20.2,77,19,24.1,100.96,2,522.194
8/5/2012 7:00,25.9,20.7,73,22,24.1,100.89,2,358.344
8/5/2012 8:00,26.5,21,72,24,24.1,100.8,2,294.101
8/5/2012 9:00,26.9,21.3,71,24,19.3,100.72,2,225.056
8/5/2012 10:00,24.8,22.6,88,22,19.3,100.71,2,57.4948
8/5/2012 11:00,27.9,23.2,76,24,24.1,100.63,2,15.7285
8/5/2012 12:00,29.7,22.2,64,19,24.1,100.5,2,15.5629
8/5/2012 13:00,25.2,23,88,24,12.9,100.4,3,28.323
8/5/2012 14:00,24.9,22.9,89,26,16.1,100.42,3,41.9833
8/5/2012 15:00,29,24.4,76,13,24.1,100.31,2,195.31
8/5/2012 16:00,31.1,22,58,28,24.1,100.26,2,355.596
8/5/2012 17:00,30.1,21.1,59,22,24.1,100.2,2,411.503
8/5/2012 18:00,25,22,83,22,19.3,100.28,3,412.073
8/5/2012 19:00,24.2,22.2,89,26,16.1,100.29,3,404.229
8/5/2012 20:00,24.3,21.8,86,32,25,100.32,2,514.93
8/5/2012 21:00,23.9,21.2,85,32,25,100.43,1,263.402
8/5/2012 22:00,23.9,20,79,26,25,100.5,1,21.6794
8/5/2012 23:00,23.1,17.4,70,30,25,100.58,1,28.904
8/6/2012 0:00,21.7,13.7,60,24,25,100.67,1,6.15095
8/6/2012 1:00,20.7,14.3,67,24,25,100.7,1,50.8807
8/6/2012 2:00,19.6,13.7,69,22,25,100.77,1,9.63505
8/6/2012 3:00,18.7,13.2,70,22,25,100.79,1,38.8075
8/6/2012 4:00,17.7,13.3,75,13,25,100.86,1,207.565
8/6/2012 5:00,16.6,13.3,81,9,48.3,100.95,1,273.337
8/6/2012 6:00,18,13.8,76,13,48.3,101.01,1,462.745
8/6/2012 7:00,19,14,73,17,48.3,101.06,1,318.474
8/6/2012 8:00,19.7,13.6,68,17,48.3,101.09,1,272.882
8/6/2012 9:00,20,13.3,65,20,48.3,101.11,2,135.043
8/6/2012 10:00,20.8,13.2,62,22,48.3,101.13,2,6.02325
8/6/2012 11:00,22.1,13.6,59,28,48.3,101.15,1,2.99477
8/6/2012 12:00,21.9,13,57,24,48.3,101.17,2,9.06548
8/6/2012 13:00,21.4,13.7,61,13,48.3,101.18,2,47.1214
8/6/2012 14:00,22.5,13,55,13,48.3,101.15,2,87.7526
8/6/2012 15:00,22.6,13.8,58,22,48.3,101.12,1,135.085
8/6/2012 16:00,23,12.2,51,19,48.3,101.07,1,404.466
8/6/2012 17:00,23,12.8,53,24,48.3,101.06,1,519.834
8/6/2012 18:00,23,12.8,53,15,48.3,101.03,1,484.528
8/6/2012 19:00,21.6,12.8,57,9,48.3,101.02,1,458.954
8/6/2012 20:00,22.1,13.5,58,9,25,101.03,1,356.76
8/6/2012 21:00,21.7,14.5,64,9,25,101.03,1,143.515
8/6/2012 22:00,20.1,15.6,75,13,25,101.04,1,18.7967
8/6/2012 23:00,20.6,15.1,71,11,25,101.05,1,0.01082
8/7/2012 0:00,19.6,16,80,13,25,101.04,1,13.981
8/7/2012 1:00,19.3,15.6,79,17,25,101.02,1,27.5964
8/7/2012 2:00,18.9,14.8,77,19,25,100.99,1,89.831
8/7/2012 3:00,18.2,15.3,83,13,25,100.96,1,164.774
8/7/2012 4:00,18.5,15.5,83,11,25,100.95,1,204.148
8/7/2012 5:00,16.6,15,90,7,48.3,100.99,1,373.326
8/7/2012 6:00,17.9,15.3,85,6,48.3,101.02,1,317.352
8/7/2012 7:00,19.6,16.1,80,15,48.3,101.01,1,361.903
8/7/2012 8:00,21.2,16.4,74,17,48.3,101.01,1,166.025
8/7/2012 9:00,22.8,16.7,68,19,48.3,100.99,1,91.0517
8/7/2012 10:00,24.1,17.1,65,24,48.3,100.96,1,9.18975
8/7/2012 11:00,25.3,16.9,60,22,48.3,100.96,1,0.14889
8/7/2012 12:00,26.5,16.1,53,17,48.3,100.9,1,9.51787
8/7/2012 13:00,27.7,15.7,48,20,48.3,100.87,1,29.6508
8/7/2012 14:00,27.6,14.2,44,20,48.3,100.82,1,21.9067
8/7/2012 15:00,28.7,13.6,40,24,48.3,100.79,2,53.7673
8/7/2012 16:00,27.4,13.6,43,17,48.3,100.74,2,212.226
8/7/2012 17:00,27.8,13.1,40,15,48.3,100.74,2,410.046
8/7/2012 18:00,27,13.8,44,15,48.3,100.74,2,585.233
8/7/2012 19:00,26.3,14.8,49,13,48.3,100.73,2,494.813
8/7/2012 20:00,25.8,13.7,47,17,25,100.81,2,371.108
8/7/2012 21:00,21.2,15,68,22,25,100.9,2,79.6197
8/7/2012 22:00,20.2,16.6,80,0,25,100.86,2,140.99
8/7/2012 23:00,20.2,17.5,84,9,25,100.87,3,1.21624
8/8/2012 0:00,19.3,18,92,7,25,100.92,2,7.05748
8/8/2012 1:00,18.7,17.8,95,7,25,100.94,1,22.9102
8/8/2012 2:00,18.3,17.6,96,4,19.3,100.91,1,52.8844
8/8/2012 3:00,17.4,17.1,98,4,12.9,100.92,1,166.541
8/8/2012 4:00,17.2,16.9,98,4,16.1,100.97,1,232.497
8/8/2012 5:00,16.8,16.7,99,0,19.3,101.02,1,397.807
8/8/2012 6:00,18.1,17.3,95,0,24.1,101.03,1,436.68
8/8/2012 7:00,19.3,17.4,89,6,48.3,101.09,1,386.234
8/8/2012 8:00,21.1,17.5,80,0,48.3,101.12,2,258.422
8/8/2012 9:00,22.5,16.6,69,4,48.3,101.11,1,263.608
8/8/2012 10:00,24.1,16,61,9,48.3,101.11,1,6.52539
8/8/2012 11:00,24.8,15.2,55,4,48.3,101.08,1,0.41104
8/8/2012 12:00,26.4,11.9,40,0,48.3,101.05,1,9.95175
8/8/2012 13:00,27.4,14.1,44,4,48.3,101,1,21.4791
8/8/2012 14:00,28,15.6,47,11,24.1,100.98,1,69.1094
8/8/2012 15:00,28.3,14.7,43,7,24.1,100.94,2,148.762
8/8/2012 16:00,28,16.1,48,9,24.1,100.92,2,205.94
8/8/2012 17:00,24.8,17.1,62,19,24.1,100.91,2,438.014
8/8/2012 18:00,25.1,16.8,60,9,24.1,100.9,2,525.725
8/8/2012 19:00,25.1,17,61,7,24.1,100.9,3,381.913
8/8/2012 20:00,24.3,17.2,65,11,25,100.92,3,398.26
8/8/2012 21:00,23,17.8,73,6,25,100.93,2,45.9865
8/8/2012 22:00,23.5,17.1,67,4,25,100.89,2,11.493
8/8/2012 23:00,23.1,17,69,6,25,100.92,2,31.8516
8/9/2012 0:00,22.8,17.7,73,9,25,100.93,1,19.5979
8/9/2012 1:00,22.8,16.7,68,11,25,100.89,2,33.4868
8/9/2012 2:00,22.4,16.7,70,4,25,100.91,2,104.975
8/9/2012 3:00,21.8,17.4,76,9,25,100.89,2,191.096
8/9/2012 4:00,21.4,17.4,78,11,25,100.9,2,228.972
8/9/2012 5:00,21.1,16.9,77,13,24.1,100.93,2,368.339
8/9/2012 6:00,20.9,17,78,15,24.1,100.98,2,651.001
8/9/2012 7:00,20.7,17.3,81,13,24.1,101.01,2,468.56
8/9/2012 8:00,21.1,17.5,80,19,24.1,101.01,2,274.832
8/9/2012 9:00,21.7,17.5,77,22,24.1,100.98,2,174.975
8/9/2012 10:00,21.7,17,75,17,24.1,100.98,2,102.414
8/9/2012 11:00,23.2,17.3,69,13,24.1,100.98,2,0.02981
8/9/2012 12:00,24.2,17.8,67,17,24.1,100.92,2,0.3407
8/9/2012 13:00,23.6,17.4,68,19,24.1,100.94,2,0.10675
8/9/2012 14:00,24,17.8,68,20,24.1,100.86,3,5.22216
8/9/2012 15:00,23.7,17,66,17,16.1,100.91,3,50.6288
8/9/2012 16:00,22.3,18.7,80,19,19.3,100.89,3,322.274
8/9/2012 17:00,21.3,18.7,85,17,12.9,100.93,3,338.123
8/9/2012 18:00,20.4,18.6,89,20,16.1,100.87,3,800.869
8/9/2012 19:00,20.2,18.2,88,13,19.3,100.92,3,453.255
8/9/2012 20:00,20.2,17.7,86,15,25,100.88,2,340.816
8/9/2012 21:00,19.9,17.5,86,19,25,100.87,2,272.28
8/9/2012 22:00,20.1,17,82,19,25,100.83,2,12.5447
8/9/2012 23:00,19.8,17,84,20,25,100.77,2,5.91518
8/10/2012 0:00,19.5,17,85,17,25,100.74,2,20.0385
8/10/2012 1:00,19.3,16.8,85,19,25,100.68,2,26.8679
8/10/2012 2:00,20.1,17,82,13,25,100.66,2,76.7595
8/10/2012 3:00,19.7,17.3,86,13,25,100.65,2,202.779
8/10/2012 4:00,19.3,17.6,90,9,9.7,100.67,3,439.359
8/10/2012 5:00,19,17.7,92,19,12.9,100.58,3,366.512
8/10/2012 6:00,19,17.7,92,9,16.1,100.69,2,356.645
8/10/2012 7:00,19.7,18.2,91,7,12.9,100.66,2,429.486
8/10/2012 8:00,20.8,18.9,89,9,12.9,100.69,2,320.606
8/10/2012 9:00,20.2,18.6,91,13,11.3,100.7,2,181.583
8/10/2012 10:00,20.2,18.5,90,11,11.3,100.75,2,5.0709
8/10/2012 11:00,19.9,18.5,92,15,6.4,100.73,2,0.21109
8/10/2012 12:00,20.8,18.8,88,17,6.4,100.73,2,1.05632
8/10/2012 13:00,21.3,19.2,88,19,6.4,100.7,3,8.84245
8/10/2012 14:00,21.7,19.3,86,19,8,100.64,3,31.1425
8/10/2012 15:00,21,19.5,91,20,6.4,100.63,3,113.584
8/10/2012 16:00,20.7,19,90,20,8,100.65,3,385.625
8/10/2012 17:00,20.6,19,91,20,8,100.63,3,437.875
8/10/2012 18:00,20,18.9,93,22,6.4,100.62,3,355.399
8/10/2012 19:00,19.6,18.5,93,24,4.8,100.63,3,394.333
8/10/2012 20:00,19.1,17.9,93,17,12.9,100.65,3,247.686
8/10/2012 21:00,18.5,17.7,95,22,16.1,100.62,3,250.576
8/10/2012 22:00,18.2,17.4,95,20,25,100.58,2,21.9283
8/10/2012 23:00,18,17.2,95,19,25,100.56,2,0.00843
8/11/2012 0:00,17.9,17,94,20,16.1,100.57,2,16.0598
8/11/2012 1:00,17.5,16.7,95,19,16.1,100.57,2,1.62475
8/11/2012 2:00,17.6,16.8,95,19,16.1,100.54,2,54.9691
8/11/2012 3:00,17.5,16.7,95,22,16.1,100.53,2,203.641
8/11/2012 4:00,17.2,16.7,97,24,16.1,100.54,3,164.443
8/11/2012 5:00,17.2,16.7,97,22,12.9,100.57,2,622.822
8/11/2012 6:00,17.4,16.7,96,20,16.1,100.61,2,615.753
8/11/2012 7:00,18.4,17.2,93,17,12.9,100.65,2,380.547
8/11/2012 8:00,19.4,17.8,90,15,12.9,100.66,2,258.746
8/11/2012 9:00,20.4,18,86,15,24.1,100.66,2,84.9505
8/11/2012 10:00,22.3,19,82,11,24.1,100.65,2,127.723
8/11/2012 11:00,23.9,19.8,78,13,24.1,100.61,2,0.62698
8/11/2012 12:00,26.1,20.6,72,9,24.1,100.58,2,4.05949
8/11/2012 13:00,26.9,20,66,15,24.1,100.51,2,13.9698
8/11/2012 14:00,27.3,20.1,65,17,24.1,100.47,2,46.4431
8/11/2012 15:00,27.5,19.9,63,19,24.1,100.42,2,103.609
8/11/2012 16:00,26.8,20.5,68,9,24.1,100.36,2,229.51
8/11/2012 17:00,20.2,19.5,96,32,12.9,100.58,3,470.844
8/11/2012 18:00,19.6,18.7,95,19,24.1,100.59,3,747.537
8/11/2012 19:00,20.4,18.6,89,11,24.1,100.59,1,199.356
8/11/2012 20:00,19.9,18.9,94,13,25,100.65,2,227.284
8/11/2012 21:00,20,18.5,91,9,25,100.68,2,270.92
8/11/2012 22:00,20,18.6,92,9,25,100.72,2,34.4858
8/11/2012 23:00,20,18.8,93,9,25,100.71,2,25.0712
8/12/2012 0:00,20.1,18.9,93,4,19.3,100.7,2,3.8527
8/12/2012 1:00,19.7,19.2,97,6,19.3,100.69,2,3.20108
8/12/2012 2:00,19.7,19,96,4,12.9,100.66,2,36.3113
8/12/2012 3:00,19.5,19,97,0,12.9,100.65,2,226.008
8/12/2012 4:00,19.5,18.8,96,4,9.7,100.68,2,202.54
8/12/2012 5:00,19.6,18.7,95,4,8,100.75,2,539.037
8/12/2012 6:00,19.8,18.9,95,9,12.9,100.75,2,319.079
8/12/2012 7:00,20.5,19,91,7,24.1,100.79,2,244.488
8/12/2012 8:00,21.6,17.8,79,15,24.1,100.8,2,247.653
8/12/2012 9:00,22.3,16.6,70,19,48.3,100.79,1,345.506
8/12/2012 10:00,22.9,16.7,68,17,48.3,100.76,1,6.17463
8/12/2012 11:00,24,17.6,67,13,48.3,100.72,1,6.5125
8/12/2012 12:00,24.4,16.9,63,17,48.3,100.67,1,13.6412
8/12/2012 13:00,25.4,17.2,60,13,48.3,100.64,1,6.00206
8/12/2012 14:00,26.4,17,56,13,48.3,100.62,1,73.5596
8/12/2012 15:00,26.2,16.9,57,15,48.3,100.58,1,146.875
8/12/2012 16:00,26.7,16.9,55,17,48.3,100.56,1,257.578
8/12/2012 17:00,26,16.9,57,17,24.1,100.55,2,263.16
8/12/2012 18:00,23.2,18.6,75,15,48.3,100.61,1,409.154
8/12/2012 19:00,23.2,17.8,72,15,24.1,100.63,1,220.255
8/12/2012 20:00,22.9,17.5,72,13,25,100.69,1,282.964
8/12/2012 21:00,22.3,17.8,76,11,25,100.71,1,236.316
8/12/2012 22:00,21.8,17.7,78,17,25,100.7,1,5.77824
8/12/2012 23:00,21.8,17.8,78,19,25,100.69,1,2.564
8/13/2012 0:00,21.3,17.3,78,22,25,100.68,1,0.00249
8/13/2012 1:00,20.9,17.5,81,15,25,100.68,1,6.08321
8/13/2012 2:00,20.4,17.6,84,13,25,100.67,1,7.92641
8/13/2012 3:00,20.2,18,87,9,25,100.7,1,341.871
8/13/2012 4:00,19.5,17.3,87,9,25,100.74,1,199.635
8/13/2012 5:00,19.5,17.5,88,13,24.1,100.78,1,274.958
8/13/2012 6:00,19.7,17.6,88,13,24.1,100.81,1,428.041
8/13/2012 7:00,19.9,17.5,86,19,19.3,100.87,2,320.256
8/13/2012 8:00,20.9,18,83,13,19.3,100.89,2,361.797
8/13/2012 9:00,21.9,18,79,15,19.3,100.88,2,112.708
8/13/2012 10:00,22.4,17.8,75,22,19.3,100.88,2,24.2999
8/13/2012 11:00,22.5,17.8,75,20,24.1,100.87,2,2.98989
8/13/2012 12:00,23.8,17.4,67,17,24.1,100.85,2,1.04976
8/13/2012 13:00,25.2,17.9,64,20,24.1,100.82,2,46.5265
8/13/2012 14:00,25.1,17.4,62,19,24.1,100.79,2,15.9467
8/13/2012 15:00,25.4,17.4,61,13,24.1,100.74,2,312.651
8/13/2012 16:00,25.2,17.1,61,19,24.1,100.76,2,180.555
8/13/2012 17:00,24.5,18,67,11,24.1,100.78,2,481.578
8/13/2012 18:00,24.6,16.9,62,11,24.1,100.8,2,496.747
8/13/2012 19:00,24.4,17.4,65,7,24.1,100.8,1,898.072
8/13/2012 20:00,23.2,17.6,71,7,25,100.83,1,396.955
8/13/2012 21:00,22.4,17.8,75,6,25,100.87,1,229.974
8/13/2012 22:00,22.2,17.7,76,9,25,100.88,1,39.532
8/13/2012 23:00,21.7,17.3,76,9,25,100.86,1,0.10678
8/14/2012 0:00,21.2,17.4,79,7,25,100.85,1,22.6256
8/14/2012 1:00,21.1,17.7,81,9,25,100.85,1,12.5362
8/14/2012 2:00,20.9,18.2,85,11,25,100.83,2,38.8424
8/14/2012 3:00,20.7,17.6,82,11,25,100.82,1,101.169
8/14/2012 4:00,19.5,17.4,88,6,25,100.83,2,206.353
8/14/2012 5:00,19.8,17.3,86,7,24.1,100.84,1,477.063
8/14/2012 6:00,20.9,17.2,79,9,24.1,100.83,2,588.575
8/14/2012 7:00,21,16.7,76,13,24.1,100.88,2,311.883
8/14/2012 8:00,21.9,17.1,74,9,24.1,100.87,2,235.861
8/14/2012 9:00,21.9,17.8,78,11,24.1,100.89,2,160.93
8/14/2012 10:00,21.9,18.1,79,15,24.1,100.88,2,6.53971
8/14/2012 11:00,21.9,18.2,80,15,24.1,100.86,2,2.27446
8/14/2012 12:00,22.6,18.5,78,9,24.1,100.84,2,0.65574
8/14/2012 13:00,23.7,19.2,76,15,24.1,100.79,2,16.0921
8/14/2012 14:00,24.2,18.5,71,13,24.1,100.75,2,26.2234
8/14/2012 15:00,25.7,18.4,64,15,24.1,100.71,2,199.444
8/14/2012 16:00,24.5,17.2,64,7,24.1,100.69,2,209.835
8/14/2012 17:00,24.9,17.2,62,7,24.1,100.67,2,224.577
8/14/2012 18:00,24.5,17.1,63,6,24.1,100.69,2,558.314
8/14/2012 19:00,24.3,17.2,65,0,24.1,100.67,2,317.717
8/14/2012 20:00,23.3,17.8,71,6,25,100.68,2,298.646
8/14/2012 21:00,23,18.5,76,6,25,100.69,2,171.9
8/14/2012 22:00,22.2,17.7,76,4,25,100.66,2,49.8057
8/14/2012 23:00,21.7,17.8,79,4,25,100.64,2,3.71126
8/15/2012 0:00,21.4,17.4,78,4,25,100.61,2,0.02014
8/15/2012 1:00,21.2,18,82,20,25,100.65,3,4.31731
8/15/2012 2:00,19.5,18.7,95,9,25,100.63,3,98.9955
8/15/2012 3:00,19.1,18,93,9,25,100.58,2,283.174
8/15/2012 4:00,18.8,17.7,93,4,19.3,100.56,2,274.778
8/15/2012 5:00,18.9,17.6,92,4,24.1,100.62,2,451.158
8/15/2012 6:00,19.3,17.5,89,0,24.1,100.65,2,358.158
8/15/2012 7:00,18.8,17.7,93,0,24.1,100.69,3,293.918
8/15/2012 8:00,20.1,18.2,89,0,24.1,100.69,2,349.922
8/15/2012 9:00,21,18.4,85,11,24.1,100.73,2,207.224
8/15/2012 10:00,21.5,18.3,82,13,24.1,100.75,2,8.98786
8/15/2012 11:00,21.6,18.2,81,9,24.1,100.78,2,17.4939
8/15/2012 12:00,23.7,17.8,70,7,24.1,100.73,2,4.69858
8/15/2012 13:00,25.3,18,64,9,24.1,100.72,2,20.0933
8/15/2012 14:00,25.2,16.7,59,15,24.1,100.7,1,23.1504
8/15/2012 15:00,25.7,17.8,62,15,24.1,100.68,1,89.8199
8/15/2012 16:00,25.7,16.4,56,17,24.1,100.69,1,258.967
8/15/2012 17:00,25.6,15.7,54,13,24.1,100.67,1,626.279
8/15/2012 18:00,24.9,16,58,13,24.1,100.68,1,414.579
8/15/2012 19:00,22.5,16.1,67,7,24.1,100.69,1,1012.02
8/15/2012 20:00,21.7,16.1,70,6,25,100.71,1,275.258
8/15/2012 21:00,20.4,15.9,75,6,25,100.7,1,52.3823
8/15/2012 22:00,19.9,16,78,7,25,100.76,1,19.8951
8/15/2012 23:00,20.6,16.5,77,0,25,100.81,1,0.95423
8/16/2012 0:00,18.9,16.2,84,9,25,100.76,1,17.7638
8/16/2012 1:00,18.5,16,85,9,25,100.76,1,2.89884
8/16/2012 2:00,17.8,15.7,88,6,25,100.75,1,49.1879
8/16/2012 3:00,17.4,15.6,89,6,25,100.76,1,204.675
8/16/2012 4:00,16.7,15.2,91,6,25,100.79,1,237.962
8/16/2012 5:00,16.6,15.3,92,0,25,100.81,1,283.547
8/16/2012 6:00,18.2,15.7,85,0,48.3,100.85,1,494.22
8/16/2012 7:00,19.3,16.8,85,9,24.1,100.87,2,388.252
8/16/2012 8:00,20.5,17.2,81,7,48.3,100.82,1,245.315
8/16/2012 9:00,21.7,17.8,79,0,48.3,100.79,2,166.98
8/16/2012 10:00,23.8,17.7,69,0,24.1,100.78,1,21.3492
8/16/2012 11:00,23.8,17.3,67,7,24.1,100.74,2,16.9888
8/16/2012 12:00,24.9,16.7,60,6,24.1,100.71,2,1.14107
8/16/2012 13:00,25.8,17.3,59,11,24.1,100.71,1,11.6018
8/16/2012 14:00,25.9,15.7,53,17,24.1,100.71,1,9.01275
8/16/2012 15:00,26.9,15.6,50,13,24.1,100.63,1,115.73
8/16/2012 16:00,27,12.6,41,7,24.1,100.54,1,307.156
8/16/2012 17:00,26.4,14.7,49,9,24.1,100.53,1,357.403
8/16/2012 18:00,24.9,14.4,52,7,24.1,100.49,1,473.361
8/16/2012 19:00,23.7,13.8,54,4,24.1,100.5,1,395.807
8/16/2012 20:00,23.5,15.3,60,6,25,100.52,1,234.519
8/16/2012 21:00,21.6,17.4,77,6,25,100.5,1,254.758
8/16/2012 22:00,22,17.5,76,4,25,100.48,1,0.00089
8/16/2012 23:00,22.3,17.6,75,9,25,100.48,1,0.57815
8/17/2012 0:00,21.9,17,74,7,25,100.51,1,0.1202
8/17/2012 1:00,21.1,17.3,79,11,25,100.47,1,32.3783
8/17/2012 2:00,18.9,16.5,86,4,25,100.44,1,11.8894
8/17/2012 3:00,18.7,16.3,86,0,25,100.37,1,53.5327
8/17/2012 4:00,18.2,16.1,88,11,25,100.32,1,179.551
8/17/2012 5:00,17.6,15.3,86,7,25,100.3,1,372.435
8/17/2012 6:00,18.2,14.9,81,11,24.1,100.28,2,403.483
8/17/2012 7:00,19.5,16,80,15,24.1,100.24,2,481.268
8/17/2012 8:00,21.1,17.3,79,17,24.1,100.21,2,330.746
8/17/2012 9:00,21.4,17,76,17,24.1,100.17,3,57.4383
8/17/2012 10:00,21.8,17,74,13,24.1,100.13,2,0.22844
8/17/2012 11:00,23.5,17.8,70,11,24.1,100.1,2,0.30376
8/17/2012 12:00,22.7,19.1,80,15,24.1,100.09,3,8.75886
8/17/2012 13:00,24.1,19.2,74,20,24.1,100.06,2,24.1695
8/17/2012 14:00,24.8,18.6,68,24,24.1,100.06,2,21.2529
8/17/2012 15:00,24.9,15.8,57,30,24.1,100.11,2,198.791
8/17/2012 16:00,24.3,14.6,55,28,24.1,100.14,2,167.221
8/17/2012 17:00,24.8,15.7,57,30,24.1,100.15,2,450.405
8/17/2012 18:00,23.9,16.1,62,24,48.3,100.19,2,715.223
8/17/2012 19:00,23.4,16.3,64,17,48.3,100.24,1,512.127
8/17/2012 20:00,22.4,15.8,66,13,25,100.34,1,353.869
8/17/2012 21:00,21.7,14.9,65,9,25,100.37,1,81.5994
8/17/2012 22:00,21.1,14.2,65,13,25,100.4,1,4.60815
8/17/2012 23:00,18.6,13,70,13,25,100.44,1,5.97798
8/18/2012 0:00,18.1,11.3,64,11,25,100.47,1,18.5356
8/18/2012 1:00,17.7,11.3,66,9,25,100.51,1,16.2548
8/18/2012 2:00,15.3,11.1,76,7,25,100.52,1,70.7981
8/18/2012 3:00,15.7,11.2,75,7,25,100.54,1,66.1616
8/18/2012 4:00,14.8,10.9,77,11,25,100.57,1,267.215
8/18/2012 5:00,14.8,11.1,78,13,24.1,100.64,1,341.042
8/18/2012 6:00,15.1,12,82,17,48.3,100.69,1,540.907
8/18/2012 7:00,15.6,12.2,80,20,48.3,100.77,1,493.21
8/18/2012 8:00,17.1,12.6,75,17,48.3,100.79,1,291.549
8/18/2012 9:00,18,11.7,67,19,24.1,100.82,1,199.171
8/18/2012 10:00,18.3,11.6,65,17,24.1,100.83,2,126.285
8/18/2012 11:00,19,10.9,59,19,48.3,100.84,2,1.69035
8/18/2012 12:00,21,11.2,53,22,48.3,100.83,1,1.29152
8/18/2012 13:00,21.2,10.4,50,20,48.3,100.85,1,0.14722
8/18/2012 14:00,20.1,10.2,53,17,48.3,100.81,1,62.7686
8/18/2012 15:00,22,9.3,44,20,48.3,100.79,1,229.589
8/18/2012 16:00,21.3,7.8,42,22,48.3,100.78,2,302.197
8/18/2012 17:00,21.3,8.1,43,13,48.3,100.78,2,528.775
8/18/2012 18:00,20.8,6.9,40,15,48.3,100.8,2,415.257
8/18/2012 19:00,18.4,7.6,49,11,48.3,100.83,1,435.166
8/18/2012 20:00,18.6,7.9,50,7,25,100.88,1,282.872
8/18/2012 21:00,15.9,8.6,62,6,25,100.88,1,76.6518
8/18/2012 22:00,15.2,8.9,66,6,25,100.89,1,4.48053
8/18/2012 23:00,16.6,10.2,66,0,25,100.91,1,6.51869
8/19/2012 0:00,16,11.5,75,9,25,100.96,1,2.4001
8/19/2012 1:00,16.6,9.9,65,13,25,100.98,1,16.7112
8/19/2012 2:00,16.3,11.2,72,13,25,100.96,1,35.0165
8/19/2012 3:00,15.8,11.2,74,11,25,100.94,1,79.8924
8/19/2012 4:00,13.3,10.9,85,7,25,100.94,1,206.714
8/19/2012 5:00,12.8,11,89,9,24.1,100.97,1,606.088
8/19/2012 6:00,15.2,12.2,82,15,48.3,101.02,1,376.786
8/19/2012 7:00,16.5,12.6,78,13,48.3,101.06,1,401.075
8/19/2012 8:00,17.5,13.3,76,15,48.3,101.06,1,288.777
8/19/2012 9:00,19.4,14.3,72,11,48.3,101.06,1,190.116
8/19/2012 10:00,20.6,14.5,68,9,48.3,101.02,1,53.8007
8/19/2012 11:00,22.5,13.8,58,15,48.3,101,1,0.0104
8/19/2012 12:00,23.3,12.7,51,15,48.3,100.93,2,0.3257
8/19/2012 13:00,23.3,11.3,47,13,48.3,100.9,2,40.4723
8/19/2012 14:00,24.5,10.6,42,15,48.3,100.84,2,32.017
8/19/2012 15:00,23.5,11.3,46,17,48.3,100.77,2,169.242
8/19/2012 16:00,23.5,11,45,13,48.3,100.74,2,317.756
8/19/2012 17:00,23.7,10.6,44,13,48.3,100.73,2,525.691
8/19/2012 18:00,22.1,12.3,54,9,48.3,100.74,2,707.404
8/19/2012 19:00,20.7,11.7,56,11,48.3,100.75,2,367.376
8/19/2012 20:00,19.5,12.1,62,6,25,100.83,1,181.867
8/19/2012 21:00,16.7,12.2,75,4,25,100.81,1,72.9881
8/19/2012 22:00,17.6,11.6,68,0,25,100.79,1,32.9518
8/19/2012 23:00,16.8,11.6,71,0,25,100.78,1,1.97838
8/20/2012 0:00,15.4,11.9,80,0,25,100.79,1,7.07224
8/20/2012 1:00,16.5,13.6,83,0,25,100.75,1,22.9071
8/20/2012 2:00,15.3,13.5,89,0,25,100.75,1,78.9631
8/20/2012 3:00,15.6,13.3,86,0,25,100.75,1,203.005
8/20/2012 4:00,15.3,13.2,87,0,25,100.72,1,315.752
8/20/2012 5:00,14.5,13.4,93,0,25,100.72,1,224.887
8/20/2012 6:00,16,12.8,81,6,48.3,100.76,1,559.799
8/20/2012 7:00,17.8,13.6,76,7,48.3,100.77,1,624.073
8/20/2012 8:00,19,14.4,75,11,48.3,100.76,1,623.689
8/20/2012 9:00,20.2,13.9,67,11,48.3,100.78,1,133.63
8/20/2012 10:00,21.6,14.2,63,17,48.3,100.77,2,4.91701
8/20/2012 11:00,23.1,15.7,63,13,48.3,100.74,1,7.61877
8/20/2012 12:00,24.8,13.5,49,17,24.1,100.69,1,13.9546
8/20/2012 13:00,24.6,13.2,49,17,24.1,100.64,1,65.6833
8/20/2012 14:00,25.2,11.7,43,11,24.1,100.62,1,53.425
8/20/2012 15:00,24.6,10.5,41,15,24.1,100.6,1,29.6299
8/20/2012 16:00,24.4,10.4,41,13,24.1,100.56,1,229.508
8/20/2012 17:00,23.8,10.6,43,13,24.1,100.57,1,357.968
8/20/2012 18:00,22.5,10,45,17,24.1,100.64,1,487.922
8/20/2012 19:00,20.1,9,49,9,24.1,100.69,1,388.641
8/20/2012 20:00,18.4,9.4,56,9,25,100.75,1,212.273
8/20/2012 21:00,18.2,9.9,58,7,25,100.77,1,185.89
8/20/2012 22:00,18.5,10,58,7,25,100.78,1,48.9485
8/20/2012 23:00,16.6,10.8,69,6,25,100.8,1,0.01352
8/21/2012 0:00,16.5,10.4,67,4,25,100.82,1,10.7854
8/21/2012 1:00,15,10.8,76,4,25,100.85,1,28.6799
8/21/2012 2:00,15.9,11,73,0,25,100.9,2,123.023
8/21/2012 3:00,15.9,11.3,74,0,25,100.92,2,115.429
8/21/2012 4:00,16.1,11,72,6,25,100.93,1,234.761
8/21/2012 5:00,15,10.3,73,0,24.1,100.99,1,549.54
8/21/2012 6:00,14.6,10.9,78,7,48.3,101.02,1,327.091
8/21/2012 7:00,17.2,12.6,74,6,48.3,101.08,1,223.517
8/21/2012 8:00,19.3,11.8,62,7,48.3,101.12,2,269.975
8/21/2012 9:00,20.4,9.1,48,13,48.3,101.15,2,51.2185
8/21/2012 10:00,21.8,10.9,50,13,48.3,101.18,1,9.41034
8/21/2012 11:00,21.1,9.6,48,11,48.3,101.17,1,13.5853
8/21/2012 12:00,23.7,10.4,43,17,48.3,101.19,1,7.99686
8/21/2012 13:00,23.2,10.3,44,22,48.3,101.19,2,12.5831
8/21/2012 14:00,22.6,10.9,48,15,48.3,101.18,2,8.35921
8/21/2012 15:00,23.4,11.4,47,19,48.3,101.15,2,44.7567
8/21/2012 16:00,23.1,11.9,49,17,48.3,101.14,2,281.536
8/21/2012 17:00,22.6,10.9,48,19,48.3,101.17,2,786.245
8/21/2012 18:00,22.4,10.8,48,13,48.3,101.18,2,454.244
8/21/2012 19:00,22.1,11.7,52,7,48.3,101.21,2,696.272
8/21/2012 20:00,21.5,10.7,50,6,25,101.25,1,239.95
8/21/2012 21:00,19.2,12.9,67,20,24.1,101.36,2,70.0824
8/21/2012 22:00,18.5,13.3,72,6,25,101.33,2,3.32205
8/21/2012 23:00,18.1,13.6,75,4,25,101.34,2,0.06706
8/22/2012 0:00,19,14.6,76,13,25,101.34,2,3.05691
8/22/2012 1:00,18.6,14.7,78,15,25,101.33,3,5.51192
8/22/2012 2:00,18.8,13.8,73,11,25,101.35,2,0.05684
8/22/2012 3:00,18.8,12,65,13,25,101.38,2,297.624
8/22/2012 4:00,18.6,12.1,66,9,25,101.39,2,209.147
8/22/2012 5:00,18,12.4,70,7,48.3,101.41,1,732.781
8/22/2012 6:00,17.6,12.6,72,6,48.3,101.45,1,353.252
8/22/2012 7:00,18.9,12.1,65,15,48.3,101.46,1,407.441
8/22/2012 8:00,19.9,11.7,59,15,48.3,101.48,1,193.233
8/22/2012 9:00,21.1,12.9,59,15,48.3,101.5,2,162.603
8/22/2012 10:00,22,14.1,61,17,48.3,101.5,1,15.8119
8/22/2012 11:00,23.2,13.9,56,24,48.3,101.46,1,10.6704
8/22/2012 12:00,24.4,12.9,49,24,48.3,101.44,1,8.7212
8/22/2012 13:00,25.8,12.8,44,24,48.3,101.39,1,23.461
8/22/2012 14:00,25.5,11.5,42,19,48.3,101.35,1,42.3547
8/22/2012 15:00,25.7,10.9,39,20,48.3,101.33,1,118.086
8/22/2012 16:00,25.6,10.6,39,28,48.3,101.28,1,266.631
8/22/2012 17:00,25.4,10.9,40,15,48.3,101.27,1,547.481
8/22/2012 18:00,25.1,10.5,40,11,48.3,101.24,1,767.513
8/22/2012 19:00,23.9,12.7,49,9,48.3,101.25,1,306.786
8/22/2012 20:00,23.3,14.6,58,13,25,101.28,1,273.808
8/22/2012 21:00,22.5,14.2,59,15,25,101.29,1,177.51
8/22/2012 22:00,21.9,14,61,17,25,101.27,1,25.508
8/22/2012 23:00,21.5,12.7,57,19,25,101.26,1,0.04428
8/23/2012 0:00,20.7,12,57,11,24.1,101.29,1,14.8878
8/23/2012 1:00,20.2,12.9,63,13,25,101.29,1,5.67389
8/23/2012 2:00,19.3,13,67,13,25,101.32,2,53.2531
8/23/2012 3:00,18.9,12.8,68,13,25,101.31,1,120.237
8/23/2012 4:00,18.9,13.5,71,15,25,101.31,1,326.943
8/23/2012 5:00,18.5,14.3,77,15,25,101.33,1,605.515
8/23/2012 6:00,19.1,15.2,78,24,24.1,101.36,1,495.969
8/23/2012 7:00,20.3,15.9,76,19,24.1,101.37,1,737.185
8/23/2012 8:00,21.8,15.8,69,22,24.1,101.37,1,383.276
8/23/2012 9:00,22.9,16.8,69,24,48.3,101.39,1,153.624
8/23/2012 10:00,23.9,15.1,58,22,48.3,101.39,1,15.4586
8/23/2012 11:00,26,16,54,24,48.3,101.37,1,0.00822
8/23/2012 12:00,26.5,15.5,51,28,48.3,101.36,2,2.25106
8/23/2012 13:00,27,15.6,50,26,48.3,101.37,2,29.7185
8/23/2012 14:00,25,15.4,55,13,24.1,101.37,3,76.6334
8/23/2012 15:00,25.8,16.2,55,19,48.3,101.35,2,162.34
8/23/2012 16:00,25.6,15.5,54,22,48.3,101.34,1,280.501
8/23/2012 17:00,25.9,15.7,53,17,48.3,101.33,1,432.564
8/23/2012 18:00,25,16,57,11,48.3,101.34,1,468.194
8/23/2012 19:00,22.6,15.8,65,9,25,101.36,1,334.72
8/23/2012 20:00,21.8,16.1,70,7,25,101.41,1,185.82
8/23/2012 21:00,22.9,16.6,68,7,25,101.47,1,218.287
8/23/2012 22:00,20.5,16.3,77,6,25,101.53,2,130.107
8/23/2012 23:00,21.8,16.7,73,6,25,101.55,1,4.99061
8/24/2012 0:00,19.1,16.2,83,4,25,101.59,1,1.3331
8/24/2012 1:00,19.2,15.6,80,13,25,101.62,1,52.7534
8/24/2012 2:00,20.4,12.4,60,9,25,101.63,2,65.26
8/24/2012 3:00,19.6,12.4,63,13,25,101.64,1,109.438
8/24/2012 4:00,19,12.6,66,13,25,101.65,1,320.563
8/24/2012 5:00,16.4,13.7,84,6,48.3,101.72,1,766.414
8/24/2012 6:00,16.6,12.9,79,11,48.3,101.76,1,632.049
8/24/2012 7:00,18.5,12.4,68,11,24.1,101.78,1,608.192
8/24/2012 8:00,20.7,13,61,7,24.1,101.8,1,201.041
8/24/2012 9:00,22.1,13.1,57,9,48.3,101.81,1,244.715
8/24/2012 10:00,24.2,13.3,51,13,48.3,101.84,1,21.013
8/24/2012 11:00,25.4,13.4,47,0,48.3,101.82,1,19.4961
8/24/2012 12:00,26.5,13.9,46,6,48.3,101.8,1,0.29132
8/24/2012 13:00,27.3,14.2,45,4,48.3,101.77,1,33.7543
8/24/2012 14:00,27.7,13.5,42,11,48.3,101.71,1,13.1223
8/24/2012 15:00,27.7,12.5,39,9,48.3,101.69,1,227.216
8/24/2012 16:00,27.9,13.3,41,11,48.3,101.68,1,354.499
8/24/2012 17:00,27.3,13.7,43,6,48.3,101.7,1,522.397
8/24/2012 18:00,25.8,14.2,49,6,24.1,101.71,1,624.896
8/24/2012 19:00,26.1,13.4,45,11,25,101.73,2,358.844
8/24/2012 20:00,25.9,13.1,45,13,25,101.76,2,195.451
8/24/2012 21:00,24.9,13.3,48,7,25,101.77,1,55.233
8/24/2012 22:00,23,14.3,58,11,25,101.77,1,8.40755
8/24/2012 23:00,22.4,13.8,58,13,25,101.79,1,16.6593
8/25/2012 0:00,22.1,13.9,60,9,25,101.8,2,5.29986
8/25/2012 1:00,21.6,14,62,11,25,101.77,1,32.7776
8/25/2012 2:00,20.9,13.7,63,6,25,101.8,1,81.4802
8/25/2012 3:00,20.9,14,65,6,25,101.8,1,144.341
8/25/2012 4:00,20.8,14.3,66,11,25,101.81,1,438.896
8/25/2012 5:00,20.4,14.6,69,4,24.1,101.88,1,644.838
8/25/2012 6:00,20.2,15.1,72,6,24.1,101.93,1,604.175
8/25/2012 7:00,21.5,15.9,70,6,24.1,101.96,1,423.692
8/25/2012 8:00,21.9,16.4,71,4,24.1,101.96,1,247.244
8/25/2012 9:00,24.8,16.7,61,6,48.3,101.97,1,140.361
8/25/2012 10:00,26.4,16.6,55,7,48.3,101.97,1,52.6143
8/25/2012 11:00,27.1,17,54,7,48.3,101.94,1,0.92268
8/25/2012 12:00,29.1,17.3,49,7,48.3,101.92,1,0.81033
8/25/2012 13:00,30.1,16.7,45,11,48.3,101.84,1,7.77238
8/25/2012 14:00,30.8,15.7,40,7,48.3,101.79,1,10.455
8/25/2012 15:00,31.1,15.2,38,9,48.3,101.75,1,330.499
8/25/2012 16:00,31.1,16.6,42,13,48.3,101.74,1,197.267
8/25/2012 17:00,30.2,17.1,45,11,48.3,101.72,1,603.185
8/25/2012 18:00,28.9,16.5,47,13,48.3,101.74,1,276.94
8/25/2012 19:00,27,16.3,52,9,25,101.76,1,437.713
8/25/2012 20:00,26.5,16.6,55,13,25,101.78,1,342.129
8/25/2012 21:00,25.3,17.1,60,11,25,101.76,1,333.453
8/25/2012 22:00,23.9,17.3,67,9,25,101.8,1,89.3188
8/25/2012 23:00,24,18,69,9,25,101.83,1,2.12559
8/26/2012 0:00,22.1,18,78,11,25,101.85,1,0.37143
8/26/2012 1:00,22.4,18.4,78,6,25,101.89,1,37.7137
8/26/2012 2:00,23.4,16.9,67,7,25,101.9,1,25.2565
8/26/2012 3:00,23.5,16.9,66,15,25,101.91,1,149.653
8/26/2012 4:00,23.2,16.9,68,7,25,101.95,1,307.686
8/26/2012 5:00,21.2,16.9,76,6,24.1,102.02,1,570.203
8/26/2012 6:00,20.9,17.2,79,0,24.1,102.06,1,479.862
8/26/2012 7:00,22.9,17.1,70,9,24.1,102.1,1,340.538
8/26/2012 8:00,24.2,17.3,65,15,24.1,102.09,1,319.17
8/26/2012 9:00,24.7,17.5,64,11,24.1,102.08,1,298.594
8/26/2012 10:00,26.3,17.7,59,15,48.3,102.07,1,74.9472
8/26/2012 11:00,27.9,17.4,53,20,48.3,102.04,1,0.08277
8/26/2012 12:00,28.9,17.1,49,17,48.3,101.99,1,0.83205
8/26/2012 13:00,29.7,16.7,46,13,48.3,101.92,1,4.45144
8/26/2012 14:00,30.2,15.5,41,17,48.3,101.81,1,26.2286
8/26/2012 15:00,30.1,15.7,42,13,48.3,101.76,1,186.424
8/26/2012 16:00,30.4,16.1,42,11,48.3,101.68,1,300.067
8/26/2012 17:00,29.5,16.8,46,4,48.3,101.62,1,583.023
8/26/2012 18:00,28.5,15.2,44,11,48.3,101.56,1,506.578
8/26/2012 19:00,27.2,14.9,47,15,25,101.55,1,478.53
8/26/2012 20:00,25.7,15.8,54,11,25,101.56,1,230.131
8/26/2012 21:00,24.8,16.1,58,9,25,101.55,2,83.0429
8/26/2012 22:00,23.9,16.9,65,15,25,101.52,2,4.25047
8/26/2012 23:00,24.3,17.5,66,15,25,101.51,2,5.10306
8/27/2012 0:00,24.3,16.9,63,15,25,101.49,2,10.3983
8/27/2012 1:00,23.2,17,68,11,25,101.44,1,10.9028
8/27/2012 2:00,22.3,16.2,68,11,25,101.43,2,7.77532
8/27/2012 3:00,21.8,15.9,69,11,25,101.4,2,135.889
8/27/2012 4:00,22.4,15.8,66,13,25,101.37,2,350.062
8/27/2012 5:00,21.4,15.7,70,15,24.1,101.36,2,429.508
8/27/2012 6:00,22,16.4,71,13,24.1,101.38,2,316.506
8/27/2012 7:00,23.1,16.9,68,13,24.1,101.36,2,806.554
8/27/2012 8:00,24.7,16.7,61,17,24.1,101.33,2,527.605
8/27/2012 9:00,25.6,17.5,61,19,48.3,101.31,2,77.1145
8/27/2012 10:00,26,17.9,61,22,48.3,101.25,2,58.0797
8/27/2012 11:00,26.2,18,61,17,24.1,101.19,2,1.20948
8/27/2012 12:00,27.1,18.4,59,20,24.1,101.11,2,2.20118
8/27/2012 13:00,26.7,18.4,60,20,24.1,101.03,2,25.7535
8/27/2012 14:00,26.4,18.2,61,17,24.1,100.95,2,103.99
8/27/2012 15:00,26,18.2,62,15,24.1,100.87,3,82.0514
8/27/2012 16:00,23.6,20.2,81,13,24.1,100.83,3,273.926
8/27/2012 17:00,22.4,20.5,89,13,24.1,100.84,3,434.396
8/27/2012 18:00,22.8,20.3,86,7,25,100.78,2,462.428
8/27/2012 19:00,22.6,20.4,87,7,25,100.71,2,519.612
8/27/2012 20:00,22.8,20.1,85,13,25,100.68,2,306.14
8/27/2012 21:00,21.8,20.6,93,11,25,100.66,2,121.032
8/27/2012 22:00,22.3,20.2,88,15,25,100.63,2,3.84201
8/27/2012 23:00,22.5,19.1,81,22,25,100.59,2,0.70148
8/28/2012 0:00,21.8,19.1,85,26,25,100.53,2,25.5379
8/28/2012 1:00,21.5,19.2,87,15,25,100.49,2,6.73176
8/28/2012 2:00,21.3,19.3,88,15,25,100.46,2,35.4543
8/28/2012 3:00,21.1,19.3,89,13,25,100.44,2,280.166
8/28/2012 4:00,20.9,19.3,91,11,25,100.42,1,168.951
8/28/2012 5:00,20,19,94,13,16.1,100.47,2,559.224
8/28/2012 6:00,20.3,19.3,94,15,19.3,100.5,2,563.936
8/28/2012 7:00,21.4,19.5,89,15,19.3,100.53,2,452.636
8/28/2012 8:00,21.3,18.9,86,15,19.3,100.57,2,239.818
8/28/2012 9:00,22.7,16.7,69,24,48.3,100.59,1,102.363
8/28/2012 10:00,23.8,15.5,60,15,48.3,100.61,1,12.7244
8/28/2012 11:00,22.6,15.1,63,13,48.3,100.6,2,1.9763
8/28/2012 12:00,25.2,13.9,50,22,48.3,100.6,1,6.28317
8/28/2012 13:00,25.4,12.1,44,30,48.3,100.61,1,2.50415
8/28/2012 14:00,24.2,10,41,30,48.3,100.61,1,35.1278
8/28/2012 15:00,23.2,8.8,40,28,48.3,100.65,1,89.4853
8/28/2012 16:00,22.4,8.7,42,24,48.3,100.71,1,291.993
8/28/2012 17:00,21.5,7.7,41,22,48.3,100.76,1,628.946
8/28/2012 18:00,20,7.3,44,20,48.3,100.79,1,637.45
8/28/2012 19:00,19.3,7.4,46,17,25,100.87,2,414.03
8/28/2012 20:00,16.9,6.9,52,15,25,100.97,1,658.105
8/28/2012 21:00,14.9,7.1,60,7,25,101.01,1,90.2567
8/28/2012 22:00,13.9,7.4,65,9,25,101.01,1,3.28945
8/28/2012 23:00,14.1,8.7,70,7,25,101.05,2,5.05268
8/29/2012 0:00,12,8.2,78,7,25,101.06,1,0.2034
8/29/2012 1:00,11.5,8,79,9,25,101.07,2,51.6389
8/29/2012 2:00,13.4,8.6,73,11,25,101.08,2,37.3254
8/29/2012 3:00,11,7.7,80,9,25,101.06,1,225.583
8/29/2012 4:00,10.5,7.6,82,7,25,101.06,1,217.668
8/29/2012 5:00,10.5,7.9,84,7,48.3,101.07,1,375.707
8/29/2012 6:00,12,8.9,81,9,48.3,101.1,1,264.157
8/29/2012 7:00,16,8.1,59,19,48.3,101.13,1,741.587
8/29/2012 8:00,18,7.4,50,20,48.3,101.13,1,163.07
8/29/2012 9:00,19.6,7.9,47,22,48.3,101.11,1,111.23
8/29/2012 10:00,20.7,8.1,44,20,48.3,101.09,1,21.4818
8/29/2012 11:00,21.9,8.5,42,22,48.3,101.07,1,5.71822
8/29/2012 12:00,22.6,8.2,40,26,48.3,101.01,1,3.75275
8/29/2012 13:00,23.5,7.9,37,32,48.3,100.98,1,10.9122
8/29/2012 14:00,24.7,8.3,35,20,48.3,100.92,1,0.77195
8/29/2012 15:00,24.2,8,36,32,48.3,100.87,1,109.904
8/29/2012 16:00,24.2,8.1,36,24,48.3,100.86,1,258.384
8/29/2012 17:00,23.5,7.6,36,26,48.3,100.86,1,642.036
8/29/2012 18:00,22.5,6.9,36,19,48.3,100.87,1,572.381
8/29/2012 19:00,21.7,6.7,38,15,48.3,100.89,1,683.449
8/29/2012 20:00,19.7,7.1,44,9,25,100.92,1,317.495
8/29/2012 21:00,19.7,7.3,45,15,25,100.93,1,119.125
8/29/2012 22:00,19.5,8.7,50,22,25,100.93,1,143.815
8/29/2012 23:00,18.3,9.9,58,20,25,100.97,1,0.42203
8/30/2012 0:00,17.5,10.6,64,19,25,100.96,1,7.44247
8/30/2012 1:00,17,11.5,70,11,25,100.92,1,9.08182
8/30/2012 2:00,15.4,12.1,81,11,25,100.97,2,18.3886
8/30/2012 3:00,16.2,11.7,75,17,25,100.93,1,347.585
8/30/2012 4:00,15.1,11.8,81,15,25,100.96,1,249.362
8/30/2012 5:00,15.5,11.7,78,20,48.3,100.97,1,528.94
8/30/2012 6:00,16.3,11.8,75,26,48.3,100.95,2,670.233
8/30/2012 7:00,16.8,11.8,72,20,24.1,100.95,1,469.48
8/30/2012 8:00,17.9,12.6,71,24,24.1,100.94,1,219.913
8/30/2012 9:00,19.6,13.2,67,32,48.3,100.93,1,130.232
8/30/2012 10:00,21.8,13.3,58,26,48.3,100.88,1,8.96177
8/30/2012 11:00,23.1,14,57,33,48.3,100.84,1,0.20418
8/30/2012 12:00,25,15.4,55,32,48.3,100.79,1,14.6215
8/30/2012 13:00,26.7,16.6,54,37,48.3,100.73,1,8.2562
8/30/2012 14:00,27.8,16.5,50,26,48.3,100.65,1,95.8359
8/30/2012 15:00,28.5,17,50,35,48.3,100.61,1,109.066
8/30/2012 16:00,27.8,16.2,49,33,48.3,100.54,2,227.869
8/30/2012 17:00,27.4,16.5,51,41,48.3,100.53,2,277.9
8/30/2012 18:00,26.6,16.3,53,35,48.3,100.5,2,796.267
8/30/2012 19:00,25.5,16.3,57,43,25,100.49,2,341.633
8/30/2012 20:00,24.5,15.2,56,39,25,100.51,2,258.316
8/30/2012 21:00,24.5,15.6,58,44,25,100.53,1,179.601
8/30/2012 22:00,24.2,15.5,58,41,25,100.54,1,9.40578
8/30/2012 23:00,23.7,15.6,60,37,25,100.57,1,25.1592
8/31/2012 0:00,23.4,14.5,57,33,25,100.55,1,17.809
8/31/2012 1:00,23.5,14.1,56,35,25,100.51,1,38.0801
8/31/2012 2:00,23.2,13.9,56,35,25,100.5,1,28.5818
8/31/2012 3:00,22.8,12.3,52,28,25,100.52,2,85.4605
8/31/2012 4:00,22.8,13,54,28,25,100.47,2,260.88
8/31/2012 5:00,22.6,14.6,61,28,24.1,100.45,2,675.394
8/31/2012 6:00,22.5,16.1,67,30,24.1,100.51,3,656.572
8/31/2012 7:00,22.6,16.4,68,32,24.1,100.48,3,457.57
8/31/2012 8:00,22.9,15.9,65,37,24.1,100.49,2,272.553
8/31/2012 9:00,21.8,17.1,75,35,24.1,100.5,3,150.797
8/31/2012 10:00,19.7,17.8,89,20,24.1,100.54,3,24.6582
8/31/2012 11:00,21.1,18.6,86,26,24.1,100.52,2,0
8/31/2012 12:00,22.8,18.6,77,20,24.1,100.49,3,6.30357
8/31/2012 13:00,24,18.2,70,22,24.1,100.43,2,10.4603
8/31/2012 14:00,24.1,18.2,70,22,24.1,100.38,2,4.49918
8/31/2012 15:00,25.6,18.6,65,30,24.1,100.35,2,133.607
8/31/2012 16:00,24.8,18.5,68,20,24.1,100.38,2,311.074
8/31/2012 17:00,25,18.4,67,17,24.1,100.41,2,586.373
8/31/2012 18:00,24.2,18.6,71,13,24.1,100.47,2,589.271
8/31/2012 19:00,23.1,18.9,77,9,25,100.52,1,495.89
8/31/2012 20:00,22.3,19.1,82,11,25,100.61,1,233.426
8/31/2012 21:00,21.6,19,85,11,25,100.65,1,267.452
8/31/2012 22:00,21.7,16.9,74,20,25,100.78,1,10.2458
8/31/2012 23:00,20.8,12.9,61,11,25,100.84,1,0.49404
9/1/2012 0:00,19.6,13.1,66,11,25,100.94,1,16.7175
9/1/2012 1:00,19.1,12.5,66,4,25,101,1,3.23819
9/1/2012 2:00,19.1,12.6,66,9,25,101.05,1,60.8157
9/1/2012 3:00,17.7,12.8,73,11,25,101.13,1,168.841
9/1/2012 4:00,16.3,12.8,80,11,25,101.21,1,242.222
9/1/2012 5:00,16,12.9,82,13,25,101.31,1,539.79
9/1/2012 6:00,16.2,12.5,79,13,48.3,101.41,1,611.303
9/1/2012 7:00,17.8,10.6,63,24,48.3,101.48,1,332.066
9/1/2012 8:00,18.6,9.5,55,20,48.3,101.54,1,250.144
9/1/2012 9:00,20.4,8.8,47,15,48.3,101.59,1,240.915
9/1/2012 10:00,22,8.5,42,20,48.3,101.6,1,6.37303
9/1/2012 11:00,22.7,6.2,34,15,48.3,101.6,1,6.42947
9/1/2012 12:00,23.2,7,35,13,48.3,101.57,1,5.29223
9/1/2012 13:00,23.6,7,34,6,48.3,101.54,1,23.9319
9/1/2012 14:00,23.5,6.7,34,7,48.3,101.47,1,46.8843
9/1/2012 15:00,24.3,7.3,34,7,48.3,101.44,1,73.9789
9/1/2012 16:00,24.2,7,33,4,48.3,101.43,1,249.852
9/1/2012 17:00,24,6.6,33,7,48.3,101.39,1,356.157
9/1/2012 18:00,22.7,8.4,40,9,48.3,101.41,1,701.185
9/1/2012 19:00,20.9,8.3,44,6,48.3,101.45,1,364.867
9/1/2012 20:00,18.8,9.9,56,11,25,101.46,1,221.913
9/1/2012 21:00,18.5,7.6,49,7,25,101.47,1,111.791
9/1/2012 22:00,17.5,9.2,58,6,25,101.46,1,139.852
9/1/2012 23:00,17,9.1,60,7,25,101.45,1,1.11792
9/2/2012 0:00,16.1,9,63,4,25,101.47,1,2.36234
9/2/2012 1:00,14,9.3,73,4,25,101.47,1,29.9072
9/2/2012 2:00,13.5,9.5,77,4,25,101.47,1,58.5361
9/2/2012 3:00,13,9.5,79,0,25,101.43,1,195.949
9/2/2012 4:00,13.3,9.7,79,0,25,101.41,1,293.215
9/2/2012 5:00,14.2,10.2,77,6,25,101.43,1,281.272
9/2/2012 6:00,13,10.8,86,7,24.1,101.48,1,461.884
9/2/2012 7:00,15.5,11.6,78,4,48.3,101.49,1,276.823
9/2/2012 8:00,17.3,11.7,70,7,48.3,101.51,2,347.207
9/2/2012 9:00,19.1,11.5,61,4,48.3,101.52,2,129.201
9/2/2012 10:00,20.7,11.4,55,6,48.3,101.53,2,33.165
9/2/2012 11:00,21.8,10.3,48,4,48.3,101.52,2,6.29039
9/2/2012 12:00,24.4,8.8,37,4,48.3,101.49,1,1.61393
9/2/2012 13:00,25.5,7,31,9,48.3,101.47,1,21.3381
9/2/2012 14:00,25.3,7.4,32,9,48.3,101.45,1,19.255
9/2/2012 15:00,25.6,6.5,29,7,48.3,101.41,1,195.019
9/2/2012 16:00,25.4,6,29,11,48.3,101.43,1,382.466
9/2/2012 17:00,23.6,6.9,34,9,48.3,101.44,1,589.857
9/2/2012 18:00,24,6.8,33,11,48.3,101.47,1,566.606
9/2/2012 19:00,20.9,8.4,45,13,48.3,101.51,1,261.476
9/2/2012 20:00,21.2,8.5,44,9,25,101.52,1,288.672
9/2/2012 21:00,19.7,9.4,51,7,25,101.53,1,86.9181
9/2/2012 22:00,19.2,10,55,4,25,101.57,1,119.142
9/2/2012 23:00,18.7,9.8,56,4,25,101.57,1,6.31867
9/3/2012 0:00,17.5,10.2,62,7,25,101.6,1,10.6943
9/3/2012 1:00,15.6,9.3,66,0,25,101.61,1,18.6183
9/3/2012 2:00,13.7,8.9,73,6,25,101.59,1,4.25047
9/3/2012 3:00,14,10.4,79,4,25,101.61,1,157.455
9/3/2012 4:00,13.4,11,85,6,25,101.63,1,329.327
9/3/2012 5:00,14.5,10.3,76,6,25,101.68,1,429.113
9/3/2012 6:00,13.4,10.7,84,6,48.3,101.68,1,610.431
9/3/2012 7:00,16.3,12.2,77,7,48.3,101.69,1,411.573
9/3/2012 8:00,18.5,13,70,11,48.3,101.67,1,221.405
9/3/2012 9:00,21.1,11.8,55,9,48.3,101.65,1,175.592
9/3/2012 10:00,23.5,11.7,47,9,48.3,101.63,1,4.34117
9/3/2012 11:00,24.3,10.9,43,9,48.3,101.59,1,2.62996
9/3/2012 12:00,26,11.1,39,13,48.3,101.54,1,7.59007
9/3/2012 13:00,26.2,10,36,4,48.3,101.5,1,39.558
9/3/2012 14:00,28,10.4,33,0,48.3,101.41,1,22.8781
9/3/2012 15:00,27.8,10.5,34,13,48.3,101.33,1,133.701
9/3/2012 16:00,27.8,11.4,36,4,48.3,101.29,2,326.382
9/3/2012 17:00,26.6,12.8,42,13,48.3,101.25,2,371.785
9/3/2012 18:00,25.8,12.5,44,13,48.3,101.2,2,575.555
9/3/2012 19:00,25.3,12.4,45,9,25,101.19,2,316.366
9/3/2012 20:00,25,12.6,46,9,25,101.21,2,747.339
9/3/2012 21:00,24.2,12.8,49,15,25,101.19,1,223.748
9/3/2012 22:00,22.7,14.7,61,13,25,101.19,1,32.3631
9/3/2012 23:00,21.1,15.8,72,11,25,101.18,1,7.33182
9/4/2012 0:00,20.6,15.9,74,9,25,101.21,1,4.94338
9/4/2012 1:00,21.1,16,73,9,25,101.2,2,25.3281
9/4/2012 2:00,20.8,15.8,73,13,25,101.16,2,20.2926
9/4/2012 3:00,20.9,15.3,70,7,25,101.14,2,99.9117
9/4/2012 4:00,20.8,14.8,69,6,25,101.13,2,156.903
9/4/2012 5:00,20.7,14.6,68,9,25,101.11,2,552.279
9/4/2012 6:00,20.7,15.3,71,15,25,101.15,2,373.398
9/4/2012 7:00,20.5,16.1,76,17,24.1,101.13,2,633.872
9/4/2012 8:00,21.1,16.4,75,15,24.1,101.11,2,250.749
9/4/2012 9:00,22,16.9,73,11,24.1,101.1,2,47.22
9/4/2012 10:00,22.9,17.2,70,9,24.1,101.08,2,17.8729
9/4/2012 11:00,25,17.5,63,15,24.1,101.02,2,2.27944
9/4/2012 12:00,25.6,18,63,6,24.1,100.94,2,5.30771
9/4/2012 13:00,25.2,17.8,64,9,24.1,100.89,2,25.2687
9/4/2012 14:00,24.7,18,66,15,24.1,100.83,2,23.6988
9/4/2012 15:00,24.1,17.8,68,19,24.1,100.81,2,158.12
9/4/2012 16:00,23.5,17.7,70,15,24.1,100.77,2,394.917
9/4/2012 17:00,23.3,18,72,15,24.1,100.74,2,533.732
9/4/2012 18:00,21.8,19.2,85,9,19.3,100.73,3,570.408
9/4/2012 19:00,20.8,19.7,93,7,12.9,100.7,3,310.979
9/4/2012 20:00,20.7,19.9,95,9,12.9,100.68,3,366.703
9/4/2012 21:00,21.1,19.7,92,9,19.3,100.66,3,228.993
9/4/2012 22:00,20.7,19.7,94,15,19.3,100.61,3,7.66937
9/4/2012 23:00,20.2,19.2,94,9,19.3,100.47,3,21.5583
9/5/2012 0:00,20.3,19.1,93,13,19.3,100.43,3,0.0265
9/5/2012 1:00,20,18.6,92,13,16.1,100.35,3,30.1397
9/5/2012 2:00,19.1,18.2,95,17,25,100.35,3,5.98596
9/5/2012 3:00,18.6,17.7,95,15,25,100.39,2,103.289
9/5/2012 4:00,18.5,17.6,94,11,25,100.43,2,403.94
9/5/2012 5:00,17.6,17.1,97,7,25,100.46,2,390.076
9/5/2012 6:00,18.2,17.4,95,7,24.1,100.51,2,335.537
9/5/2012 7:00,19.5,18.3,93,11,24.1,100.55,1,501.751
9/5/2012 8:00,21.3,18.6,85,13,48.3,100.51,1,296.256
9/5/2012 9:00,22.4,18.5,79,15,24.1,100.54,2,180.106
9/5/2012 10:00,23.3,18.9,76,11,24.1,100.59,2,7.05839
9/5/2012 11:00,23.4,17.9,71,7,24.1,100.57,3,1.35544
9/5/2012 12:00,25.5,19.2,68,11,24.1,100.54,1,10.5036
9/5/2012 13:00,25.9,18.3,63,11,24.1,100.52,1,11.8401
9/5/2012 14:00,26.4,18.1,60,13,24.1,100.49,1,14.8106
9/5/2012 15:00,26.2,17.6,59,11,24.1,100.47,1,69.324
9/5/2012 16:00,27,17.7,57,9,24.1,100.45,1,465.273
9/5/2012 17:00,26.1,17.2,58,13,24.1,100.44,1,717.301
9/5/2012 18:00,25.8,17.1,59,9,24.1,100.5,1,547.367
9/5/2012 19:00,25.2,17.5,62,6,25,100.55,2,614.125
9/5/2012 20:00,24.2,18.7,71,7,25,100.57,2,220.827
9/5/2012 21:00,24,18.1,70,9,25,100.58,3,122.557
9/5/2012 22:00,22.9,18.2,75,7,25,100.55,2,46.7906
9/5/2012 23:00,22.1,18.1,78,6,25,100.53,1,0.16198
9/6/2012 0:00,21.3,18.1,82,7,25,100.53,1,1.57736
9/6/2012 1:00,21,18.4,85,7,25,100.55,2,15.5098
9/6/2012 2:00,21.3,18.5,84,7,25,100.55,1,15.5301
9/6/2012 3:00,21.1,18.5,85,6,25,100.55,2,50.3976
9/6/2012 4:00,21.1,18.8,87,7,25,100.54,1,321.014
9/6/2012 5:00,21,18.1,84,6,25,100.61,2,503.846
9/6/2012 6:00,19.5,17.8,90,9,25,100.58,2,609.832
9/6/2012 7:00,19.9,17.7,87,7,25,100.62,2,458.453
9/6/2012 8:00,21.1,18.1,83,7,24.1,100.62,2,354.547
9/6/2012 9:00,23.1,18.3,74,6,24.1,100.59,1,226.98
9/6/2012 10:00,24.7,17.8,65,6,24.1,100.55,1,7.19556
9/6/2012 11:00,26.1,18.1,61,13,24.1,100.5,1,2.27083
9/6/2012 12:00,26.8,17.3,56,15,24.1,100.45,1,0.09005
9/6/2012 13:00,27.9,17.5,53,11,24.1,100.41,1,28.8248
9/6/2012 14:00,28.1,17.8,54,13,24.1,100.34,2,123.366
9/6/2012 15:00,28.2,18.4,55,13,24.1,100.3,1,188.578
9/6/2012 16:00,27.6,17.9,56,19,24.1,100.31,1,356.941
9/6/2012 17:00,26.9,17.6,57,17,24.1,100.36,1,459.402
9/6/2012 18:00,24.8,16.5,60,9,24.1,100.38,1,345.623
9/6/2012 19:00,22.6,16.5,68,6,25,100.42,1,651.6
9/6/2012 20:00,22.5,16.8,70,11,25,100.47,1,291.108
9/6/2012 21:00,21.4,15.1,67,7,25,100.52,1,134.946
9/6/2012 22:00,19.6,15,75,9,25,100.55,1,4.54599
9/6/2012 23:00,20.2,14.6,70,0,25,100.59,1,7.21845
9/7/2012 0:00,18.1,14.8,81,4,24.1,100.62,1,9.50147
9/7/2012 1:00,18.7,14.5,77,4,25,100.62,1,18.1531
9/7/2012 2:00,17.6,15.6,88,9,25,100.62,1,11.294
9/7/2012 3:00,18.5,14.5,78,6,25,100.68,1,243.23
9/7/2012 4:00,18.3,14.2,77,6,25,100.68,1,327.274
9/7/2012 5:00,15.8,14.3,91,7,25,100.72,1,783.675
9/7/2012 6:00,17.5,14.6,83,11,48.3,100.77,1,460.039
9/7/2012 7:00,18.6,14.4,77,15,48.3,100.81,2,578.413
9/7/2012 8:00,19.9,13.9,68,9,48.3,100.79,2,222.544
9/7/2012 9:00,21.2,14.4,65,19,48.3,100.8,2,264.913
9/7/2012 10:00,22.2,15.8,67,19,48.3,100.82,2,69.0747
9/7/2012 11:00,22.6,15.4,64,19,48.3,100.84,2,3.15451
9/7/2012 12:00,23.3,14,56,17,48.3,100.82,2,5.14758
9/7/2012 13:00,24.6,12.7,47,17,48.3,100.8,2,24.3795
9/7/2012 14:00,25.6,12.5,44,9,48.3,100.76,2,39.3477
9/7/2012 15:00,25.1,10.5,40,13,48.3,100.72,2,170.641
9/7/2012 16:00,25,9.9,38,6,48.3,100.7,2,194.522
9/7/2012 17:00,24.6,10.2,40,0,48.3,100.64,2,269.781
9/7/2012 18:00,23.5,11.8,48,0,24.1,100.6,2,661.474
9/7/2012 19:00,21.7,12,54,6,25,100.61,2,443.541
9/7/2012 20:00,23.2,11.9,49,4,25,100.58,2,452.43
9/7/2012 21:00,22.9,13.4,55,6,25,100.5,2,81.3453
9/7/2012 22:00,21.6,14.8,65,9,25,100.45,2,16.4857
9/7/2012 23:00,21.4,15.3,68,17,24.1,100.29,2,0.1343
9/8/2012 0:00,21.1,16.1,73,13,25,100.21,2,29.3725
9/8/2012 1:00,20.5,16.6,78,6,25,100.21,2,25.4597
9/8/2012 2:00,21.1,16,73,7,25,100.12,2,57.1202
9/8/2012 3:00,21.1,16.2,74,9,25,99.98,2,333.39
9/8/2012 4:00,21.9,15.8,68,17,25,99.85,3,208.787
9/8/2012 5:00,18.6,16.7,89,11,25,99.93,2,442.53
9/8/2012 6:00,18.7,16.6,88,17,24.1,99.82,2,522.932
9/8/2012 7:00,21,17.8,82,20,19.3,99.77,2,509.659
9/8/2012 8:00,20.9,17.7,82,9,19.3,99.66,2,323.417
9/8/2012 9:00,23.2,19,77,13,19.3,99.54,2,64.8117
9/8/2012 10:00,25.9,19.5,68,28,19.3,99.35,2,6.26408
9/8/2012 11:00,26.5,18.9,63,35,19.3,99.27,2,0.82889
9/8/2012 12:00,26.1,17.9,61,39,19.3,99.21,2,27.2062
9/8/2012 13:00,25.5,17.4,61,24,24.1,99.08,2,15.227
9/8/2012 14:00,26,18.4,63,33,24.1,98.94,3,42.1676
9/8/2012 15:00,24.4,20.2,77,30,16.1,98.89,3,145.949
9/8/2012 16:00,20.4,18.2,87,39,24.1,99.09,3,198.366
9/8/2012 17:00,20.6,16.2,76,33,48.3,99.17,2,460.273
9/8/2012 18:00,20.5,16,75,39,24.1,99.33,2,408.849
9/8/2012 19:00,19.9,14.6,72,37,25,99.44,2,429.219
9/8/2012 20:00,19.2,13.2,68,43,25,99.51,1,230.536
9/8/2012 21:00,16.1,12.7,80,44,25,99.67,2,88.1687
9/8/2012 22:00,14.2,10.8,80,30,25,99.87,2,2.02702
9/8/2012 23:00,14.5,10.2,75,28,25,100.06,2,0.35446
9/9/2012 0:00,14.3,9.4,72,30,25,100.18,2,25.9673
9/9/2012 1:00,13.9,9.6,75,28,25,100.26,2,17.3206
9/9/2012 2:00,13.7,9.6,76,24,25,100.3,2,21.6969
9/9/2012 3:00,12.6,9.4,81,17,25,100.28,1,171.733
9/9/2012 4:00,12.2,9.5,84,20,25,100.39,1,309.845
9/9/2012 5:00,11.5,9.5,88,11,25,100.44,1,383.063
9/9/2012 6:00,11,9.6,91,6,24.1,100.5,1,451.998
9/9/2012 7:00,12.1,9.8,86,7,24.1,100.57,1,358.178
9/9/2012 8:00,13.7,9.9,78,17,24.1,100.6,1,297.065
9/9/2012 9:00,14.8,8.8,67,17,48.3,100.65,1,284.818
9/9/2012 10:00,15.7,9,64,17,48.3,100.69,2,8.55173
9/9/2012 11:00,16.8,9,60,19,48.3,100.66,1,0.81369
9/9/2012 12:00,17.3,8.9,58,22,48.3,100.65,1,0.81116
9/9/2012 13:00,17.3,8.6,57,11,48.3,100.68,1,16.2432
9/9/2012 14:00,18.1,8.4,53,19,48.3,100.67,2,51.7841
9/9/2012 15:00,17.6,8.9,57,17,48.3,100.67,2,267.018
9/9/2012 16:00,17.9,8.4,54,22,48.3,100.71,1,270.761
9/9/2012 17:00,15.6,8.4,62,15,48.3,100.76,1,425.059
9/9/2012 18:00,15.5,8.6,63,11,48.3,100.8,2,395.186
9/9/2012 19:00,15.2,8.6,65,11,25,100.83,2,538.033
9/9/2012 20:00,14.1,8.6,69,9,25,100.87,2,412.309
9/9/2012 21:00,13.7,9,73,9,25,100.89,2,297.256
9/9/2012 22:00,14.2,9,71,9,25,100.9,2,43.8025
9/9/2012 23:00,13.9,9.8,76,15,25,100.93,2,0.08892
9/10/2012 0:00,13.4,10.2,81,9,25,100.94,2,2.18307
9/10/2012 1:00,13,10.3,84,9,25,100.95,2,5.67583
9/10/2012 2:00,12.7,9.9,83,11,25,100.96,2,69.8127
9/10/2012 3:00,12.4,9.5,82,11,25,100.98,2,107.859
9/10/2012 4:00,11.3,8.7,84,13,25,101,1,356.112
9/10/2012 5:00,10.4,8.5,88,17,25,101.05,1,442.622
9/10/2012 6:00,10.1,8.1,87,17,24.1,101.15,1,631.931
9/10/2012 7:00,11.5,7.6,77,15,24.1,101.23,1,446.662
9/10/2012 8:00,12.8,7.1,68,19,24.1,101.29,2,497.411
9/10/2012 9:00,13.3,7.3,67,15,24.1,101.33,1,261.153
9/10/2012 10:00,14.4,6.5,59,15,24.1,101.32,2,1.08203
9/10/2012 11:00,14.9,6.3,56,19,48.3,101.31,2,30.1635
9/10/2012 12:00,16,6.1,52,20,48.3,101.31,2,4.94443
9/10/2012 13:00,16.6,6,50,13,48.3,101.32,2,53.1801
9/10/2012 14:00,17.5,6.1,47,20,48.3,101.3,2,41.4551
9/10/2012 15:00,17.8,5.9,46,24,24.1,101.27,2,265.178
9/10/2012 16:00,16.7,5.1,46,20,48.3,101.31,2,338.362
9/10/2012 17:00,16.1,4.9,47,20,48.3,101.39,2,383.859
9/10/2012 18:00,14.5,4.9,52,17,24.1,101.43,2,428.44
9/10/2012 19:00,13.5,4.9,56,9,25,101.47,1,504.491
9/10/2012 20:00,10.9,5.7,70,7,25,101.54,1,273.255
9/10/2012 21:00,9.8,6,77,6,25,101.55,1,238.586
9/10/2012 22:00,9.7,5.9,77,7,25,101.56,1,45.6929
9/10/2012 23:00,9.3,6.4,82,7,25,101.56,1,0.34566
9/11/2012 0:00,8.4,6.2,86,9,25,101.57,1,8.43542
9/11/2012 1:00,8.4,6.3,87,9,25,101.58,1,11.1358
9/11/2012 2:00,8.4,6.9,90,9,25,101.6,1,66.8256
9/11/2012 3:00,9.1,7.3,88,7,25,101.64,1,325.503
9/11/2012 4:00,9.2,6.8,85,4,25,101.7,1,397.104
9/11/2012 5:00,6.9,5.6,91,0,25,101.75,1,528.721
9/11/2012 6:00,7.6,6.3,91,6,24.1,101.83,1,575.004
9/11/2012 7:00,11,8.4,84,9,48.3,101.89,2,448.978
9/11/2012 8:00,13.2,8.9,75,9,48.3,101.92,2,364.827
9/11/2012 9:00,15.1,8.6,65,13,48.3,101.95,2,124.113
9/11/2012 10:00,16.8,8.9,60,17,48.3,101.93,2,7.79009
9/11/2012 11:00,18.4,8.4,52,19,48.3,101.89,1,0.24329
9/11/2012 12:00,18.9,9.1,53,19,48.3,101.87,1,0.95331
9/11/2012 13:00,20.6,9.7,50,20,48.3,101.81,1,37.1688
9/11/2012 14:00,21,8.9,46,20,48.3,101.75,1,36.8968
9/11/2012 15:00,21.3,8.4,44,19,48.3,101.69,1,77.3122
9/11/2012 16:00,21.5,8.9,44,20,48.3,101.67,1,208.921
9/11/2012 17:00,21.4,9.4,46,20,48.3,101.67,1,562.629
9/11/2012 18:00,20.7,10.3,51,17,48.3,101.66,1,429.562
9/11/2012 19:00,19.8,11.1,57,9,25,101.68,1,516.673
9/11/2012 20:00,19.8,11.6,59,15,25,101.73,1,204.392
9/11/2012 21:00,19.1,12.9,67,15,25,101.76,1,194.603
9/11/2012 22:00,18.4,12,66,17,25,101.78,1,110.718
9/11/2012 23:00,17.8,11.9,68,15,25,101.8,1,0.81345
9/12/2012 0:00,17.5,10.6,64,17,25,101.82,1,1.46508
9/12/2012 1:00,17.2,9.9,62,11,25,101.85,1,0.0057
9/12/2012 2:00,14.5,9.6,72,6,25,101.86,1,48.0227
9/12/2012 3:00,13.2,9.9,80,4,25,101.9,1,134.69
9/12/2012 4:00,13.7,10,78,0,25,101.91,1,201.181
9/12/2012 5:00,13.1,10.7,85,6,25,101.96,1,424.819
9/12/2012 6:00,13.5,11.2,86,0,48.3,102.02,1,639.217
9/12/2012 7:00,15.8,11.8,77,9,48.3,102.02,1,461.463
9/12/2012 8:00,17.4,11.1,66,7,48.3,102.04,1,326.631
9/12/2012 9:00,19.6,11.9,61,7,48.3,102.05,1,261.506
9/12/2012 10:00,21.9,13.2,58,11,48.3,102.02,1,38.4084
9/12/2012 11:00,23.9,13.3,51,20,48.3,101.98,1,2.73628
9/12/2012 12:00,25.3,13.4,48,19,48.3,101.95,1,2.819
9/12/2012 13:00,26.1,14,47,13,48.3,101.87,1,2.5095
9/12/2012 14:00,26.9,13.5,44,17,48.3,101.84,1,58.8997
9/12/2012 15:00,27.3,13.4,42,17,48.3,101.8,1,255.301
9/12/2012 16:00,27.3,12.2,39,19,48.3,101.77,1,288.571
9/12/2012 17:00,26.8,11.6,39,17,48.3,101.77,1,504.859
9/12/2012 18:00,25,12.9,47,11,48.3,101.78,1,603.285
9/12/2012 19:00,22.2,15,64,11,25,101.83,1,342.201
9/12/2012 20:00,22.4,14,59,11,25,101.88,1,352.395
9/12/2012 21:00,22.2,13.2,57,11,25,101.91,1,273.719
9/12/2012 22:00,21,14.4,66,13,25,101.95,1,49.1966
9/12/2012 23:00,20.2,14.6,70,11,25,101.96,1,1.43815
9/13/2012 0:00,19.8,13.6,67,9,25,101.96,1,13.7329
9/13/2012 1:00,19.5,13.4,68,7,25,101.97,1,7.78775
9/13/2012 2:00,16.3,12.9,80,11,25,101.98,1,64.1822
9/13/2012 3:00,15.7,13.1,85,9,25,101.96,1,114.384
9/13/2012 4:00,15.5,12.8,84,11,25,101.96,1,317.316
9/13/2012 5:00,14.9,11.8,82,4,25,102,1,543.459
9/13/2012 6:00,15.7,12.4,81,6,48.3,102.02,1,652.124
9/13/2012 7:00,18.1,13.8,76,6,48.3,102.03,1,397.148
9/13/2012 8:00,19.8,12.8,64,9,48.3,102.04,1,415.956
9/13/2012 9:00,21.5,13.7,61,13,48.3,102.05,1,119.564
9/13/2012 10:00,22.6,14.2,59,17,48.3,102.05,1,17.1858
9/13/2012 11:00,24.6,14.8,54,15,48.3,102.02,1,0.75467
9/13/2012 12:00,26.2,14.9,50,17,48.3,101.97,1,15.6634
9/13/2012 13:00,27.3,14.2,45,19,48.3,101.89,1,20.5793
9/13/2012 14:00,27.9,13.7,42,24,48.3,101.82,1,23.3158
9/13/2012 15:00,28.2,13.9,42,22,48.3,101.77,1,91.1713
9/13/2012 16:00,28.4,14,41,19,48.3,101.73,1,250.974
9/13/2012 17:00,27.8,13.1,40,20,48.3,101.73,1,683.143
9/13/2012 18:00,26,14.7,50,9,48.3,101.71,1,466.429
9/13/2012 19:00,24.2,15.8,59,11,25,101.72,1,450.3
9/13/2012 20:00,23.2,15.7,63,11,25,101.74,1,212.264
9/13/2012 21:00,22.3,16,68,13,25,101.71,1,177.784
9/13/2012 22:00,21.8,15.2,66,15,25,101.7,1,0.14087
9/13/2012 23:00,20.7,15.3,71,13,25,101.72,1,6.70821
9/14/2012 0:00,19.5,15.5,78,9,25,101.72,1,4.17168
9/14/2012 1:00,16.6,14.9,90,0,25,101.71,1,2.55556
9/14/2012 2:00,18.2,14.8,81,4,25,101.69,1,63.0167
9/14/2012 3:00,16.4,14.2,87,6,25,101.67,1,117.456
9/14/2012 4:00,15.9,13.7,87,9,25,101.66,1,214.981
9/14/2012 5:00,16.4,14.1,86,4,25,101.65,2,477.064
9/14/2012 6:00,16.6,14.5,87,6,24.1,101.65,2,548.997
9/14/2012 7:00,17.9,15.1,84,9,24.1,101.64,2,451.5
9/14/2012 8:00,19.5,15.1,76,9,24.1,101.63,2,265.446
9/14/2012 9:00,22.2,15.5,66,9,24.1,101.61,2,171.876
9/14/2012 10:00,22.6,15.4,64,13,24.1,101.56,2,115.431
9/14/2012 11:00,24.2,16.2,61,13,24.1,101.51,2,0.82756
9/14/2012 12:00,25.7,16.5,57,9,48.3,101.44,2,12.145
9/14/2012 13:00,26.5,16.8,55,9,48.3,101.34,2,4.21711
9/14/2012 14:00,27.3,16.4,51,9,48.3,101.27,2,83.9227
9/14/2012 15:00,26.3,16.4,54,9,24.1,101.2,2,118.754
9/14/2012 16:00,25.5,17.8,62,4,24.1,101.13,2,287.922
9/14/2012 17:00,25.4,17.2,60,7,24.1,101.04,2,595.058
9/14/2012 18:00,24.5,17.6,65,6,24.1,100.96,3,483.284
9/14/2012 19:00,21,18.9,88,17,25,100.94,2,510.976
9/14/2012 20:00,16.5,15.8,96,22,16.1,101.06,3,338.255
9/14/2012 21:00,15.3,14.3,94,13,11.3,101.31,3,173.323
9/14/2012 22:00,15.5,14.2,92,0,19.3,101.21,3,55.2849
9/14/2012 23:00,15.9,15.4,97,13,16.1,101.13,3,4.08725
9/15/2012 0:00,16.3,14.8,91,20,19.3,101.17,2,21.3908
9/15/2012 1:00,15.6,14.2,91,22,25,101.14,2,27.3864
9/15/2012 2:00,15,13.6,91,24,25,101.09,2,12.6682
9/15/2012 3:00,14.7,12.9,89,30,25,101.08,2,68.7759
9/15/2012 4:00,14.2,12.2,88,30,25,101.12,2,129.986
9/15/2012 5:00,13.7,12.7,94,28,9.7,101.14,3,412.538
9/15/2012 6:00,13.4,11.1,86,22,24.1,101.25,2,527.145
9/15/2012 7:00,13.8,10.5,80,20,24.1,101.36,2,339.035
9/15/2012 8:00,14.6,10.5,76,19,24.1,101.44,1,230.859
9/15/2012 9:00,14.9,9.7,71,19,24.1,101.5,2,78.5405
9/15/2012 10:00,16,9.6,66,22,24.1,101.51,2,0.52471
9/15/2012 11:00,16.1,7.8,58,22,48.3,101.49,2,1.44234
9/15/2012 12:00,16.6,7.3,54,17,48.3,101.49,2,4.36869
9/15/2012 13:00,16.6,7.9,56,20,48.3,101.44,2,31.3106
9/15/2012 14:00,16.2,7.5,56,22,24.1,101.39,3,18.0814
9/15/2012 15:00,14.2,11.4,83,13,24.1,101.41,2,137.765
9/15/2012 16:00,16.6,9.2,62,17,24.1,101.36,1,214.459
9/15/2012 17:00,14.2,8.7,69,22,24.1,101.39,3,226.438
9/15/2012 18:00,13.3,8.6,73,7,24.1,101.4,2,401.132
9/15/2012 19:00,12.7,7.1,69,13,25,101.42,1,476.307
9/15/2012 20:00,11.6,6.3,70,11,25,101.46,1,268.075
9/15/2012 21:00,9.9,6.1,77,13,25,101.48,1,166.99
9/15/2012 22:00,8.5,5.7,83,7,25,101.51,1,6.81405
9/15/2012 23:00,7.9,5.6,85,9,25,101.5,1,2.76849
9/16/2012 0:00,6.6,5,90,7,25,101.52,1,25.2933
9/16/2012 1:00,6.1,5.2,94,9,25,101.49,1,20.4774
9/16/2012 2:00,6.5,5.6,94,6,25,101.46,1,83.1661
9/16/2012 3:00,6.7,5.6,93,7,25,101.44,1,122.485
9/16/2012 4:00,7.3,6.2,93,9,25,101.43,1,359.432
9/16/2012 5:00,4.9,4.6,98,9,25,101.45,1,465.967
9/16/2012 6:00,5.8,4.9,94,9,48.3,101.53,1,443.91
9/16/2012 7:00,8.7,6.5,86,9,48.3,101.55,1,553.256
9/16/2012 8:00,11.7,4.5,61,9,48.3,101.58,1,388.106
9/16/2012 9:00,13.1,3,50,19,48.3,101.57,1,402.994
9/16/2012 10:00,14,4.3,52,20,48.3,101.53,1,0.19915
9/16/2012 11:00,14.9,3.9,48,20,48.3,101.49,1,4.4506
9/16/2012 12:00,15.3,3.2,44,19,48.3,101.44,1,0.03981
9/16/2012 13:00,15.7,2.9,42,24,48.3,101.35,1,0.97754
9/16/2012 14:00,16.6,3.8,42,24,48.3,101.3,1,47.3186
9/16/2012 15:00,16.7,3.6,42,19,48.3,101.25,1,27.0602
9/16/2012 16:00,16.6,3,40,15,48.3,101.2,1,250.843
9/16/2012 17:00,16.6,3.6,42,20,48.3,101.17,1,360.87
9/16/2012 18:00,15.5,3.2,44,11,48.3,101.16,1,669.317
9/16/2012 19:00,14.2,3.9,50,6,25,101.18,1,347.803
9/16/2012 20:00,12.5,4.6,59,6,25,101.18,1,389.229
9/16/2012 21:00,12.8,5.4,61,6,25,101.18,1,134.597
9/16/2012 22:00,13.1,5.4,60,6,25,101.2,1,29.934
9/16/2012 23:00,12.1,5.6,64,6,25,101.21,1,0.58055
9/17/2012 0:00,11.5,8.6,82,4,25,101.2,1,6.16273
9/17/2012 1:00,10.1,8.4,89,4,25,101.21,1,22.7065
9/17/2012 2:00,10.1,7.8,86,6,25,101.18,1,22.3121
9/17/2012 3:00,10.1,8.4,89,7,25,101.16,2,87.3954
9/17/2012 4:00,11.1,8.3,83,7,25,101.12,2,192.679
9/17/2012 5:00,12.1,7.9,75,7,25,101.12,2,972.536
9/17/2012 6:00,12.5,9,79,4,48.3,101.13,2,294.587
9/17/2012 7:00,13.7,9.7,77,7,24.1,101.13,2,510.77
9/17/2012 8:00,14.7,10.8,77,9,24.1,101.13,2,208.662
9/17/2012 9:00,16.8,13.1,79,13,24.1,101.13,1,169.7
9/17/2012 10:00,18.2,13.6,75,17,24.1,101.11,1,5.16209
9/17/2012 11:00,19.9,14.9,73,15,24.1,101.09,1,0.60981
9/17/2012 12:00,21.8,14.2,62,17,24.1,101.06,1,8.66949
9/17/2012 13:00,23.5,14.1,56,17,24.1,101.01,1,22.2978
9/17/2012 14:00,24.6,12.6,47,15,24.1,100.95,1,6.04963
9/17/2012 15:00,25.2,10.8,40,15,24.1,100.9,1,95.3012
9/17/2012 16:00,25,12.5,46,13,24.1,100.87,1,319.335
9/17/2012 17:00,24.4,12.2,46,13,24.1,100.87,1,399.432
9/17/2012 18:00,22.1,14.8,63,15,24.1,100.88,1,509.042
9/17/2012 19:00,20.6,15.1,71,15,25,100.9,1,401.382
9/17/2012 20:00,20,15.4,75,13,25,100.88,1,207.679
9/17/2012 21:00,19.3,15.3,78,0,25,100.88,1,170.023
9/17/2012 22:00,18.8,15.1,79,6,25,100.83,1,0.1717
9/17/2012 23:00,17,15,88,7,25,100.84,1,0.7377
9/18/2012 0:00,16.2,14.2,88,6,25,100.84,1,0.58449
9/18/2012 1:00,16.9,12.5,75,0,25,100.81,1,0.9191
9/18/2012 2:00,16.6,12.1,75,9,25,100.75,1,33.631
9/18/2012 3:00,16.1,13,82,19,25,100.67,2,117.506
9/18/2012 4:00,16.2,12.9,81,17,25,100.59,2,272.534
9/18/2012 5:00,16.1,12.8,81,24,25,100.52,2,459.493
9/18/2012 6:00,16.4,12.9,80,22,24.1,100.49,1,572.234
9/18/2012 7:00,16.9,13.1,78,20,24.1,100.44,2,299.125
9/18/2012 8:00,18.5,13.4,72,26,24.1,100.4,2,266.525
9/18/2012 9:00,18.7,13.8,73,19,24.1,100.31,2,238.534
9/18/2012 10:00,16.9,16,94,19,9.7,100.26,3,13.3191
9/18/2012 11:00,17.3,16.4,94,20,9.7,100.13,3,0.78731
9/18/2012 12:00,16.6,16.3,98,20,6.4,99.92,3,5.94211
9/18/2012 13:00,17.1,16.4,96,35,9.7,99.66,3,19.8919
9/18/2012 14:00,17.3,16.6,96,32,24.1,99.49,3,24.7424
9/18/2012 15:00,18.1,17,93,32,24.1,99.28,3,213.125
9/18/2012 16:00,19.4,17.4,88,33,24.1,99.14,3,238.66
9/18/2012 17:00,20.4,17.9,86,35,24.1,99.01,3,502.621
9/18/2012 18:00,20,18.9,93,28,6.4,99.19,3,569.584
9/18/2012 19:00,19.4,18.5,95,22,25,99.28,3,326.531
9/18/2012 20:00,19.2,17.9,92,24,25,99.33,3,270.624
9/18/2012 21:00,19.1,17.6,91,20,25,99.39,2,316.161
9/18/2012 22:00,18.8,17.6,93,30,9.7,99.44,3,29.8628
9/18/2012 23:00,17.7,16.1,90,33,12.9,99.52,3,0.15303
9/19/2012 0:00,12.8,11.2,90,37,25,99.78,2,0.27337
9/19/2012 1:00,11,9.1,88,28,25,99.95,2,37.1055
9/19/2012 2:00,9.7,7.6,87,35,25,100.1,2,37.4934
9/19/2012 3:00,8.7,6.1,84,35,25,100.31,2,52.9001
9/19/2012 4:00,8.3,4.9,79,28,25,100.49,2,192.222
9/19/2012 5:00,8.2,4.8,79,30,25,100.63,2,448.92
9/19/2012 6:00,8,4.2,77,26,24.1,100.79,2,602.78
9/19/2012 7:00,8.2,4.1,75,33,24.1,100.92,2,556.13
9/19/2012 8:00,8.6,4.1,73,26,24.1,101.04,2,286.953
9/19/2012 9:00,9.2,4.1,70,32,24.1,101.13,2,102.255
9/19/2012 10:00,11,3.6,60,32,48.3,101.19,2,33.2288
9/19/2012 11:00,12,3.9,58,24,48.3,101.29,2,14.7019
9/19/2012 12:00,13.2,4,54,22,48.3,101.37,2,15.4377
9/19/2012 13:00,13.6,2.7,48,24,48.3,101.41,2,0.87698
9/19/2012 14:00,14.5,3,46,24,48.3,101.45,1,22.8879
9/19/2012 15:00,14.3,0.9,40,15,48.3,101.49,1,53.478
9/19/2012 16:00,14.2,2.2,44,19,48.3,101.6,1,183.664
9/19/2012 17:00,12.7,2.3,49,11,48.3,101.66,1,423.554
9/19/2012 18:00,10.6,2.1,56,11,48.3,101.68,1,429.89
9/19/2012 19:00,10,2.5,60,4,25,101.75,1,456.18
9/19/2012 20:00,8.8,3.2,68,4,25,101.81,1,318.377
9/19/2012 21:00,9.5,2.7,62,0,25,101.83,1,175.73
9/19/2012 22:00,8.5,2.7,67,0,25,101.85,1,23.6765
9/19/2012 23:00,9.8,3.1,63,4,25,101.88,1,29.1764
9/20/2012 0:00,7.2,4.5,83,7,25,101.88,1,24.1993
9/20/2012 1:00,8.4,4,74,6,25,101.92,1,3.72153
9/20/2012 2:00,9,4,71,7,25,101.89,1,95.0896
9/20/2012 3:00,8,4.8,80,4,25,101.91,1,145.831
9/20/2012 4:00,8.3,5.7,84,9,25,101.91,1,197.062
9/20/2012 5:00,7.7,6.5,92,6,25,101.95,1,318.576
9/20/2012 6:00,7.7,6.5,92,6,48.3,101.97,1,511.037
9/20/2012 7:00,9.6,6.9,83,9,48.3,101.95,1,377.757
9/20/2012 8:00,11.7,7.6,76,7,48.3,101.94,1,363.87
9/20/2012 9:00,12.8,7.6,71,15,48.3,101.85,1,132.535
9/20/2012 10:00,15.2,7.4,60,20,48.3,101.76,1,2.10312
9/20/2012 11:00,16.2,6.9,54,19,48.3,101.65,1,0.45729
9/20/2012 12:00,17.6,7.3,51,15,48.3,101.56,1,8.01219
9/20/2012 13:00,18.3,6.7,47,22,48.3,101.48,1,7.75839
9/20/2012 14:00,19.3,6.9,44,15,48.3,101.43,1,53.2339
9/20/2012 15:00,19.1,7.5,47,20,48.3,101.39,1,107.727
9/20/2012 16:00,18.7,7.7,49,24,48.3,101.31,1,267.954
9/20/2012 17:00,18,7.9,52,26,48.3,101.31,1,800.141
9/20/2012 18:00,16.6,7.9,56,19,48.3,101.26,1,511.001
9/20/2012 19:00,16.2,7.9,58,24,25,101.27,1,415.247
9/20/2012 20:00,15.6,7.9,60,20,25,101.24,1,199.112
9/20/2012 21:00,15.4,7.9,61,20,25,101.25,1,128.784
9/20/2012 22:00,13.4,8.5,72,15,25,101.25,1,23.7808
9/20/2012 23:00,14,8.9,71,19,25,101.24,1,1.31776
9/21/2012 0:00,13.7,9.6,76,19,25,101.23,1,3.66924
9/21/2012 1:00,13.1,9.9,81,20,25,101.23,1,0.74622
9/21/2012 2:00,13.5,10.5,82,19,25,101.18,2,90.9436
9/21/2012 3:00,13.9,11,83,15,25,101.14,2,157.083
9/21/2012 4:00,14.3,11.4,83,19,25,101.14,2,125.659
9/21/2012 5:00,14.4,11.2,81,19,25,101.17,2,416.228
9/21/2012 6:00,14.4,11.4,82,19,48.3,101.19,2,543.448
9/21/2012 7:00,14.6,11.4,81,17,48.3,101.18,2,539.158
9/21/2012 8:00,15.2,11.8,80,15,48.3,101.23,2,324.491
9/21/2012 9:00,16,12.4,79,15,48.3,101.21,2,66.7082
9/21/2012 10:00,16.7,12.9,78,13,48.3,101.17,2,25.0749
9/21/2012 11:00,17.1,12.8,76,15,48.3,101.13,2,0.59785
9/21/2012 12:00,17.8,13.3,75,17,48.3,101.08,2,16.7087
9/21/2012 13:00,18.2,13.6,75,15,48.3,101,2,16.3557
9/21/2012 14:00,19.2,13.9,71,17,48.3,100.95,2,30.2124
9/21/2012 15:00,19.3,13.9,71,13,24.1,100.93,2,88.686
9/21/2012 16:00,19,14.1,73,6,24.1,100.89,2,153.278
9/21/2012 17:00,17.3,15.5,89,4,24.1,100.88,2,636.673
9/21/2012 18:00,15.9,15.2,96,19,19.3,100.95,2,550.896
9/21/2012 19:00,15.2,15.1,99,7,25,101.01,3,421.068
9/21/2012 20:00,15.7,15.2,97,4,25,101.01,2,404.488
9/21/2012 21:00,15.4,15.3,99,0,9.7,101.04,3,296.902
9/21/2012 22:00,15.7,15.4,98,13,8,100.99,3,55.8865
9/21/2012 23:00,15.7,15.6,99,13,6.4,100.93,2,0.05075
9/22/2012 0:00,15.7,15.4,98,7,8,100.87,2,11.8691
9/22/2012 1:00,15.9,15.4,97,7,11.3,100.85,2,6.31247
9/22/2012 2:00,15.9,14.7,93,11,19.3,100.76,2,8.55389
9/22/2012 3:00,15.8,14.4,91,24,19.3,100.68,3,69.8946
9/22/2012 4:00,15.4,14.1,92,20,19.3,100.5,3,147.566
9/22/2012 5:00,15.4,13.3,87,24,25,100.46,2,363.691
9/22/2012 6:00,15.6,12.8,83,26,24.1,100.43,2,517.82
9/22/2012 7:00,16.2,12.8,80,33,24.1,100.36,2,478.907
9/22/2012 8:00,16.4,13.1,81,32,48.3,100.25,2,279.091
9/22/2012 9:00,17.3,13.1,76,39,24.1,100.19,2,160.661
9/22/2012 10:00,18.5,13.8,74,33,24.1,100.14,2,71.9736
9/22/2012 11:00,18.4,14.1,76,32,24.1,100.09,2,0.2358
9/22/2012 12:00,16.9,15.6,92,22,16.1,100.23,3,1.34663
9/22/2012 13:00,16.6,15.6,94,15,19.3,100.22,3,26.5107
9/22/2012 14:00,16.3,15.7,96,22,6.4,100.29,3,25.2717
9/22/2012 15:00,16.1,15,93,9,24.1,100.32,3,104.872
9/22/2012 16:00,16.8,15.2,90,15,24.1,100.28,2,155.076
9/22/2012 17:00,16.4,14.9,91,13,24.1,100.32,2,317.996
9/22/2012 18:00,16.1,15.6,97,13,25,100.33,3,375.331
9/22/2012 19:00,16,15.3,96,9,25,100.36,3,424.779
9/22/2012 20:00,16.3,14,86,20,25,100.39,2,199.335
9/22/2012 21:00,15.7,13.4,86,26,25,100.37,2,87.8432
9/22/2012 22:00,15.4,12.7,84,22,25,100.41,2,2.57908
9/22/2012 23:00,15.1,12,82,22,25,100.42,2,0.02066
9/23/2012 0:00,14.2,10.4,78,26,25,100.41,2,4.79803
9/23/2012 1:00,12.8,9.6,81,17,25,100.46,2,31.0566
9/23/2012 2:00,12.2,8.3,77,26,25,100.56,2,46.4803
9/23/2012 3:00,11.6,8,79,24,25,100.58,2,111.753
9/23/2012 4:00,11,7.4,78,24,25,100.63,2,492.833
9/23/2012 5:00,10.2,7.3,82,20,25,100.7,1,478.214
9/23/2012 6:00,9.9,7.4,84,19,24.1,100.77,1,430.427
9/23/2012 7:00,10.6,7.8,83,20,24.1,100.82,1,287.732
9/23/2012 8:00,11.3,7.6,78,28,48.3,100.89,1,384.063
9/23/2012 9:00,12,6.8,70,24,48.3,100.9,1,174.955
9/23/2012 10:00,13.2,5.6,60,33,48.3,100.97,1,96.3741
9/23/2012 11:00,13.5,4,53,28,48.3,101,1,44.2418
9/23/2012 12:00,15.6,4.5,48,26,48.3,101,1,5.48967
9/23/2012 13:00,14.6,4.2,50,30,48.3,101.01,1,0.04505
9/23/2012 14:00,16,4.1,45,28,48.3,101.02,1,118.325
9/23/2012 15:00,15.1,4.6,49,24,48.3,101.04,1,148.729
9/23/2012 16:00,15.1,5.7,53,15,48.3,101.07,1,333.845
9/23/2012 17:00,14.3,3.4,48,20,48.3,101.11,1,382.049
9/23/2012 18:00,10.9,4.3,64,9,25,101.17,1,780.355
9/23/2012 19:00,9.8,5.3,74,4,25,101.23,1,375.054
9/23/2012 20:00,11.4,4.7,63,9,25,101.31,1,334.658
9/23/2012 21:00,8.7,5.2,79,7,25,101.38,1,219.244
9/23/2012 22:00,7.2,4.9,85,7,25,101.41,1,20.3715
9/23/2012 23:00,9.2,5.2,76,7,25,101.43,2,0.7203
9/24/2012 0:00,7.7,5.1,84,0,25,101.42,1,2.66038
9/24/2012 1:00,5.7,4.3,91,6,25,101.41,1,12.4828
9/24/2012 2:00,6.9,5.1,88,0,25,101.37,1,12.8183
9/24/2012 3:00,5.7,4.7,93,0,25,101.38,1,94.5976
9/24/2012 4:00,7.2,5,86,4,25,101.42,1,251.874
9/24/2012 5:00,8,7.8,99,0,25,101.44,2,338.62
9/24/2012 6:00,6.9,6.8,99,9,48.3,101.47,2,682.34
9/24/2012 7:00,7.9,7.5,97,6,48.3,101.48,2,279.506
9/24/2012 8:00,9.9,7.5,85,13,48.3,101.51,1,343.686
9/24/2012 9:00,11,7.9,81,13,48.3,101.49,1,195.543
9/24/2012 10:00,12.8,7.5,70,22,48.3,101.46,1,51.6203
9/24/2012 11:00,14.2,5.5,56,28,48.3,101.44,1,0.85572
9/24/2012 12:00,15,5.7,54,20,48.3,101.37,1,1.18694
9/24/2012 13:00,15.8,3.2,43,28,48.3,101.28,1,17.157
9/24/2012 14:00,16.6,3.7,42,32,48.3,101.23,1,31.1362
9/24/2012 15:00,16.3,3.6,43,24,48.3,101.13,1,81.9646
9/24/2012 16:00,16.4,4.5,45,26,48.3,101.09,1,284.795
9/24/2012 17:00,15.3,5.2,51,28,48.3,101.06,1,652.306
9/24/2012 18:00,14.4,5.8,56,22,25,101.03,1,473.475
9/24/2012 19:00,13.8,5.6,58,33,25,101.05,1,435.298
9/24/2012 20:00,12.1,6.3,68,15,25,101.06,1,215.449
9/24/2012 21:00,11.7,6.2,69,17,25,101.06,2,98.277
9/24/2012 22:00,12.6,5.6,62,17,25,101.08,2,41.4419
9/24/2012 23:00,12.1,5.6,64,20,25,101.04,1,2.1749
9/25/2012 0:00,11.9,6,67,17,25,101.02,2,3.89109
9/25/2012 1:00,12.1,6.4,68,19,25,100.92,2,33.824
9/25/2012 2:00,11.7,5.3,65,20,25,100.88,2,25.9827
9/25/2012 3:00,11.2,5.5,68,20,25,100.85,2,304.988
9/25/2012 4:00,11.6,5.3,65,24,25,100.85,2,329.388
9/25/2012 5:00,11.3,6,70,17,25,100.85,2,490.912
9/25/2012 6:00,12.4,6.1,65,19,48.3,100.89,2,514.169
9/25/2012 7:00,13,6.9,66,28,48.3,100.89,1,287.439
9/25/2012 8:00,14.1,7.2,63,24,48.3,100.92,1,184.801
9/25/2012 9:00,16.3,8.6,60,32,48.3,100.93,1,149.403
9/25/2012 10:00,17.4,9,58,35,48.3,100.92,1,35.8673
9/25/2012 11:00,18,9.2,56,28,48.3,100.94,1,19.7034
9/25/2012 12:00,18.1,9.6,58,30,48.3,100.99,2,0.6893
9/25/2012 13:00,18.9,9.9,56,33,48.3,100.99,2,7.28948
9/25/2012 14:00,19,10.4,57,32,48.3,100.97,2,25.2145
9/25/2012 15:00,19,10.2,57,28,48.3,100.98,2,137.157
9/25/2012 16:00,19.2,9.5,53,19,48.3,100.98,2,363.313
9/25/2012 17:00,18.8,10.5,59,9,48.3,100.98,1,488.343
9/25/2012 18:00,17.8,10.9,64,13,24.1,100.99,1,425.095
9/25/2012 19:00,16.6,10.5,67,11,25,101.02,1,359.019
9/25/2012 20:00,15.7,10.6,72,7,25,101.03,1,372.462
9/25/2012 21:00,14.3,10.5,78,13,25,101.06,2,107.964
9/25/2012 22:00,13.1,9.5,79,7,25,101.05,1,8.64631
9/25/2012 23:00,14,9.2,73,17,25,101.03,2,0.58537
9/26/2012 0:00,14.2,9.9,75,15,25,101.02,2,11.8392
9/26/2012 1:00,14,9.7,75,17,25,100.96,2,15.3143
9/26/2012 2:00,14.1,9.3,73,17,25,100.89,2,20.5132
9/26/2012 3:00,14.7,8.7,67,17,25,100.87,2,80.0346
9/26/2012 4:00,14.6,9,69,17,25,100.88,2,116.378
9/26/2012 5:00,15.1,9.2,68,17,25,100.84,2,425.375
9/26/2012 6:00,15,9.1,68,17,24.1,100.86,2,526.512
9/26/2012 7:00,14.9,10.4,74,19,24.1,100.87,2,536.167
9/26/2012 8:00,14.9,11,77,19,24.1,100.89,2,417.903
9/26/2012 9:00,15.4,12,80,20,24.1,100.88,2,113.73
9/26/2012 10:00,16.7,12.6,77,19,24.1,100.89,2,25.5128
9/26/2012 11:00,18.1,13.5,74,20,24.1,100.84,2,40.2626
9/26/2012 12:00,18.1,13.9,76,15,24.1,100.82,2,3.3678
9/26/2012 13:00,18.8,14.6,77,20,24.1,100.8,2,42.1885
9/26/2012 14:00,20,14.8,72,24,24.1,100.73,2,60.7095
9/26/2012 15:00,17.6,15.6,88,11,24.1,100.75,2,74.1954
9/26/2012 16:00,18.8,15.2,80,7,24.1,100.74,3,347.529
9/26/2012 17:00,16.1,12.6,80,19,24.1,100.86,2,340.656
9/26/2012 18:00,14.6,10.2,75,17,24.1,101,2,516.119
9/26/2012 19:00,13.6,9.5,76,7,25,101.09,2,395.61
9/26/2012 20:00,13.8,7.8,67,15,25,101.22,2,246.292
9/26/2012 21:00,13.6,7,64,6,25,101.33,2,185.85
9/26/2012 22:00,12.6,7.5,71,7,25,101.39,2,1.61647
9/26/2012 23:00,11.9,6.2,68,7,25,101.46,2,0.85529
9/27/2012 0:00,10.1,6,76,7,25,101.51,1,23.5086
9/27/2012 1:00,8.3,6.3,87,9,25,101.54,1,27.508
9/27/2012 2:00,7.4,5.9,90,9,25,101.56,1,86.7601
9/27/2012 3:00,6.3,4.9,91,9,25,101.63,1,378.903
9/27/2012 4:00,5.1,4.1,93,11,25,101.69,1,326.596
9/27/2012 5:00,6,4.6,91,7,25,101.76,1,405.931
9/27/2012 6:00,6.4,4.3,86,0,48.3,101.86,1,679.557
9/27/2012 7:00,7.5,5.3,86,0,48.3,101.91,1,376.863
9/27/2012 8:00,9,5.6,79,11,48.3,101.99,1,264.709
9/27/2012 9:00,10.9,5.1,67,9,48.3,102.03,1,22.197
9/27/2012 10:00,12.8,4.4,57,4,48.3,102.06,1,1.09602
9/27/2012 11:00,12.8,3.5,53,6,48.3,102.04,1,44.4069
9/27/2012 12:00,12.9,3.8,54,4,48.3,102.04,1,0.37417
9/27/2012 13:00,13.6,4.5,54,11,48.3,101.99,2,21.1194
9/27/2012 14:00,14.9,4.4,49,4,48.3,101.95,1,39.1975
9/27/2012 15:00,15.1,4.7,50,9,48.3,101.93,1,179.316
9/27/2012 16:00,15.1,3.7,46,11,48.3,101.93,1,166.775
9/27/2012 17:00,14.6,3.6,48,7,48.3,101.94,1,413.265
9/27/2012 18:00,13.1,3.8,53,7,48.3,101.97,1,420.955
9/27/2012 19:00,10.6,4.4,65,0,25,102,1,544.534
9/27/2012 20:00,11.5,4.9,64,4,25,102.01,1,284.621
9/27/2012 21:00,9.4,5.5,77,7,25,102.01,1,39.4172
9/27/2012 22:00,9.3,4.8,73,4,25,101.99,1,38.9091
9/27/2012 23:00,9.2,4.6,73,4,25,101.98,1,3.49806
9/28/2012 0:00,9.2,4,70,6,25,101.96,1,11.3977
9/28/2012 1:00,8,4.7,80,7,25,101.98,1,36.6821
9/28/2012 2:00,8.9,5.2,78,6,25,101.94,1,104.064
9/28/2012 3:00,7.2,4.9,85,9,25,101.92,1,191.055
9/28/2012 4:00,6,5.3,95,9,25,101.91,1,377.107
9/28/2012 5:00,5.1,4.6,97,7,25,101.87,1,396.943
9/28/2012 6:00,5.3,4.1,92,9,48.3,101.83,1,434.307
9/28/2012 7:00,7.6,4.7,82,11,48.3,101.8,1,484.295
9/28/2012 8:00,9.3,5.8,79,9,48.3,101.81,1,305.01
9/28/2012 9:00,10.7,5.3,69,13,48.3,101.76,2,280.982
9/28/2012 10:00,13.3,6,61,13,48.3,101.67,2,19.5985
9/28/2012 11:00,14.6,5.2,53,13,48.3,101.62,2,32.1243
9/28/2012 12:00,15.8,7.1,56,7,48.3,101.55,2,15.9246
9/28/2012 13:00,16.6,6.9,53,9,48.3,101.42,1,4.05208
9/28/2012 14:00,16.7,8.7,59,17,24.1,101.37,2,9.63009
9/28/2012 15:00,15.6,9.6,67,19,24.1,101.35,2,172.021
9/28/2012 16:00,14.2,10,76,17,24.1,101.33,2,507.684
9/28/2012 17:00,13.3,10.1,81,17,24.1,101.34,2,565.81
9/28/2012 18:00,12.9,10,83,15,24.1,101.33,2,715.063
9/28/2012 19:00,13,10,82,15,25,101.35,2,427.289
9/28/2012 20:00,13.1,10.1,82,4,25,101.34,2,381.452
9/28/2012 21:00,13.1,9.8,80,7,25,101.32,2,129.73
9/28/2012 22:00,13.1,9.8,80,9,25,101.3,2,4.52029
9/28/2012 23:00,13.1,9.2,77,11,19.3,101.29,2,6.63063
9/29/2012 0:00,13,9.3,78,7,19.3,101.27,2,7.44035
9/29/2012 1:00,13.1,9.3,78,9,25,101.24,2,10.7857
9/29/2012 2:00,13,9.3,78,11,25,101.2,2,95.98
9/29/2012 3:00,11.7,9.9,89,11,25,101.19,2,119.024
9/29/2012 4:00,11.3,9.6,89,15,25,101.19,2,325.358
9/29/2012 5:00,10.3,8.9,91,19,25,101.23,2,498.385
9/29/2012 6:00,10.2,8.8,91,11,25,101.27,2,409.884
9/29/2012 7:00,9.8,8.6,92,17,25,101.29,2,359.347
9/29/2012 8:00,10.9,9,88,19,24.1,101.28,2,325.074
9/29/2012 9:00,12.4,9.6,83,22,24.1,101.27,2,97.375
9/29/2012 10:00,13,10,82,20,24.1,101.23,2,26.3739
9/29/2012 11:00,12.6,9.8,83,24,24.1,101.19,2,5.6936
9/29/2012 12:00,12.6,9.9,84,22,24.1,101.18,3,5.97641
9/29/2012 13:00,12.4,9.8,84,19,24.1,101.15,3,2.43015
9/29/2012 14:00,12.6,9.8,83,19,24.1,101.12,2,17.3861
9/29/2012 15:00,11.6,10.1,91,20,19.3,101.11,3,179.735
9/29/2012 16:00,11.7,9.8,88,26,24.1,101.11,2,210.662
9/29/2012 17:00,11.1,10.4,95,22,9.7,101.12,3,296.929
9/29/2012 18:00,10.8,9.8,94,20,16.1,101.12,3,571.737
9/29/2012 19:00,10.5,10.2,98,19,6.4,101.15,3,304.698
9/29/2012 20:00,10.5,9.9,96,24,8,101.13,3,460.341
9/29/2012 21:00,10.7,9.8,94,22,9.7,101.11,3,252.867
9/29/2012 22:00,10.6,9.9,95,20,9.7,101.08,3,135.81
9/29/2012 23:00,10.8,9.7,93,17,12.9,101.06,3,6.83946
9/30/2012 0:00,10.8,9.4,91,13,8,101.03,3,3.04431
9/30/2012 1:00,10.7,9.6,93,15,8,101.02,3,9.38784
9/30/2012 2:00,10.3,9.8,97,20,6.4,100.97,3,57.131
9/30/2012 3:00,10.4,9.6,95,17,12.9,100.92,3,210.204
9/30/2012 4:00,10.8,9.5,92,17,12.9,100.96,2,137.362
9/30/2012 5:00,10.9,9.6,92,15,16.1,100.92,2,521.268
9/30/2012 6:00,11,9.6,91,13,19.3,100.9,2,589.099
9/30/2012 7:00,11.2,9.9,92,15,19.3,100.88,2,634.122
9/30/2012 8:00,11.4,9.9,90,19,19.3,100.9,2,357.247
9/30/2012 9:00,11.7,9.9,89,20,19.3,100.84,2,119.269
9/30/2012 10:00,11.9,10.1,89,17,19.3,100.79,2,29.0261
9/30/2012 11:00,12.2,10.2,88,19,12.9,100.72,2,15.8961
9/30/2012 12:00,11.8,11.1,95,17,9.7,100.65,3,0.87756
9/30/2012 13:00,11.4,11,97,13,6.4,100.54,3,31.1986
9/30/2012 14:00,11.5,11.1,97,19,8,100.46,3,70.323
9/30/2012 15:00,11.6,10.9,95,20,6.4,100.36,3,205.354
9/30/2012 16:00,11.7,11.2,97,13,8,100.28,3,418.672
9/30/2012 17:00,11.7,11.2,97,11,8,100.21,3,517.33
9/30/2012 18:00,11.6,11.5,99,4,9.7,100.15,3,546.468
9/30/2012 19:00,11.5,11.4,99,9,9.7,100.09,3,479.413
9/30/2012 20:00,11.6,11.6,100,9,8,100,3,281.161
9/30/2012 21:00,11.6,11.5,99,11,9.7,99.9,3,164.222
9/30/2012 22:00,11.6,11.2,97,13,16.1,99.79,3,91.5198
9/30/2012 23:00,11.5,11.2,98,15,6.4,99.72,3,12.0457
10/1/2012 0:00,11.5,11.1,97,15,19.3,99.62,3,2.88141
10/1/2012 1:00,11.4,11.1,98,17,6.4,99.56,3,18.6473
10/1/2012 2:00,11.3,11.2,99,15,6.4,99.5,3,15.3381
10/1/2012 3:00,11.2,11,99,17,8,99.44,3,93.4202
10/1/2012 4:00,11.3,11.1,99,15,6.4,99.44,3,287.091
10/1/2012 5:00,11.3,11.1,99,15,8,99.47,3,370.973
10/1/2012 6:00,11.7,11,95,15,19.3,99.51,2,480.33
10/1/2012 7:00,12.1,11.2,94,17,19.3,99.6,3,176.275
10/1/2012 8:00,12.6,11.8,95,17,24.1,99.7,2,333.963
10/1/2012 9:00,14,12.3,89,19,24.1,99.8,2,270.976
10/1/2012 10:00,14.9,12,83,20,24.1,99.88,2,3.81756
10/1/2012 11:00,14.8,11.9,83,26,24.1,99.96,2,4.31961
10/1/2012 12:00,14.8,11.3,80,17,24.1,100.06,2,1.02665
10/1/2012 13:00,14.9,11.5,80,19,24.1,100.14,2,45.7316
10/1/2012 14:00,15.3,11.4,78,24,24.1,100.2,2,104.692
10/1/2012 15:00,15.2,11.5,79,26,24.1,100.27,2,222.121
10/1/2012 16:00,15,11.5,80,19,24.1,100.35,2,278.321
10/1/2012 17:00,14.9,11.4,80,17,48.3,100.45,2,521.461
10/1/2012 18:00,14.6,11.6,82,6,25,100.51,2,522.194
10/1/2012 19:00,14.6,11.7,83,9,25,100.57,2,358.344
10/1/2012 20:00,13.8,11.7,87,9,25,100.61,2,294.101
10/1/2012 21:00,13.8,12,89,6,25,100.65,2,225.056
10/1/2012 22:00,13.1,12.7,97,6,25,100.66,2,57.4948
10/1/2012 23:00,14.2,12.9,92,22,25,100.75,2,15.7285
10/2/2012 0:00,13.5,12.7,95,9,25,100.74,2,15.5629
10/2/2012 1:00,12.8,12.6,99,9,25,100.76,2,28.323
10/2/2012 2:00,12.4,12.3,99,7,19.3,100.77,2,41.9833
10/2/2012 3:00,12.1,11.8,98,7,19.3,100.82,1,195.31
10/2/2012 4:00,12,11.9,99,6,19.3,100.85,1,355.596
10/2/2012 5:00,11.1,11,99,6,16.1,100.92,1,411.503
10/2/2012 6:00,11.2,11.2,100,0,48.3,100.96,2,412.073
10/2/2012 7:00,11.9,11.8,99,4,24.1,101.04,2,404.229
10/2/2012 8:00,13,12.4,96,9,24.1,101.08,2,514.93
10/2/2012 9:00,14.3,13.1,92,6,24.1,101.08,2,263.402
10/2/2012 10:00,15.2,13.3,88,9,24.1,101.09,2,21.6794
10/2/2012 11:00,16.6,13.9,84,7,24.1,101.08,2,28.904
10/2/2012 12:00,18.2,13.6,75,13,24.1,101.1,2,6.15095
10/2/2012 13:00,18.2,12.9,71,9,24.1,101.03,2,50.8807
10/2/2012 14:00,18.7,12.4,67,11,24.1,101.03,2,9.63505
10/2/2012 15:00,18.8,11.5,63,9,24.1,101.08,2,38.8075
10/2/2012 16:00,18.7,12.6,68,6,24.1,101.06,2,207.565
10/2/2012 17:00,17.9,13.9,77,9,24.1,101.1,2,273.337
10/2/2012 18:00,16.6,13.3,81,9,24.1,101.16,1,462.745
10/2/2012 19:00,15,13.3,90,11,25,101.18,1,318.474
10/2/2012 20:00,14.6,13,90,9,25,101.22,1,272.882
10/2/2012 21:00,14,12.8,92,6,25,101.27,1,135.043
10/2/2012 22:00,14.2,12.9,92,4,25,101.28,1,6.02325
10/2/2012 23:00,11.4,10.9,97,4,25,101.31,1,2.99477
10/3/2012 0:00,11.9,11.7,99,4,25,101.3,1,9.06548
10/3/2012 1:00,11.3,11,98,4,25,101.33,1,47.1214
10/3/2012 2:00,11.3,11.2,99,7,25,101.32,1,87.7526
10/3/2012 3:00,11.6,11.4,99,7,25,101.33,1,135.085
10/3/2012 4:00,11.5,11.2,98,7,25,101.37,1,404.466
10/3/2012 5:00,11,11,100,11,3.2,101.38,2,519.834
10/3/2012 6:00,11.5,11.5,100,11,0.6,101.42,2,484.528
10/3/2012 7:00,11.7,11.7,100,13,0.6,101.49,2,458.954
10/3/2012 8:00,11.4,11.4,100,15,1.6,101.54,2,356.76
10/3/2012 9:00,12.7,12.6,99,19,4.8,101.53,2,143.515
10/3/2012 10:00,14.8,13.5,92,19,9.7,101.5,2,18.7967
10/3/2012 11:00,15.8,13.7,87,19,12.9,101.48,2,0.01082
10/3/2012 12:00,16.9,13.2,79,19,24.1,101.42,2,13.981
10/3/2012 13:00,17.5,13.5,77,13,19.3,101.4,2,27.5964
10/3/2012 14:00,18.7,13.6,72,13,19.3,101.4,2,89.831
10/3/2012 15:00,19.3,13.9,71,13,24.1,101.4,2,164.774
10/3/2012 16:00,19.2,14.2,73,11,24.1,101.42,2,204.148
10/3/2012 17:00,19.2,13.9,71,11,24.1,101.45,2,373.326
10/3/2012 18:00,18.9,13.9,73,11,25,101.47,2,317.352
10/3/2012 19:00,19,13.9,72,7,25,101.51,2,361.903
10/3/2012 20:00,18.6,14.3,76,9,25,101.51,2,166.025
10/3/2012 21:00,18.6,14.4,77,11,25,101.53,2,91.0517
10/3/2012 22:00,18.3,14.7,80,7,25,101.56,2,9.18975
10/3/2012 23:00,18,14.9,82,7,25,101.57,2,0.14889
10/4/2012 0:00,17,15.1,89,11,16.1,101.55,2,9.51787
10/4/2012 1:00,16.1,14.7,91,11,16.1,101.55,2,29.6508
10/4/2012 2:00,14.7,14.1,96,11,6.4,101.56,3,21.9067
10/4/2012 3:00,12.6,11.8,95,13,9.7,101.55,3,53.7673
10/4/2012 4:00,11.7,11.5,99,15,19.3,101.55,2,212.226
10/4/2012 5:00,11.5,11,97,9,16.1,101.59,2,410.046
10/4/2012 6:00,11.3,10.8,97,9,6.4,101.58,2,585.233
10/4/2012 7:00,11.4,11.1,98,13,4,101.58,3,494.813
10/4/2012 8:00,12,11.8,99,7,4,101.57,2,371.108
10/4/2012 9:00,12.1,12,99,11,2.8,101.54,3,79.6197
10/4/2012 10:00,12.6,12.5,99,9,4.8,101.47,3,140.99
10/4/2012 11:00,13.3,12.8,97,6,6.4,101.47,2,1.21624
10/4/2012 12:00,13.6,13,96,0,6.4,101.42,3,7.05748
10/4/2012 13:00,14.4,13.2,92,0,6.4,101.38,3,22.9102
10/4/2012 14:00,15.6,14.3,92,4,8,101.3,3,52.8844
10/4/2012 15:00,15.9,14.7,93,4,9.7,101.24,2,166.541
10/4/2012 16:00,16,15.5,97,4,9.7,101.18,2,232.497
10/4/2012 17:00,15.8,15.3,97,4,9.7,101.13,2,397.807
10/4/2012 18:00,14.6,14.5,99,0,9.7,101.12,2,436.68
10/4/2012 19:00,14.8,14.6,99,6,9.7,101.1,2,386.234
10/4/2012 20:00,14.1,14.1,100,4,9.7,101.1,2,258.422
10/4/2012 21:00,14.4,13.7,96,6,9.7,101.07,2,263.608
10/4/2012 22:00,15.3,13.8,91,13,12.9,101.01,1,6.52539
10/4/2012 23:00,16.6,13.7,83,13,9.7,100.97,3,0.41104
10/5/2012 0:00,15.8,12.7,82,11,12.9,100.94,1,9.95175
10/5/2012 1:00,15.3,12.6,84,15,12.9,100.94,1,21.4791
10/5/2012 2:00,15.7,12.7,82,17,16.1,100.92,1,69.1094
10/5/2012 3:00,14.7,12.6,87,17,19.3,100.94,1,148.762
10/5/2012 4:00,14.4,12.6,89,13,19.3,100.96,1,205.94
10/5/2012 5:00,13.8,12.6,92,17,19.3,100.96,1,438.014
10/5/2012 6:00,13.7,12.9,95,4,16.1,100.93,1,525.725
10/5/2012 7:00,15.3,14,92,6,24.1,100.92,1,381.913
10/5/2012 8:00,16.8,14.3,85,9,24.1,100.92,2,398.26
10/5/2012 9:00,17.3,13.6,79,13,24.1,100.84,2,45.9865
10/5/2012 10:00,18.9,14.4,75,11,24.1,100.87,3,11.493
10/5/2012 11:00,17.5,14.3,81,22,24.1,100.85,2,31.8516
10/5/2012 12:00,18.5,15.3,82,19,24.1,100.74,2,19.5979
10/5/2012 13:00,19.2,14.9,76,20,24.1,100.69,2,33.4868
10/5/2012 14:00,20.2,15.6,75,19,24.1,100.6,2,104.975
10/5/2012 15:00,20.7,15.4,72,26,24.1,100.57,2,191.096
10/5/2012 16:00,20.3,15.4,73,28,24.1,100.55,2,228.972
10/5/2012 17:00,19.7,14.8,73,26,24.1,100.55,2,368.339
10/5/2012 18:00,19,14.8,77,24,25,100.53,2,651.001
10/5/2012 19:00,18.7,14.2,75,32,25,100.53,2,468.56
10/5/2012 20:00,18.1,14,77,24,25,100.55,2,274.832
10/5/2012 21:00,17.8,13.8,77,22,25,100.56,2,174.975
10/5/2012 22:00,17.4,12.1,71,19,25,100.54,2,102.414
10/5/2012 23:00,17,10.9,67,17,25,100.53,2,0.02981
10/6/2012 0:00,16.8,11.2,70,13,25,100.51,2,0.3407
10/6/2012 1:00,16.1,10.9,71,17,25,100.5,2,0.10675
10/6/2012 2:00,15.4,9.6,68,11,25,100.44,3,5.22216
10/6/2012 3:00,14.6,10.1,74,11,25,100.39,3,50.6288
10/6/2012 4:00,11,9.7,92,13,16.1,100.35,3,322.274
10/6/2012 5:00,9.4,8.8,96,15,16.1,100.32,3,338.123
10/6/2012 6:00,9.1,8.7,97,6,16.1,100.35,3,800.869
10/6/2012 7:00,8.6,8.4,99,11,8,100.35,3,453.255
10/6/2012 8:00,8.8,8.4,97,7,19.3,100.36,3,340.816
10/6/2012 9:00,9.5,8.6,94,7,24.1,100.33,3,272.28
10/6/2012 10:00,9.7,8.7,93,13,24.1,100.32,3,12.5447
10/6/2012 11:00,9.6,8.4,92,13,24.1,100.35,3,5.91518
10/6/2012 12:00,10.9,9.3,90,17,24.1,100.32,2,20.0385
10/6/2012 13:00,11.8,9,83,20,24.1,100.3,2,26.8679
10/6/2012 14:00,13.8,8.9,72,17,24.1,100.28,2,76.7595
10/6/2012 15:00,14.4,8.8,69,28,48.3,100.25,1,202.779
10/6/2012 16:00,14.6,7.7,63,28,48.3,100.26,1,439.359
10/6/2012 17:00,12,7.9,76,9,48.3,100.32,2,366.512
10/6/2012 18:00,9.7,7.2,84,19,25,100.43,2,356.645
10/6/2012 19:00,10.2,5.9,75,26,25,100.52,2,429.486
10/6/2012 20:00,9.8,5.5,75,17,25,100.58,1,320.606
10/6/2012 21:00,9.7,5.2,74,19,25,100.66,1,181.583
10/6/2012 22:00,9.2,4.4,72,26,25,100.75,1,5.0709
10/6/2012 23:00,8.7,4,72,22,25,100.79,1,0.21109
10/7/2012 0:00,8.8,4.2,73,28,25,100.82,2,1.05632
10/7/2012 1:00,8.4,4.4,76,17,25,100.9,1,8.84245
10/7/2012 2:00,7,4.2,82,15,25,100.93,1,31.1425
10/7/2012 3:00,6.5,3.9,83,11,25,101.01,1,113.584
10/7/2012 4:00,5.3,3.7,89,13,25,101.09,1,385.625
10/7/2012 5:00,5.7,3.8,88,7,25,101.19,2,437.875
10/7/2012 6:00,5.9,3.7,86,11,24.1,101.25,2,355.399
10/7/2012 7:00,6,3.7,85,13,24.1,101.31,2,394.333
10/7/2012 8:00,5.9,3.3,83,9,24.1,101.29,1,247.686
10/7/2012 9:00,6.9,2.5,74,9,48.3,101.3,2,250.576
10/7/2012 10:00,8.5,3.1,69,22,48.3,101.3,2,21.9283
10/7/2012 11:00,9,1.5,59,15,48.3,101.33,1,0.00843
10/7/2012 12:00,9.2,0.6,55,22,48.3,101.36,2,16.0598
10/7/2012 13:00,9.3,-0.5,50,20,48.3,101.32,2,1.62475
10/7/2012 14:00,10.2,-0.6,47,17,48.3,101.25,1,54.9691
10/7/2012 15:00,10.5,0.3,49,11,48.3,101.24,1,203.641
10/7/2012 16:00,9.2,-0.2,52,11,48.3,101.23,2,164.443
10/7/2012 17:00,8.6,-1.2,50,13,48.3,101.26,2,622.822
10/7/2012 18:00,7.3,-0.1,59,9,25,101.27,2,615.753
10/7/2012 19:00,7.3,0.9,64,6,25,101.3,2,380.547
10/7/2012 20:00,7.4,0.4,61,6,25,101.33,2,258.746
10/7/2012 21:00,7.3,0.6,62,7,25,101.34,2,84.9505
10/7/2012 22:00,7.5,0.4,61,0,25,101.38,2,127.723
10/7/2012 23:00,6.5,1.4,70,15,25,101.44,3,0.62698
10/8/2012 0:00,6.4,2.9,78,9,25,101.49,3,4.05949
10/8/2012 1:00,6.2,2.9,79,7,25,101.52,3,13.9698
10/8/2012 2:00,5.4,3,84,6,25,101.5,2,46.4431
10/8/2012 3:00,5.1,2.9,86,0,25,101.52,1,103.609
10/8/2012 4:00,3.6,2.4,92,6,25,101.58,1,229.51
10/8/2012 5:00,2.8,2.6,99,0,25,101.62,1,470.844
10/8/2012 6:00,2.4,1.9,96,9,24.1,101.73,1,747.537
10/8/2012 7:00,2.5,1.3,92,6,48.3,101.83,1,199.356
10/8/2012 8:00,5.4,1.1,74,7,48.3,101.92,1,227.284
10/8/2012 9:00,6.6,0.5,65,4,48.3,101.94,1,270.92
10/8/2012 10:00,8.6,-1.7,48,7,48.3,101.97,1,34.4858
10/8/2012 11:00,10,-1,46,9,48.3,101.95,1,25.0712
10/8/2012 12:00,10.7,-2,41,13,48.3,101.95,1,3.8527
10/8/2012 13:00,11.1,-1.3,42,13,48.3,101.93,1,3.20108
10/8/2012 14:00,11.6,-1.5,40,19,48.3,101.91,1,36.3113
10/8/2012 15:00,11.9,0.3,45,9,48.3,101.89,2,226.008
10/8/2012 16:00,12,-0.1,43,13,48.3,101.9,2,202.54
10/8/2012 17:00,11.5,-1,42,9,48.3,101.94,2,539.037
10/8/2012 18:00,10.6,-0.7,45,7,25,101.98,2,319.079
10/8/2012 19:00,9.7,1.5,57,15,25,102.03,1,244.488
10/8/2012 20:00,8.1,2.2,66,7,25,102.05,1,247.653
10/8/2012 21:00,7.3,2.7,73,9,25,102.08,1,345.506
10/8/2012 22:00,8,2,66,4,25,102.08,1,6.17463
10/8/2012 23:00,7.4,1.9,68,7,25,102.06,1,6.5125
10/9/2012 0:00,5.8,2.6,80,6,25,102.06,1,13.6412
10/9/2012 1:00,5.8,3.3,84,4,25,102.08,1,6.00206
10/9/2012 2:00,5.9,3.4,84,6,25,102.06,1,73.5596
10/9/2012 3:00,5.9,3.2,83,4,25,102.02,1,146.875
10/9/2012 4:00,4.3,2.7,89,7,25,102.04,1,257.578
10/9/2012 5:00,5.1,3.2,88,4,25,102.08,1,263.16
10/9/2012 6:00,5.4,3.7,89,7,48.3,102.09,1,409.154
10/9/2012 7:00,6.7,5.3,91,9,48.3,102.09,1,220.255
10/9/2012 8:00,8.4,6,85,15,48.3,102.08,1,282.964
10/9/2012 9:00,10.3,6.4,77,15,48.3,102.06,1,236.316
10/9/2012 10:00,12.5,6,65,17,48.3,102,1,5.77824
10/9/2012 11:00,13.5,4.7,55,6,48.3,101.93,1,2.564
10/9/2012 12:00,14.4,4.4,51,7,48.3,101.84,1,0.00249
10/9/2012 13:00,15,4.4,49,7,48.3,101.71,2,6.08321
10/9/2012 14:00,14.9,3.2,45,11,48.3,101.66,2,7.92641
10/9/2012 15:00,15,4.6,50,13,48.3,101.59,2,341.871
10/9/2012 16:00,14.5,4,49,13,48.3,101.57,2,199.635
10/9/2012 17:00,13.6,4.8,55,22,48.3,101.5,2,274.958
10/9/2012 18:00,13.2,4.8,57,20,25,101.44,2,428.041
10/9/2012 19:00,12.8,4.5,57,19,25,101.45,2,320.256
10/9/2012 20:00,11.9,4.6,61,19,25,101.4,1,361.797
10/9/2012 21:00,11.4,4.5,62,19,25,101.36,1,112.708
10/9/2012 22:00,10.6,7.4,81,17,25,101.32,1,24.2999
10/9/2012 23:00,10.4,7.4,82,19,25,101.26,1,2.98989
10/10/2012 0:00,10,7.4,84,15,25,101.22,1,1.04976
10/10/2012 1:00,10.3,7.8,84,11,25,101.18,2,46.5265
10/10/2012 2:00,11,7.8,81,15,25,101.09,2,15.9467
10/10/2012 3:00,11.3,7.9,80,13,25,101.01,2,312.651
10/10/2012 4:00,11.3,8.1,81,30,25,100.94,2,180.555
10/10/2012 5:00,11.2,8.3,82,20,25,100.9,2,481.578
10/10/2012 6:00,11.5,8.4,81,37,24.1,100.85,2,496.747
10/10/2012 7:00,11.6,8.8,83,39,24.1,100.8,2,898.072
10/10/2012 8:00,12,8.8,81,32,24.1,100.73,2,396.955
10/10/2012 9:00,12.5,8.9,79,32,24.1,100.64,2,229.974
10/10/2012 10:00,13.5,9,74,33,24.1,100.53,2,39.532
10/10/2012 11:00,12.2,10.6,90,13,12.9,100.43,3,0.10678
10/10/2012 12:00,13.3,9.9,80,20,19.3,100.33,2,22.6256
10/10/2012 13:00,12.5,10.8,89,19,4,100.24,3,12.5362
10/10/2012 14:00,12.8,11.8,94,19,48.3,100.07,2,38.8424
10/10/2012 15:00,13.2,11.2,88,15,48.3,100.01,2,101.169
10/10/2012 16:00,13.7,10.4,80,26,16.1,100.02,3,206.353
10/10/2012 17:00,11.5,7.7,77,33,24.1,100.13,3,477.063
10/10/2012 18:00,8.9,7.1,88,19,25,100.25,2,588.575
10/10/2012 19:00,7.8,6.1,89,17,25,100.31,2,311.883
10/10/2012 20:00,7.4,5.9,90,15,25,100.34,2,235.861
10/10/2012 21:00,7.9,5.9,87,19,25,100.37,2,160.93
10/10/2012 22:00,7.7,5.7,87,11,25,100.4,2,6.53971
10/10/2012 23:00,6.7,4.9,88,9,25,100.37,1,2.27446
10/11/2012 0:00,7.2,4.4,82,17,25,100.4,2,0.65574
10/11/2012 1:00,6.7,3.8,82,20,25,100.42,2,16.0921
10/11/2012 2:00,6.6,3.8,82,32,25,100.45,2,26.2234
10/11/2012 3:00,6.6,3.9,83,24,25,100.51,2,199.444
10/11/2012 4:00,6,3.2,82,26,25,100.68,2,209.835
10/11/2012 5:00,5.5,2.5,81,28,25,100.84,1,224.577
10/11/2012 6:00,5,2.4,83,22,24.1,100.95,1,558.314
10/11/2012 7:00,4.9,2.3,83,26,24.1,101.05,1,317.717
10/11/2012 8:00,6,2.3,77,20,24.1,101.14,1,298.646
10/11/2012 9:00,6.8,1.2,67,24,24.1,101.2,1,171.9
10/11/2012 10:00,7.7,0.2,59,32,48.3,101.19,2,49.8057
10/11/2012 11:00,8.7,1.2,59,24,48.3,101.2,2,3.71126
10/11/2012 12:00,8,-0.6,55,30,48.3,101.22,2,0.02014
10/11/2012 13:00,9.2,-1.8,46,30,48.3,101.22,2,4.31731
10/11/2012 14:00,9.7,-1.7,45,26,48.3,101.2,2,98.9955
10/11/2012 15:00,9.8,-2.9,41,30,48.3,101.21,2,283.174
10/11/2012 16:00,9.8,-2.7,41,28,48.3,101.18,2,274.778
10/11/2012 17:00,9.1,-2.2,45,19,24.1,101.15,2,451.158
10/11/2012 18:00,9.1,0.9,56,30,25,101.19,3,358.158
10/11/2012 19:00,8.4,2.2,65,37,25,101.13,3,293.918
10/11/2012 20:00,7,3.6,79,32,25,101.07,3,349.922
10/11/2012 21:00,6.6,4.2,85,22,25,100.93,3,207.224
10/11/2012 22:00,6.9,3.9,81,22,25,100.77,3,8.98786
10/11/2012 23:00,8.2,4.2,76,19,25,100.69,3,17.4939
10/12/2012 0:00,7.7,5.3,85,22,25,100.74,3,4.69858
10/12/2012 1:00,8.1,5.4,83,24,25,100.75,3,20.0933
10/12/2012 2:00,7.9,4.4,79,30,25,100.76,2,23.1504
10/12/2012 3:00,7.2,1.1,65,33,25,100.83,2,89.8199
10/12/2012 4:00,5.5,0.6,71,26,25,101,2,258.967
10/12/2012 5:00,4.4,-0.1,73,24,25,101.14,2,626.279
10/12/2012 6:00,3.6,-0.4,75,24,24.1,101.3,1,414.579
10/12/2012 7:00,3.7,-0.4,75,17,24.1,101.45,1,1012.02
10/12/2012 8:00,4.8,-0.7,68,17,24.1,101.57,1,275.258
10/12/2012 9:00,5.4,-1.7,60,19,24.1,101.68,2,52.3823
10/12/2012 10:00,5.4,-2.4,57,20,24.1,101.74,2,19.8951
10/12/2012 11:00,6.2,-3.4,50,22,24.1,101.76,2,0.95423
10/12/2012 12:00,5.6,-5.1,46,30,24.1,101.83,2,17.7638
10/12/2012 13:00,6.2,-5.5,43,26,24.1,101.87,2,2.89884
10/12/2012 14:00,6.2,-5.1,44,22,24.1,101.93,2,49.1879
10/12/2012 15:00,6.4,-5.4,43,20,24.1,101.98,2,204.675
10/12/2012 16:00,5.2,-5.3,47,19,24.1,102.07,2,237.962
10/12/2012 17:00,4.7,-5.1,49,22,24.1,102.13,1,283.547
10/12/2012 18:00,4,-4.5,54,15,25,102.21,1,494.22
10/12/2012 19:00,2.5,-3.9,63,13,25,102.28,1,388.252
10/12/2012 20:00,1.2,-3.6,70,9,25,102.35,1,245.315
10/12/2012 21:00,0.7,-4,71,7,25,102.41,1,166.98
10/12/2012 22:00,0,-4.7,71,9,25,102.47,1,21.3492
10/12/2012 23:00,-0.2,-4.9,71,9,25,102.48,1,16.9888
10/13/2012 0:00,1.9,-3.8,66,9,25,102.49,2,1.14107
10/13/2012 1:00,-0.9,-3.8,81,7,25,102.51,2,11.6018
10/13/2012 2:00,0.1,-3.6,76,4,25,102.47,2,9.01275
10/13/2012 3:00,-1.6,-3.6,86,4,25,102.49,2,115.73
10/13/2012 4:00,-1.9,-3.8,87,4,25,102.52,1,307.156
10/13/2012 5:00,-1.9,-3.9,86,0,25,102.53,1,357.403
10/13/2012 6:00,-1,-3.3,84,0,48.3,102.54,2,473.361
10/13/2012 7:00,1,-2.2,79,6,48.3,102.56,2,395.807
10/13/2012 8:00,3.4,-1.3,71,11,48.3,102.57,1,234.519
10/13/2012 9:00,4.5,1.2,79,17,48.3,102.55,1,254.758
10/13/2012 10:00,6.1,-1.1,60,19,48.3,102.52,1,0.00089
10/13/2012 11:00,7.7,-3.7,44,28,48.3,102.46,2,0.57815
10/13/2012 12:00,9.7,-1.9,44,22,48.3,102.37,2,0.1202
10/13/2012 13:00,8.6,-2.8,45,20,48.3,102.24,1,32.3783
10/13/2012 14:00,9.8,-3.1,40,19,48.3,102.2,2,11.8894
10/13/2012 15:00,9.4,-2.1,44,19,48.3,102.18,2,53.5327
10/13/2012 16:00,9.5,-2.7,42,17,48.3,102.14,2,179.551
10/13/2012 17:00,9.1,-2.7,43,13,25,102.08,2,372.435
10/13/2012 18:00,8.8,-2.4,45,7,25,102.01,2,403.483
10/13/2012 19:00,8.2,-1.1,52,15,25,101.92,2,481.268
10/13/2012 20:00,7.9,-1.4,52,15,25,101.85,2,330.746
10/13/2012 21:00,8.3,-1.9,49,9,25,101.73,2,57.4383
10/13/2012 22:00,8.2,-0.9,53,24,25,101.75,3,0.22844
10/13/2012 23:00,5.6,3,83,19,9.7,101.77,3,0.30376
10/14/2012 0:00,5.4,3.1,85,7,8,101.68,3,8.75886
10/14/2012 1:00,4.6,3.4,92,20,9.7,101.51,3,24.1695
10/14/2012 2:00,4.4,3.2,92,17,11.3,101.35,3,21.2529
10/14/2012 3:00,4.6,3.8,95,17,9.7,101.24,3,198.791
10/14/2012 4:00,4.9,4.3,96,17,8,101.16,3,167.221
10/14/2012 5:00,5.4,4.5,94,9,9.7,101.18,3,450.405
10/14/2012 6:00,5.5,4.5,93,11,12.9,101.11,3,715.223
10/14/2012 7:00,5.9,4.8,93,6,9.7,101.16,2,512.127
10/14/2012 8:00,6.2,5.4,95,7,4.8,101.13,2,353.869
10/14/2012 9:00,6.8,5.4,91,7,16.1,101.13,2,81.5994
10/14/2012 10:00,7.3,5.7,90,6,16.1,101.14,3,4.60815
10/14/2012 11:00,6.7,6.4,98,11,3.2,101.11,3,5.97798
10/14/2012 12:00,6.7,6.3,97,13,2.4,101,3,18.5356
10/14/2012 13:00,6.6,6.3,98,13,1.6,100.94,3,16.2548
10/14/2012 14:00,6.6,6.3,98,19,2,100.84,3,70.7981
10/14/2012 15:00,7,6.6,97,15,8,100.77,3,66.1616
10/14/2012 16:00,7.5,7.1,97,15,3.2,100.68,3,267.215
10/14/2012 17:00,7.7,7.3,97,19,6.4,100.67,3,341.042
10/14/2012 18:00,9.9,9.4,97,11,2,100.56,3,540.907
10/14/2012 19:00,9.6,9.1,97,15,9.7,100.48,3,493.21
10/14/2012 20:00,10,9.3,95,15,9.7,100.31,2,291.549
10/14/2012 21:00,9.8,9.3,97,11,9.7,100.27,2,199.171
10/14/2012 22:00,9.4,9.1,98,7,9.7,100.17,2,126.285
10/14/2012 23:00,8.9,8.6,98,15,6.4,100.13,3,1.69035
10/15/2012 0:00,8.8,8.4,97,13,9.7,100.05,3,1.29152
10/15/2012 1:00,8.5,8.2,98,9,9.7,100.02,3,0.14722
10/15/2012 2:00,8.7,8.4,98,11,9.7,99.88,3,62.7686
10/15/2012 3:00,8.8,8.4,97,9,9.7,99.78,3,229.589
10/15/2012 4:00,11.9,10.7,92,4,12.9,99.66,2,302.197
10/15/2012 5:00,13.5,11.6,88,11,16.1,99.62,2,528.775
10/15/2012 6:00,13.6,11.5,87,19,24.1,99.56,2,415.257
10/15/2012 7:00,13.8,11.1,84,19,24.1,99.53,2,435.166
10/15/2012 8:00,14.4,11.3,82,20,24.1,99.53,2,282.872
10/15/2012 9:00,16.4,12.1,76,24,24.1,99.51,2,76.6518
10/15/2012 10:00,16.6,12.7,78,20,24.1,99.5,2,4.48053
10/15/2012 11:00,16.6,12.4,76,17,24.1,99.61,3,6.51869
10/15/2012 12:00,16.4,10.6,69,22,24.1,99.63,2,2.4001
10/15/2012 13:00,16.3,10.7,69,28,24.1,99.64,2,16.7112
10/15/2012 14:00,17.8,9.3,57,30,48.3,99.65,2,35.0165
10/15/2012 15:00,16.2,9,62,28,24.1,99.7,2,79.8924
10/15/2012 16:00,15.5,8.9,65,30,24.1,99.7,2,206.714
10/15/2012 17:00,14.7,8.2,65,33,24.1,99.69,2,606.088
10/15/2012 18:00,13.7,8.7,72,32,25,99.7,2,376.786
10/15/2012 19:00,12.9,8.3,74,30,25,99.72,2,401.075
10/15/2012 20:00,12.6,7.9,73,30,25,99.76,1,288.777
10/15/2012 21:00,12.1,6.8,70,26,25,99.74,1,190.116
10/15/2012 22:00,12.1,5.1,62,32,25,99.73,2,53.8007
10/15/2012 23:00,11.6,3.5,57,28,25,99.75,2,0.0104
10/16/2012 0:00,9.8,3.8,66,28,25,99.81,1,0.3257
10/16/2012 1:00,9.2,3.9,69,24,25,99.89,2,40.4723
10/16/2012 2:00,7.6,1.8,67,30,25,99.88,1,32.017
10/16/2012 3:00,6.7,2.6,75,19,25,99.88,2,169.242
10/16/2012 4:00,6.6,3,78,22,25,99.94,2,317.756
10/16/2012 5:00,5.9,2.9,81,19,25,99.99,2,525.691
10/16/2012 6:00,5.2,1,74,28,24.1,100.05,2,707.404
10/16/2012 7:00,4.8,0.8,75,15,24.1,100.18,2,367.376
10/16/2012 8:00,5.6,0.7,71,22,24.1,100.24,1,181.867
10/16/2012 9:00,6,1.3,72,19,24.1,100.27,2,72.9881
10/16/2012 10:00,7.6,1.6,66,26,24.1,100.3,2,32.9518
10/16/2012 11:00,7.7,1.4,64,22,24.1,100.34,2,1.97838
10/16/2012 12:00,7.8,1.6,65,28,24.1,100.35,2,7.07224
10/16/2012 13:00,8.2,1.2,61,24,24.1,100.38,2,22.9071
10/16/2012 14:00,8.6,0.7,58,30,24.1,100.37,2,78.9631
10/16/2012 15:00,8.4,0.7,58,32,24.1,100.39,2,203.005
10/16/2012 16:00,8.4,0,55,28,24.1,100.43,2,315.752
10/16/2012 17:00,7.3,-0.5,58,20,24.1,100.47,1,224.887
10/16/2012 18:00,6.5,-0.2,62,15,25,100.54,1,559.799
10/16/2012 19:00,4.9,-0.2,70,9,25,100.57,1,624.073
10/16/2012 20:00,3.7,-0.3,75,7,25,100.63,1,623.689
10/16/2012 21:00,3,-0.5,78,11,25,100.66,1,133.63
10/16/2012 22:00,4.1,-0.4,72,7,25,100.73,1,4.91701
10/16/2012 23:00,1.6,-0.5,86,7,25,100.75,1,7.61877
10/17/2012 0:00,3.8,0.5,79,11,25,100.8,1,13.9546
10/17/2012 1:00,2.8,0.6,85,9,25,100.86,1,65.6833
10/17/2012 2:00,1.1,-1.2,85,7,25,100.91,1,53.425
10/17/2012 3:00,1.8,-0.9,82,6,25,100.92,2,29.6299
10/17/2012 4:00,2.2,-0.2,84,7,25,100.96,2,229.508
10/17/2012 5:00,2.6,0.2,84,0,25,100.95,2,357.968
10/17/2012 6:00,2.7,0.4,85,0,24.1,100.98,1,487.922
10/17/2012 7:00,3.3,0.7,83,0,24.1,101.02,1,388.641
10/17/2012 8:00,6.3,2,74,0,24.1,101.06,1,212.273
10/17/2012 9:00,7.1,4.1,81,6,24.1,101.08,1,185.89
10/17/2012 10:00,9.1,1.3,58,6,24.1,101.08,1,48.9485
10/17/2012 11:00,10.1,2.1,58,6,48.3,101.02,1,0.01352
10/17/2012 12:00,10.8,2.1,55,7,48.3,100.97,1,10.7854
10/17/2012 13:00,11.4,1.9,52,6,48.3,100.9,2,28.6799
10/17/2012 14:00,12,2.4,52,0,48.3,100.88,2,123.023
10/17/2012 15:00,12.5,2.9,52,4,48.3,100.86,2,115.429
10/17/2012 16:00,12.5,3.5,54,4,48.3,100.87,2,234.761
10/17/2012 17:00,11.7,4,59,11,24.1,100.87,2,549.54
10/17/2012 18:00,11,4.7,65,7,25,100.94,2,327.091
10/17/2012 19:00,11.7,3.6,58,7,25,100.93,2,223.517
10/17/2012 20:00,11.7,3.2,56,9,25,100.92,2,269.975
10/17/2012 21:00,11.6,3.6,58,11,25,100.92,2,51.2185
10/17/2012 22:00,11.7,4.1,60,7,25,100.93,2,9.41034
10/17/2012 23:00,11.1,4.9,66,11,25,100.9,2,13.5853
10/18/2012 0:00,11.1,4.8,65,6,25,100.92,2,7.99686
10/18/2012 1:00,10.9,5.2,68,4,25,100.92,2,12.5831
10/18/2012 2:00,10.9,4.9,66,4,25,100.92,2,8.35921
10/18/2012 3:00,8.9,5.3,78,9,25,100.91,2,44.7567
10/18/2012 4:00,9.1,5.7,79,11,25,100.92,2,281.536
10/18/2012 5:00,9.4,5.8,78,11,25,100.94,2,786.245
10/18/2012 6:00,9,5.8,80,11,48.3,100.96,2,454.244
10/18/2012 7:00,10.7,5.1,68,9,48.3,100.98,1,696.272
10/18/2012 8:00,12.2,5.7,64,6,48.3,101.02,2,239.95
10/18/2012 9:00,14.4,6.4,59,15,48.3,100.99,1,70.0824
10/18/2012 10:00,16.1,6.7,54,15,48.3,100.97,1,3.32205
10/18/2012 11:00,17.9,6.3,47,15,48.3,100.94,1,0.06706
10/18/2012 12:00,18.3,6.3,45,17,48.3,100.9,1,3.05691
10/18/2012 13:00,18.3,6.2,45,22,48.3,100.85,1,5.51192
10/18/2012 14:00,19.3,5.8,41,28,48.3,100.78,1,0.05684
10/18/2012 15:00,18.6,3.6,37,26,48.3,100.78,2,297.624
10/18/2012 16:00,18.3,3.8,38,28,48.3,100.69,2,209.147
10/18/2012 17:00,16.6,4.7,45,15,48.3,100.74,2,732.781
10/18/2012 18:00,16,5.1,48,17,25,100.8,2,353.252
10/18/2012 19:00,15.6,5.2,50,15,25,100.86,1,407.441
10/18/2012 20:00,14.9,5.7,54,17,25,100.9,2,193.233
10/18/2012 21:00,13.8,6,59,17,25,100.95,2,162.603
10/18/2012 22:00,14.4,5.9,57,19,25,100.99,2,15.8119
10/18/2012 23:00,12.7,5.7,62,15,25,100.96,2,10.6704
10/19/2012 0:00,12.3,6.1,66,17,25,100.94,1,8.7212
10/19/2012 1:00,11.7,5.8,67,17,25,100.92,1,23.461
10/19/2012 2:00,11.7,6,68,15,25,100.92,1,42.3547
10/19/2012 3:00,12,6,67,19,25,100.94,2,118.086
10/19/2012 4:00,11.9,6.7,70,13,25,100.96,3,266.631
10/19/2012 5:00,11.7,8.7,82,17,19.3,100.96,3,547.481
10/19/2012 6:00,11.2,9.8,91,15,9.7,100.91,3,767.513
10/19/2012 7:00,11.3,9.9,91,17,9.7,101,3,306.786
10/19/2012 8:00,11.7,10.2,91,13,16.1,100.92,3,273.808
10/19/2012 9:00,12.8,10.6,86,24,24.1,100.77,2,177.51
10/19/2012 10:00,13.1,11,87,24,25,100.79,3,25.508
10/19/2012 11:00,12.8,11.5,92,9,19.3,100.79,3,0.04428
10/19/2012 12:00,13,11.5,91,11,16.1,100.77,3,14.8878
10/19/2012 13:00,13.1,11.9,92,17,12.9,100.64,3,5.67389
10/19/2012 14:00,13,12.1,94,15,8,100.55,3,53.2531
10/19/2012 15:00,13.3,12.1,92,13,9.7,100.45,3,120.237
10/19/2012 16:00,12.9,12.3,96,7,3.2,100.45,3,326.943
10/19/2012 17:00,13.1,12.1,94,17,6.4,100.38,3,605.515
10/19/2012 18:00,13.1,12.1,94,22,12.9,100.29,3,495.969
10/19/2012 19:00,13.5,12.4,93,7,9.7,100.29,3,737.185
10/19/2012 20:00,13.8,12.9,94,19,12.9,100.13,3,383.276
10/19/2012 21:00,13.8,12.6,92,17,24.1,100.16,2,153.624
10/19/2012 22:00,13.4,12.3,93,7,16.1,100.15,2,15.4586
10/19/2012 23:00,13.5,12.3,92,11,16.1,100.1,2,0.00822
10/20/2012 0:00,13.2,12.3,94,13,16.1,100.02,2,2.25106
10/20/2012 1:00,12.9,12.2,96,15,6.4,99.97,2,29.7185
10/20/2012 2:00,12.8,12.2,96,19,4.8,99.84,2,76.6334
10/20/2012 3:00,12.8,12.1,96,13,6.4,99.83,3,162.34
10/20/2012 4:00,12.4,11.9,97,7,11.3,99.83,2,280.501
10/20/2012 5:00,12.5,12,97,4,8,99.84,2,432.564
10/20/2012 6:00,10.6,10.6,100,4,0.4,99.87,2,468.194
10/20/2012 7:00,11.8,11.6,99,4,2.4,99.88,2,334.72
10/20/2012 8:00,12.7,12.5,99,4,1,99.89,2,185.82
10/20/2012 9:00,13.8,13.2,96,4,9.7,99.89,2,218.287
10/20/2012 10:00,16,13.2,83,15,24.1,99.87,1,130.107
10/20/2012 11:00,16.4,12.2,76,19,24.1,99.93,2,4.99061
10/20/2012 12:00,18.1,11.9,67,20,48.3,99.89,2,1.3331
10/20/2012 13:00,17.6,10.6,64,11,48.3,99.75,1,52.7534
10/20/2012 14:00,17.2,10.4,64,22,48.3,99.79,2,65.26
10/20/2012 15:00,16.4,8.8,61,22,24.1,99.75,2,109.438
10/20/2012 16:00,14,9.2,73,15,24.1,99.9,3,320.563
10/20/2012 17:00,13.4,9.2,76,11,24.1,99.95,3,766.414
10/20/2012 18:00,12.3,7.2,71,19,25,100.01,1,632.049
10/20/2012 19:00,11.6,5.9,68,20,25,100.04,1,608.192
10/20/2012 20:00,10.7,5.5,70,17,25,100.06,1,201.041
10/20/2012 21:00,11,6.1,72,13,25,100.07,1,244.715
10/20/2012 22:00,10.5,6.2,75,11,25,100.05,1,21.013
10/20/2012 23:00,10.2,6.4,77,19,25,100.05,1,19.4961
10/21/2012 0:00,9.2,6.3,82,13,25,100.07,1,0.29132
10/21/2012 1:00,9.9,6.8,81,19,25,100.14,2,33.7543
10/21/2012 2:00,10.3,7.2,81,19,25,100.15,2,13.1223
10/21/2012 3:00,10.6,7.2,79,26,25,100.15,2,227.216
10/21/2012 4:00,10.2,7.1,81,22,25,100.15,2,354.499
10/21/2012 5:00,10.5,7.3,81,24,25,100.15,3,522.397
10/21/2012 6:00,10.1,7.6,84,30,25,100.21,2,624.896
10/21/2012 7:00,9.8,7.1,83,28,24.1,100.26,2,358.844
10/21/2012 8:00,10.2,6.4,77,35,24.1,100.29,2,195.451
10/21/2012 9:00,10.4,6,74,26,24.1,100.27,2,55.233
10/21/2012 10:00,10.9,5.8,71,32,24.1,100.31,2,8.40755
10/21/2012 11:00,11.2,5.9,70,33,24.1,100.33,2,16.6593
10/21/2012 12:00,12.6,6.4,66,32,24.1,100.3,2,5.29986
10/21/2012 13:00,12.6,5.6,62,32,24.1,100.3,2,32.7776
10/21/2012 14:00,12.7,5.8,63,28,24.1,100.33,2,81.4802
10/21/2012 15:00,12.2,5.7,64,32,24.1,100.39,2,144.341
10/21/2012 16:00,12,5.5,64,30,24.1,100.44,2,438.896
10/21/2012 17:00,11.8,5.7,66,28,25,100.51,2,644.838
10/21/2012 18:00,11.5,5.8,68,22,25,100.56,2,604.175
10/21/2012 19:00,11.3,5.6,68,22,25,100.6,2,423.692
10/21/2012 20:00,11.4,5.5,67,20,25,100.63,2,247.244
10/21/2012 21:00,10.7,5.9,72,22,25,100.66,2,140.361
10/21/2012 22:00,10.1,5.3,72,15,25,100.72,2,52.6143
10/21/2012 23:00,9.3,4.9,74,17,25,100.75,2,0.92268
10/22/2012 0:00,8.7,4.1,73,32,25,100.73,1,0.81033
10/22/2012 1:00,8,3.9,75,26,25,100.77,1,7.77238
10/22/2012 2:00,7.6,3.9,77,24,25,100.81,1,10.455
10/22/2012 3:00,7.1,3.9,80,17,25,100.84,1,330.499
10/22/2012 4:00,7.4,4,79,19,25,100.84,1,197.267
10/22/2012 5:00,7.4,4.2,80,24,25,100.9,1,603.185
10/22/2012 6:00,7.2,4.1,81,15,25,100.95,1,276.94
10/22/2012 7:00,7.8,4.4,79,15,24.1,101,1,437.713
10/22/2012 8:00,10,5.1,72,22,24.1,101.04,2,342.129
10/22/2012 9:00,9.8,5.3,74,24,24.1,101.08,2,333.453
10/22/2012 10:00,11.2,5.6,68,26,48.3,101.01,1,89.3188
10/22/2012 11:00,12.7,6.3,65,30,48.3,101.06,1,2.12559
10/22/2012 12:00,13,5.6,61,24,48.3,101.03,1,0.37143
10/22/2012 13:00,14.2,6.2,59,24,48.3,101,1,37.7137
10/22/2012 14:00,14.5,4.7,52,22,48.3,101.04,1,25.2565
10/22/2012 15:00,14.6,5,52,28,48.3,101.05,1,149.653
10/22/2012 16:00,14.3,4.9,53,15,48.3,101.06,1,307.686
10/22/2012 17:00,13.2,4.7,56,20,24.1,101.11,1,570.203
10/22/2012 18:00,11.9,5.4,64,19,25,101.16,1,479.862
10/22/2012 19:00,11.1,5.7,69,13,25,101.21,1,340.538
10/22/2012 20:00,10.3,5.8,74,13,25,101.24,1,319.17
10/22/2012 21:00,8.4,5.2,80,9,25,101.29,1,298.594
10/22/2012 22:00,8.1,5.4,83,7,25,101.34,1,74.9472
10/22/2012 23:00,6.4,4.4,87,0,25,101.34,1,0.08277
10/23/2012 0:00,6.2,4.1,86,6,25,101.36,1,0.83205
10/23/2012 1:00,5.8,3.8,87,4,25,101.38,1,4.45144
10/23/2012 2:00,4.9,3.3,89,9,25,101.4,1,26.2286
10/23/2012 3:00,5.1,3.5,89,7,25,101.42,1,186.424
10/23/2012 4:00,5.1,3.5,89,4,25,101.47,1,300.067
10/23/2012 5:00,5.4,3.6,88,6,25,101.54,1,583.023
10/23/2012 6:00,5.1,3.5,89,6,24.1,101.59,1,506.578
10/23/2012 7:00,4.2,2.8,91,0,24.1,101.68,1,478.53
10/23/2012 8:00,6.9,4.5,85,11,24.1,101.71,2,230.131
10/23/2012 9:00,9.4,5,74,9,24.1,101.75,2,83.0429
10/23/2012 10:00,9.6,4.9,72,4,24.1,101.73,2,4.25047
10/23/2012 11:00,10.9,4.6,65,0,24.1,101.69,2,5.10306
10/23/2012 12:00,11.1,3.8,61,0,24.1,101.62,1,10.3983
10/23/2012 13:00,12.2,3.8,56,4,24.1,101.59,2,10.9028
10/23/2012 14:00,13.1,3.8,53,6,24.1,101.58,2,7.77532
10/23/2012 15:00,12.3,4.3,58,11,24.1,101.57,2,135.889
10/23/2012 16:00,11.9,4,58,11,24.1,101.57,2,350.062
10/23/2012 17:00,10.9,3.6,61,9,24.1,101.6,1,429.508
10/23/2012 18:00,7.9,3.5,74,0,25,101.64,1,316.506
10/23/2012 19:00,8.6,3.3,69,0,25,101.7,1,806.554
10/23/2012 20:00,7,2.9,75,0,25,101.72,1,527.605
10/23/2012 21:00,6.9,2.6,74,0,25,101.73,1,77.1145
10/23/2012 22:00,6.8,3.9,82,7,25,101.76,1,58.0797
10/23/2012 23:00,7.7,0.2,59,13,25,101.79,1,1.20948
10/24/2012 0:00,7.3,-1.4,54,13,25,101.81,1,2.20118
10/24/2012 1:00,5.1,-1,65,13,25,101.83,1,25.7535
10/24/2012 2:00,4,-1.2,69,7,25,101.9,1,103.99
10/24/2012 3:00,4.9,-0.9,66,7,25,101.9,1,82.0514
10/24/2012 4:00,2,-1.5,78,9,25,101.91,1,273.926
10/24/2012 5:00,2.6,-1.5,74,9,25,101.93,1,434.396
10/24/2012 6:00,1.9,-1.4,79,7,48.3,101.94,1,462.428
10/24/2012 7:00,2.6,-0.8,78,11,48.3,101.99,1,519.612
10/24/2012 8:00,5.8,-0.7,63,11,48.3,102.03,1,306.14
10/24/2012 9:00,7,-0.5,59,15,48.3,102.02,1,121.032
10/24/2012 10:00,7.2,-1.9,52,17,48.3,102,2,3.84201
10/24/2012 11:00,8.1,-0.9,53,11,48.3,101.93,2,0.70148
10/24/2012 12:00,9.1,-0.3,52,11,48.3,101.86,2,25.5379
10/24/2012 13:00,10.6,-0.6,46,6,48.3,101.79,1,6.73176
10/24/2012 14:00,11.7,-1.7,39,6,48.3,101.75,2,35.4543
10/24/2012 15:00,12.2,-2.1,37,11,48.3,101.73,2,280.166
10/24/2012 16:00,11.3,-2.1,39,11,48.3,101.75,2,168.951
10/24/2012 17:00,10.9,-2.2,40,17,48.3,101.78,2,559.224
10/24/2012 18:00,10.6,-0.3,47,13,25,101.83,2,563.936
10/24/2012 19:00,10.3,0.1,49,7,25,101.82,2,452.636
10/24/2012 20:00,10.1,-1.2,45,11,25,101.85,2,239.818
10/24/2012 21:00,10,-2.3,42,6,25,101.88,2,102.363
10/24/2012 22:00,9.4,-2.1,44,9,25,101.87,2,12.7244
10/24/2012 23:00,9.6,-2.5,43,15,25,101.9,2,1.9763
10/25/2012 0:00,9.5,-2.6,43,17,25,101.9,2,6.28317
10/25/2012 1:00,9.2,-1.8,46,15,25,101.92,2,2.50415
10/25/2012 2:00,8.4,-0.9,52,15,25,101.89,2,35.1278
10/25/2012 3:00,7.3,-0.5,58,13,25,101.84,1,89.4853
10/25/2012 4:00,6.9,-0.5,59,15,25,101.85,1,291.993
10/25/2012 5:00,5.7,0.2,68,17,25,101.89,2,628.946
10/25/2012 6:00,4.1,0.6,78,17,24.1,101.9,1,637.45
10/25/2012 7:00,4.6,1.5,80,19,24.1,101.93,2,414.03
10/25/2012 8:00,5.2,1.5,77,22,48.3,101.94,2,658.105
10/25/2012 9:00,6.4,-0.3,62,17,48.3,101.97,2,90.2567
10/25/2012 10:00,8,0.3,58,9,48.3,101.89,2,3.28945
10/25/2012 11:00,9.1,0.9,56,11,24.1,101.89,2,5.05268
10/25/2012 12:00,11.3,1.4,50,13,24.1,101.77,2,0.2034
10/25/2012 13:00,12.8,2.8,51,11,24.1,101.71,2,51.6389
10/25/2012 14:00,12.8,2.9,51,17,24.1,101.66,2,37.3254
10/25/2012 15:00,13.5,3.5,51,19,24.1,101.59,1,225.583
10/25/2012 16:00,13.3,4.2,54,15,24.1,101.59,2,217.668
10/25/2012 17:00,12.6,4.1,56,19,24.1,101.55,2,375.707
10/25/2012 18:00,11.8,4.9,63,15,25,101.54,2,264.157
10/25/2012 19:00,11.4,5.5,67,15,25,101.53,1,741.587
10/25/2012 20:00,11,5.9,71,15,25,101.51,1,163.07
10/25/2012 21:00,10,5.7,75,13,25,101.51,1,111.23
10/25/2012 22:00,9.8,6.4,79,13,25,101.47,1,21.4818
10/25/2012 23:00,9.3,6.6,83,9,25,101.45,1,5.71822
10/26/2012 0:00,8.9,6.4,84,9,25,101.47,1,3.75275
10/26/2012 1:00,8.5,6.4,87,7,25,101.49,2,10.9122
10/26/2012 2:00,8.3,6.4,88,11,25,101.5,1,0.77195
10/26/2012 3:00,7.7,6.4,91,7,25,101.49,1,109.904
10/26/2012 4:00,7.2,5.2,87,7,25,101.48,1,258.384
10/26/2012 5:00,7,5,87,9,16.1,101.52,1,642.036
10/26/2012 6:00,6.9,4.8,86,11,16.1,101.53,1,572.381
10/26/2012 7:00,6.7,4.5,86,11,19.3,101.57,1,683.449
10/26/2012 8:00,9.1,6.2,82,6,16.1,101.6,1,317.495
10/26/2012 9:00,11.7,7.9,77,7,16.1,101.6,1,119.125
10/26/2012 10:00,15.1,9.8,71,6,16.1,101.54,1,143.815
10/26/2012 11:00,18.1,12.7,71,4,16.1,101.51,1,0.42203
10/26/2012 12:00,19.8,12.9,64,9,16.1,101.43,1,7.44247
10/26/2012 13:00,20.9,13.3,62,11,19.3,101.36,1,9.08182
10/26/2012 14:00,21.1,13,60,9,19.3,101.36,1,18.3886
10/26/2012 15:00,20.4,13.1,63,13,24.1,101.35,1,347.585
10/26/2012 16:00,18.2,12.3,68,19,24.1,101.3,1,249.362
10/26/2012 17:00,15.7,11.6,77,9,24.1,101.33,1,528.94
10/26/2012 18:00,14.7,11.3,80,11,25,101.36,1,670.233
10/26/2012 19:00,13.5,11,85,7,25,101.39,1,469.48
10/26/2012 20:00,14.2,11.2,82,15,19.3,101.38,2,219.913
10/26/2012 21:00,13.1,10.9,86,9,25,101.38,1,130.232
10/26/2012 22:00,13,10.9,87,4,19.3,101.41,1,8.96177
10/26/2012 23:00,12.7,10.9,89,9,16.1,101.4,1,0.20418
10/27/2012 0:00,11.9,10.7,92,4,16.1,101.42,2,14.6215
10/27/2012 1:00,12.1,10.8,92,4,16.1,101.42,2,8.2562
10/27/2012 2:00,11.8,10.8,94,6,19.3,101.41,2,95.8359
10/27/2012 3:00,12.2,10.9,92,4,16.1,101.39,2,109.066
10/27/2012 4:00,12.1,10.9,92,0,12.9,101.38,2,227.869
10/27/2012 5:00,11.7,10.7,94,9,8,101.38,2,277.9
10/27/2012 6:00,11.9,10.6,92,9,9.7,101.41,2,796.267
10/27/2012 7:00,12.3,10.8,91,6,4,101.42,2,341.633
10/27/2012 8:00,12.7,10.8,88,11,6.4,101.46,2,258.316
10/27/2012 9:00,12.5,10.9,90,17,2.4,101.42,2,179.601
10/27/2012 10:00,12.4,10.9,91,15,2.8,101.4,2,9.40578
10/27/2012 11:00,13.4,11.1,86,11,6.4,101.35,2,25.1592
10/27/2012 12:00,14.1,11.1,82,17,6.4,101.26,2,17.809
10/27/2012 13:00,14.2,10.6,79,15,12.9,101.2,2,38.0801
10/27/2012 14:00,14.4,9.9,74,15,24.1,101.14,2,28.5818
10/27/2012 15:00,14.6,9.5,71,17,24.1,101.1,2,85.4605
10/27/2012 16:00,14.6,9.1,70,15,24.1,101.08,2,260.88
10/27/2012 17:00,13.9,9.3,74,9,24.1,101.09,2,675.394
10/27/2012 18:00,13.5,9.3,76,9,25,101.15,2,656.572
10/27/2012 19:00,13.7,8.8,72,11,25,101.13,2,457.57
10/27/2012 20:00,13.5,7.5,67,11,25,101.15,2,272.553
10/27/2012 21:00,13.3,7.4,67,11,25,101.14,2,150.797
10/27/2012 22:00,12.8,7.8,72,13,25,101.13,2,24.6582
10/27/2012 23:00,12,8.4,79,11,25,101.14,2,0
10/28/2012 0:00,11,8.4,84,15,25,101.18,2,6.30357
10/28/2012 1:00,10.4,7.4,82,15,25,101.19,2,10.4603
10/28/2012 2:00,9.9,6.8,81,11,25,101.22,2,4.49918
10/28/2012 3:00,9.8,6.6,80,9,25,101.25,2,133.607
10/28/2012 4:00,9.5,6.5,82,13,25,101.23,2,311.074
10/28/2012 5:00,9.6,6.7,82,7,25,101.28,2,586.373
10/28/2012 6:00,9.7,6.7,82,7,25,101.29,2,589.271
10/28/2012 7:00,9.5,6.9,84,7,24.1,101.36,2,495.89
10/28/2012 8:00,9.9,7.4,84,7,24.1,101.38,2,233.426
10/28/2012 9:00,10.8,7.9,82,11,24.1,101.34,2,267.452
10/28/2012 10:00,11.4,8.3,81,9,24.1,101.32,2,10.2458
10/28/2012 11:00,12,8.1,77,11,24.1,101.31,2,0.49404
10/28/2012 12:00,12.9,8.4,74,20,24.1,101.2,2,16.7175
10/28/2012 13:00,12.9,7.8,71,15,24.1,101.19,2,3.23819
10/28/2012 14:00,13,6.8,66,20,24.1,101.13,2,60.8157
10/28/2012 15:00,13.1,6,62,20,24.1,101.06,2,168.841
10/28/2012 16:00,12.9,5.9,62,22,24.1,101.06,2,242.222
10/28/2012 17:00,12.7,6.3,65,26,25,101.01,2,539.79
10/28/2012 18:00,12.9,6.9,67,24,25,101,2,611.303
10/28/2012 19:00,12.7,7.4,70,28,25,100.99,2,332.066
10/28/2012 20:00,12.3,7.4,72,24,25,101.02,2,250.144
10/28/2012 21:00,11.6,7.4,75,24,25,101.03,2,240.915
10/28/2012 22:00,11,7.4,78,32,25,101.01,2,6.37303
10/28/2012 23:00,10.3,7.1,81,26,25,100.98,2,6.42947
10/29/2012 0:00,9.9,7,82,22,25,100.95,2,5.29223
10/29/2012 1:00,9.5,6.9,84,26,25,100.89,2,23.9319
10/29/2012 2:00,9.2,6.6,84,26,25,100.82,2,46.8843
10/29/2012 3:00,9.6,7,84,24,25,100.79,2,73.9789
10/29/2012 4:00,9.9,7.2,83,30,25,100.77,2,249.852
10/29/2012 5:00,9.6,7.4,86,20,25,100.76,2,356.157
10/29/2012 6:00,10.2,7.4,83,33,25,100.72,2,701.185
10/29/2012 7:00,10.1,7.5,84,26,24.1,100.7,2,364.867
10/29/2012 8:00,10.7,7.8,82,24,24.1,100.67,2,221.913
10/29/2012 9:00,11.9,8.5,80,26,24.1,100.61,2,111.791
10/29/2012 10:00,12.9,8.7,76,28,24.1,100.57,2,139.852
10/29/2012 11:00,14.3,9.4,72,32,24.1,100.48,2,1.11792
10/29/2012 12:00,15.4,9.8,69,26,24.1,100.35,2,2.36234
10/29/2012 13:00,16.5,9.7,64,33,24.1,100.24,2,29.9072
10/29/2012 14:00,16.6,9.9,65,44,24.1,100.13,2,58.5361
10/29/2012 15:00,16.6,9.6,63,33,24.1,100.09,2,195.949
10/29/2012 16:00,15.2,9.8,70,48,24.1,100.04,2,293.215
10/29/2012 17:00,14.2,9.4,73,48,24.1,99.94,2,281.272
10/29/2012 18:00,14.2,9.2,72,44,25,99.83,2,461.884
10/29/2012 19:00,14,9.6,75,50,25,99.65,2,276.823
10/29/2012 20:00,14.3,9.7,74,52,25,99.55,2,347.207
10/29/2012 21:00,14,9.7,75,48,25,99.46,2,129.201
10/29/2012 22:00,14.2,9.8,75,50,25,99.37,2,33.165
10/29/2012 23:00,14.1,10,76,54,25,99.33,2,6.29039
10/30/2012 0:00,14.6,10.2,75,41,25,99.28,2,1.61393
10/30/2012 1:00,14.6,10.4,76,52,25,99.23,2,21.3381
10/30/2012 2:00,14.1,10.3,78,37,25,99.31,2,19.255
10/30/2012 3:00,13.9,10.6,80,41,25,99.21,3,195.019
10/30/2012 4:00,13.8,10.4,80,35,25,99.28,2,382.466
10/30/2012 5:00,13.7,10.5,81,37,25,99.32,1,589.857
10/30/2012 6:00,13.6,10.5,82,37,25,99.31,3,566.606
10/30/2012 7:00,15,11.1,77,30,19.3,99.45,3,261.476
10/30/2012 8:00,15.7,12,79,26,24.1,99.5,2,288.672
10/30/2012 9:00,15.4,12.7,84,22,24.1,99.52,2,86.9181
10/30/2012 10:00,16.1,13.3,83,28,24.1,99.57,2,119.142
10/30/2012 11:00,15.1,13.8,92,22,4,99.6,3,6.31867
10/30/2012 12:00,16.1,14.5,90,17,24.1,99.53,2,10.6943
10/30/2012 13:00,19.8,14.7,72,28,24.1,99.44,1,18.6183
10/30/2012 14:00,20.4,13.2,63,28,24.1,99.5,1,4.25047
10/30/2012 15:00,20.9,11.8,56,33,24.1,99.47,1,157.455
10/30/2012 16:00,20.6,9.9,50,20,24.1,99.49,1,329.327
10/30/2012 17:00,19.7,9.3,51,17,24.1,99.54,1,429.113
10/30/2012 18:00,19.2,10.4,57,17,25,99.61,2,610.431
10/30/2012 19:00,18.8,11.2,61,28,25,99.61,2,411.573
10/30/2012 20:00,18.6,12.5,68,26,25,99.57,3,221.405
10/30/2012 21:00,16.8,13.5,81,26,19.3,99.6,3,175.592
10/30/2012 22:00,15,13.9,93,17,25,99.49,2,4.34117
10/30/2012 23:00,15.6,14,90,11,25,99.45,3,2.62996
10/31/2012 0:00,15,13.9,93,9,16.1,99.43,3,7.59007
10/31/2012 1:00,14.9,13.6,92,9,25,99.36,1,39.558
10/31/2012 2:00,13.7,12.7,94,11,25,99.41,1,22.8781
10/31/2012 3:00,13.7,12.5,92,11,25,99.43,1,133.701
10/31/2012 4:00,13.8,11.6,87,13,25,99.37,1,326.382
10/31/2012 5:00,13.6,11.2,85,17,25,99.34,1,371.785
10/31/2012 6:00,14,10.1,77,11,25,99.24,2,575.555
10/31/2012 7:00,11.6,10.4,92,11,24.1,99.26,2,316.366
10/31/2012 8:00,14,12.1,88,17,24.1,99.22,2,747.339
10/31/2012 9:00,14.6,12.7,88,15,19.3,99.16,2,223.748
10/31/2012 10:00,14.6,12.9,90,19,16.1,99.14,2,32.3631
10/31/2012 11:00,14.8,13.7,93,11,9.7,99.12,3,7.33182
10/31/2012 12:00,10.8,9.4,91,24,24.1,99.2,2,4.94338
10/31/2012 13:00,10.2,8.5,89,20,24.1,99.26,3,25.3281
10/31/2012 14:00,10.3,8.8,90,11,12.9,99.28,3,20.2926
10/31/2012 15:00,10.2,8.6,90,4,24.1,99.28,3,99.9117
10/31/2012 16:00,10.2,8.6,90,4,24.1,99.26,2,156.903
10/31/2012 17:00,9.7,8.1,90,15,24.1,99.31,2,552.279
10/31/2012 18:00,8.8,7.4,91,13,25,99.37,2,373.398
10/31/2012 19:00,8.5,6.6,88,7,25,99.37,2,633.872
10/31/2012 20:00,8.4,6.3,87,7,25,99.4,2,250.749
10/31/2012 21:00,8.1,6.5,90,0,25,99.39,3,47.22
10/31/2012 22:00,7.8,6.7,93,0,25,99.4,2,17.8729
10/31/2012 23:00,8.1,6.4,89,4,25,99.38,2,2.27944
11/1/2012 0:00,7.8,6.8,93,7,25,99.39,2,5.30771
11/1/2012 1:00,7.6,6.8,95,6,25,99.37,2,25.2687
11/1/2012 2:00,7.6,6.2,91,4,25,99.35,3,23.6988
11/1/2012 3:00,7.3,5.5,88,6,19.3,99.33,3,158.12
11/1/2012 4:00,7.7,4.7,81,0,25,99.32,3,394.917
11/1/2012 5:00,7.7,5,83,4,25,99.32,3,533.732
11/1/2012 6:00,7.4,5.4,87,4,25,99.31,2,570.408
11/1/2012 7:00,7.3,4.7,84,7,24.1,99.32,3,310.979
11/1/2012 8:00,7.2,4.5,83,9,24.1,99.33,3,366.703
11/1/2012 9:00,7.6,5.6,87,9,24.1,99.34,3,228.993
11/1/2012 10:00,7.7,5.1,84,9,24.1,99.31,2,7.66937
11/1/2012 11:00,8.1,4.7,79,11,24.1,99.29,2,21.5583
11/1/2012 12:00,8.4,4.9,79,13,24.1,99.25,2,0.0265
11/1/2012 13:00,8.4,4.9,79,15,24.1,99.22,3,30.1397
11/1/2012 14:00,8.4,5.3,81,17,19.3,99.22,3,5.98596
11/1/2012 15:00,7.7,6,89,11,12.9,99.22,3,103.289
11/1/2012 16:00,8,6.2,88,17,19.3,99.23,3,403.94
11/1/2012 17:00,8.1,5.9,86,17,16.1,99.26,3,390.076
11/1/2012 18:00,7.5,4.4,81,28,25,99.3,2,335.537
11/1/2012 19:00,6.9,4.7,86,22,25,99.33,3,501.751
11/1/2012 20:00,6.7,4.8,88,24,25,99.33,3,296.256
11/1/2012 21:00,6.4,4.5,88,22,25,99.35,3,180.106
11/1/2012 22:00,5.6,3.6,87,20,25,99.37,3,7.05839
11/1/2012 23:00,5.5,2.9,83,19,25,99.38,3,1.35544
11/2/2012 0:00,5.3,2.8,84,19,25,99.4,2,10.5036
11/2/2012 1:00,5.1,2.6,84,20,25,99.42,2,11.8401
11/2/2012 2:00,5,2.6,84,22,25,99.45,2,14.8106
11/2/2012 3:00,4.8,2.8,87,24,25,99.45,2,69.324
11/2/2012 4:00,4.7,2.5,86,20,25,99.46,2,465.273
11/2/2012 5:00,4.8,2.9,87,19,25,99.46,3,717.301
11/2/2012 6:00,4.4,2.6,88,20,25,99.48,3,547.367
11/2/2012 7:00,4.1,2.4,89,19,25,99.53,3,614.125
11/2/2012 8:00,3.9,2.5,91,17,24.1,99.58,3,220.827
11/2/2012 9:00,3.7,2.1,89,22,24.1,99.61,3,122.557
11/2/2012 10:00,3.9,2.4,90,20,24.1,99.64,3,46.7906
11/2/2012 11:00,4.2,2.8,91,22,24.1,99.67,3,0.16198
11/2/2012 12:00,4.3,2.9,91,15,24.1,99.68,3,1.57736
11/2/2012 13:00,4.3,3.1,92,20,24.1,99.7,3,15.5098
11/2/2012 14:00,4.6,3.3,91,20,24.1,99.7,2,15.5301
11/2/2012 15:00,4.8,3.4,91,19,24.1,99.74,2,50.3976
11/2/2012 16:00,4.9,3.6,91,22,19.3,99.78,2,321.014
11/2/2012 17:00,5.3,3.7,89,19,25,99.81,2,503.846
11/2/2012 18:00,5.7,4,89,15,25,99.87,2,609.832
11/2/2012 19:00,5.9,4.2,89,19,25,99.9,3,458.453
11/2/2012 20:00,5.8,3.7,86,17,25,99.94,3,354.547
11/2/2012 21:00,5.7,3.1,83,17,25,99.96,2,226.98
11/2/2012 22:00,5.6,3.1,84,13,25,100,3,7.19556
11/2/2012 23:00,5.6,2.8,82,13,25,100.02,3,2.27083
11/3/2012 0:00,5.3,2.3,81,17,25,100.06,3,0.09005
11/3/2012 1:00,4.9,2.2,83,13,25,100.1,3,28.8248
11/3/2012 2:00,4.7,1.9,82,17,25,100.13,3,123.366
11/3/2012 3:00,4.5,1.2,79,17,25,100.14,2,188.578
11/3/2012 4:00,4.1,0.9,80,20,25,100.17,2,356.941
11/3/2012 5:00,4,0.7,79,19,25,100.22,2,459.402
11/3/2012 6:00,3.7,0.2,78,17,25,100.27,2,345.623
11/3/2012 7:00,3.5,0.3,80,20,24.1,100.33,2,651.6
11/3/2012 8:00,4.2,1.2,81,20,24.1,100.39,2,291.108
11/3/2012 9:00,4.8,1,76,22,25,100.42,2,134.946
11/3/2012 10:00,5.1,1.6,78,22,24.1,100.45,3,4.54599
11/3/2012 11:00,5.3,2.2,80,24,24.1,100.45,3,7.21845
11/3/2012 12:00,5.4,2,79,22,24.1,100.45,3,9.50147
11/3/2012 13:00,5.1,2.6,84,22,24.1,100.46,3,18.1531
11/3/2012 14:00,5.5,2.6,82,20,24.1,100.47,3,11.294
11/3/2012 15:00,5.4,2.7,83,24,24.1,100.52,3,243.23
11/3/2012 16:00,5,2.7,85,20,24.1,100.57,3,327.274
11/3/2012 17:00,5,2.3,83,20,24.1,100.62,3,783.675
11/3/2012 18:00,4.7,2.4,85,13,25,100.66,3,460.039
11/3/2012 19:00,4.8,2.3,84,15,25,100.69,3,578.413
11/3/2012 20:00,5,1.6,79,17,25,100.73,2,222.544
11/3/2012 21:00,5,0.9,75,15,25,100.76,2,264.913
11/3/2012 22:00,4.7,0.5,74,17,25,100.79,2,69.0747
11/3/2012 23:00,4.3,-0.1,73,17,25,100.82,2,3.15451
11/4/2012 0:00,3.8,-0.3,75,15,25,100.85,2,5.14758
11/4/2012 1:00,3.2,-0.7,76,11,25,100.87,2,24.3795
11/4/2012 2:00,3,-1.3,73,15,25,100.88,2,39.3477
11/4/2012 3:00,3.1,-1.2,73,17,25,100.88,2,170.641
11/4/2012 4:00,2.9,-0.9,76,19,25,100.9,2,194.522
11/4/2012 5:00,3,-1,75,15,25,100.96,2,269.781
11/4/2012 6:00,3,-1.6,72,17,25,100.99,2,661.474
11/4/2012 7:00,2.8,-1.9,71,15,25,101.05,2,443.541
11/4/2012 8:00,2.2,-1.2,78,17,24.1,101.11,3,452.43
11/4/2012 9:00,2.9,-1.2,74,17,24.1,101.12,3,81.3453
11/4/2012 10:00,3,-2.2,69,19,24.1,101.1,2,16.4857
11/4/2012 11:00,3.3,-2.3,67,13,24.1,101.08,2,0.1343
11/4/2012 12:00,3.7,-2.4,64,13,24.1,101.07,2,29.3725
11/4/2012 13:00,3.4,-2.6,65,11,24.1,101.09,2,25.4597
11/4/2012 14:00,3.4,-3.3,61,15,24.1,101.08,2,57.1202
11/4/2012 15:00,3.6,-3.9,58,17,24.1,101.08,2,333.39
11/4/2012 16:00,3.5,-4.5,56,13,24.1,101.12,2,208.787
11/4/2012 17:00,3.2,-4.1,59,13,24.1,101.17,2,442.53
11/4/2012 18:00,3,-4.5,58,11,25,101.21,2,522.932
11/4/2012 19:00,2.5,-4.3,61,9,25,101.25,2,509.659
11/4/2012 20:00,2.2,-5.2,58,13,25,101.28,2,323.417
11/4/2012 21:00,2,-5.1,59,13,25,101.3,2,64.8117
11/4/2012 22:00,1.8,-5.1,60,9,25,101.3,2,6.26408
11/4/2012 23:00,1.7,-5,61,11,25,101.27,2,0.82889
11/5/2012 0:00,1.5,-4.9,62,9,25,101.28,2,27.2062
11/5/2012 1:00,1.2,-4.8,64,11,25,101.27,2,15.227
11/5/2012 2:00,1.3,-6,58,17,25,101.29,2,42.1676
11/5/2012 3:00,0.8,-7.7,53,17,25,101.29,2,145.949
11/5/2012 4:00,0.4,-7,58,13,25,101.32,2,198.366
11/5/2012 5:00,-1.1,-6.7,66,11,25,101.34,2,460.273
11/5/2012 6:00,-0.6,-5.1,72,11,25,101.38,2,408.849
11/5/2012 7:00,-0.3,-5.9,66,15,24.1,101.4,2,429.219
11/5/2012 8:00,-0.5,-5.8,67,15,24.1,101.45,1,230.536
11/5/2012 9:00,0.8,-6,60,17,24.1,101.46,1,88.1687
11/5/2012 10:00,1.8,-7,52,17,48.3,101.49,1,2.02702
11/5/2012 11:00,1.7,-7.4,51,17,48.3,101.47,2,0.35446
11/5/2012 12:00,1.8,-7.7,49,15,48.3,101.44,2,25.9673
11/5/2012 13:00,1.9,-8.2,47,17,48.3,101.44,2,17.3206
11/5/2012 14:00,1.8,-8.3,47,15,48.3,101.42,2,21.6969
11/5/2012 15:00,1.8,-7.6,50,20,24.1,101.41,2,171.733
11/5/2012 16:00,1.1,-6,59,19,24.1,101.44,3,309.845
11/5/2012 17:00,0.9,-7.8,52,17,25,101.49,2,383.063
11/5/2012 18:00,0.5,-8.6,50,20,25,101.57,2,451.998
11/5/2012 19:00,-0.6,-10.4,47,13,25,101.62,2,358.178
11/5/2012 20:00,-1,-9.5,52,7,25,101.64,2,297.065
11/5/2012 21:00,-2,-9.1,58,7,25,101.66,1,284.818
11/5/2012 22:00,-2.2,-9.6,57,11,25,101.65,1,8.55173
11/5/2012 23:00,-3.2,-9.6,61,9,25,101.65,1,0.81369
11/6/2012 0:00,-2.9,-9.9,58,15,25,101.68,1,0.81116
11/6/2012 1:00,-3.6,-10.3,60,13,25,101.69,1,16.2432
11/6/2012 2:00,-4.7,-9.7,68,9,25,101.72,1,51.7841
11/6/2012 3:00,-5.5,-8.9,77,4,25,101.76,1,267.018
11/6/2012 4:00,-3.3,-9.9,60,0,25,101.76,2,270.761
11/6/2012 5:00,-3,-8.9,64,0,25,101.79,2,425.059
11/6/2012 6:00,-3.7,-7.5,75,6,25,101.83,2,395.186
11/6/2012 7:00,-3.4,-7,76,6,48.3,101.86,2,538.033
11/6/2012 8:00,-1.6,-5.6,74,6,48.3,101.89,1,412.309
11/6/2012 9:00,-0.2,-5.8,66,7,48.3,101.9,1,297.256
11/6/2012 10:00,0.4,-6.1,62,7,48.3,101.93,2,43.8025
11/6/2012 11:00,1.9,-4.5,62,9,48.3,101.94,2,0.08892
11/6/2012 12:00,1.5,-6.4,56,17,48.3,101.89,2,2.18307
11/6/2012 13:00,2.3,-7.7,48,15,48.3,101.88,2,5.67583
11/6/2012 14:00,2.1,-7.4,49,9,48.3,101.87,2,69.8127
11/6/2012 15:00,2.6,-7.7,47,15,48.3,101.87,2,107.859
11/6/2012 16:00,1.9,-8.1,47,13,48.3,101.87,2,356.112
11/6/2012 17:00,0,-7.5,57,6,48.3,101.89,1,442.622
11/6/2012 18:00,-0.9,-7.8,59,4,25,101.89,1,631.931
11/6/2012 19:00,-0.3,-7.7,57,0,25,101.93,1,446.662
11/6/2012 20:00,-1.5,-7.3,65,0,25,101.94,1,497.411
11/6/2012 21:00,-0.7,-6.9,63,4,25,101.97,1,261.153
11/6/2012 22:00,-0.9,-6.6,65,4,25,101.98,1,1.08203
11/6/2012 23:00,-1.5,-6.4,69,6,25,101.96,1,30.1635
11/7/2012 0:00,-0.6,-5.9,67,7,25,101.93,1,4.94443
11/7/2012 1:00,-0.9,-6.5,66,9,25,101.9,1,53.1801
11/7/2012 2:00,-2.6,-6.9,72,7,25,101.94,1,41.4551
11/7/2012 3:00,-3.6,-6.1,83,9,25,101.95,1,265.178
11/7/2012 4:00,-4,-6.2,85,11,25,102.02,1,338.362
11/7/2012 5:00,-4.3,-6.5,85,13,25,101.98,1,383.859
11/7/2012 6:00,-4.2,-6.4,85,13,25,101.92,1,428.44
11/7/2012 7:00,-3.7,-6.3,82,15,24.1,101.96,1,504.491
11/7/2012 8:00,-3.1,-6,80,17,24.1,102,1,273.255
11/7/2012 9:00,-1.3,-6.6,67,22,24.1,102.02,2,238.586
11/7/2012 10:00,0,-6.8,60,20,24.1,102.01,2,45.6929
11/7/2012 11:00,1.1,-7.4,53,26,24.1,101.97,2,0.34566
11/7/2012 12:00,2.1,-7.4,49,26,24.1,101.88,2,8.43542
11/7/2012 13:00,2.4,-7.5,48,32,24.1,101.78,2,11.1358
11/7/2012 14:00,2.2,-7.4,49,24,24.1,101.75,2,66.8256
11/7/2012 15:00,1.8,-7.8,49,24,24.1,101.73,2,325.503
11/7/2012 16:00,1.5,-7.1,53,26,24.1,101.7,2,397.104
11/7/2012 17:00,1.2,-6.2,58,20,25,101.67,1,528.721
11/7/2012 18:00,1,-5.6,61,19,25,101.68,2,575.004
11/7/2012 19:00,1.4,-6.7,55,20,25,101.69,1,448.978
11/7/2012 20:00,1.3,-7.8,51,26,25,101.65,2,364.827
11/7/2012 21:00,0.8,-6.4,59,22,25,101.64,1,124.113
11/7/2012 22:00,0,-5.6,66,22,25,101.58,1,7.79009
11/7/2012 23:00,-0.7,-4.7,74,22,25,101.55,2,0.24329
11/8/2012 0:00,-0.2,-4.5,73,26,25,101.54,2,0.95331
11/8/2012 1:00,-0.9,-4.9,74,30,25,101.49,2,37.1688
11/8/2012 2:00,-1,-6,69,33,25,101.48,2,36.8968
11/8/2012 3:00,-0.8,-5.8,69,20,25,101.46,2,77.3122
11/8/2012 4:00,-1.3,-5.9,71,26,25,101.44,2,208.921
11/8/2012 5:00,-1.3,-6.2,69,22,25,101.43,1,562.629
11/8/2012 6:00,-1.4,-5.7,72,19,25,101.42,1,429.562
11/8/2012 7:00,-1,-5.1,74,26,24.1,101.44,2,516.673
11/8/2012 8:00,-0.2,-4.6,72,20,24.1,101.46,2,204.392
11/8/2012 9:00,0.8,-4.4,68,19,24.1,101.45,2,194.603
11/8/2012 10:00,2.4,-3.9,63,30,24.1,101.41,2,110.718
11/8/2012 11:00,2.6,-4,62,30,24.1,101.38,2,0.81345
11/8/2012 12:00,3.9,-3.6,58,24,24.1,101.29,2,1.46508
11/8/2012 13:00,4.7,-3.3,56,26,24.1,101.24,2,0.0057
11/8/2012 14:00,5.1,-3.4,54,26,24.1,101.21,2,48.0227
11/8/2012 15:00,5.2,-3.3,54,20,24.1,101.18,2,134.69
11/8/2012 16:00,4.4,-3.8,55,19,24.1,101.17,2,201.181
11/8/2012 17:00,3.2,-4.2,58,13,24.1,101.2,2,424.819
11/8/2012 18:00,2.4,-3,67,7,25,101.25,2,639.217
11/8/2012 19:00,1.8,-3.3,69,9,25,101.27,2,461.463
11/8/2012 20:00,1.7,-4.8,62,19,25,101.28,2,326.631
11/8/2012 21:00,0.5,-4.6,69,13,25,101.24,1,261.506
11/8/2012 22:00,-0.3,-4.8,72,11,25,101.21,1,38.4084
11/8/2012 23:00,-1.3,-5,76,7,25,101.19,1,2.73628
11/9/2012 0:00,-3.4,-5.7,84,7,25,101.21,1,2.819
11/9/2012 1:00,-3.7,-5.9,85,7,25,101.18,1,2.5095
11/9/2012 2:00,-4.3,-6.3,86,7,25,101.19,1,58.8997
11/9/2012 3:00,-3.6,-5.6,86,7,25,101.19,1,255.301
11/9/2012 4:00,-3.4,-5.2,87,7,25,101.2,1,288.571
11/9/2012 5:00,-5.4,-6.7,91,7,25,101.22,1,504.859
11/9/2012 6:00,-3.2,-4.8,89,7,25,101.25,1,603.285
11/9/2012 7:00,-2.5,-4.2,88,7,24.1,101.3,2,342.201
11/9/2012 8:00,-1.6,-3.6,86,7,48.3,101.36,2,352.395
11/9/2012 9:00,1.3,-2.4,76,17,48.3,101.34,2,273.719
11/9/2012 10:00,2.3,-3.3,66,19,48.3,101.36,2,49.1966
11/9/2012 11:00,3.3,-4.1,58,20,48.3,101.36,2,1.43815
11/9/2012 12:00,3.4,-3.6,60,22,48.3,101.31,2,13.7329
11/9/2012 13:00,4,-3.2,59,20,24.1,101.26,2,7.78775
11/9/2012 14:00,4.8,-2.7,58,20,24.1,101.27,2,64.1822
11/9/2012 15:00,4.6,-2,62,24,24.1,101.29,2,114.384
11/9/2012 16:00,4.5,-1.9,63,26,24.1,101.32,2,317.316
11/9/2012 17:00,4.6,-1.2,66,22,25,101.36,2,543.459
11/9/2012 18:00,4.6,-0.5,69,15,25,101.42,2,652.124
11/9/2012 19:00,4.6,-0.3,70,15,25,101.45,2,397.148
11/9/2012 20:00,4.2,-0.3,72,11,25,101.47,2,415.956
11/9/2012 21:00,4.6,0.5,75,9,25,101.54,2,119.564
11/9/2012 22:00,4.5,0.6,76,11,25,101.48,2,17.1858
11/9/2012 23:00,4,0.8,80,15,25,101.5,2,0.75467
11/10/2012 0:00,2.8,0.4,84,13,25,101.55,2,15.6634
11/10/2012 1:00,3.6,0.6,81,9,25,101.62,2,20.5793
11/10/2012 2:00,2.7,-0.5,79,9,25,101.66,1,23.3158
11/10/2012 3:00,2.6,-2.7,68,11,25,101.75,1,91.1713
11/10/2012 4:00,1.1,-3.5,71,11,25,101.84,1,250.974
11/10/2012 5:00,0.7,-4,71,6,25,101.98,1,683.143
11/10/2012 6:00,-0.6,-5.2,71,9,25,102.07,1,466.429
11/10/2012 7:00,-1.4,-6,71,13,24.1,102.22,1,450.3
11/10/2012 8:00,0.4,-4.9,68,13,24.1,102.32,1,212.264
11/10/2012 9:00,2,-5.2,59,15,48.3,102.39,1,177.784
11/10/2012 10:00,2.4,-5.9,54,7,48.3,102.43,1,0.14087
11/10/2012 11:00,3.3,-7.3,46,6,48.3,102.45,1,6.70821
11/10/2012 12:00,4.2,-7.7,42,6,48.3,102.43,1,4.17168
11/10/2012 13:00,4.7,-8,39,6,48.3,102.39,2,2.55556
11/10/2012 14:00,5.6,-7.6,38,4,48.3,102.37,2,63.0167
11/10/2012 15:00,5.2,-6.9,41,11,48.3,102.4,2,117.456
11/10/2012 16:00,3.6,-8.2,42,9,48.3,102.39,2,214.981
11/10/2012 17:00,3.5,-7.8,43,7,25,102.47,2,477.064
11/10/2012 18:00,3.4,-7,46,7,25,102.53,2,548.997
11/10/2012 19:00,2.6,-6.4,51,7,25,102.58,1,451.5
11/10/2012 20:00,2.6,-5.3,56,15,25,102.56,1,265.446
11/10/2012 21:00,1.8,-6.1,56,9,25,102.53,1,171.876
11/10/2012 22:00,0.9,-4.6,67,11,25,102.55,1,115.431
11/10/2012 23:00,1.1,-6.7,56,11,25,102.5,1,0.82756
11/11/2012 0:00,2.4,-7.2,49,7,25,102.45,2,12.145
11/11/2012 1:00,2.7,-7.3,48,13,25,102.34,2,4.21711
11/11/2012 2:00,3,-7.8,45,11,25,102.33,2,83.9227
11/11/2012 3:00,3.1,-7.6,45,17,25,102.24,2,118.754
11/11/2012 4:00,0.9,-4.3,68,20,25,102.34,2,287.922
11/11/2012 5:00,0.3,-4,73,20,25,102.23,3,595.058
11/11/2012 6:00,0.5,-2.3,81,17,25,102.26,3,483.284
11/11/2012 7:00,0.6,-2.1,82,22,24.1,102.3,2,510.976
11/11/2012 8:00,0.6,-2,83,20,24.1,102.34,2,338.255
11/11/2012 9:00,1.1,-2,80,20,24.1,102.29,2,173.323
11/11/2012 10:00,1.7,-0.6,85,17,24.1,102.31,3,55.2849
11/11/2012 11:00,2.9,-0.2,80,22,24.1,102.21,3,4.08725
11/11/2012 12:00,3.7,0.3,78,24,24.1,102.15,2,21.3908
11/11/2012 13:00,5.5,1.4,75,17,48.3,102.11,1,27.3864
11/11/2012 14:00,6.3,1.6,72,20,48.3,102.08,1,12.6682
11/11/2012 15:00,7,1.9,70,19,48.3,102.07,1,68.7759
11/11/2012 16:00,6.6,1.8,71,20,24.1,102.07,2,129.986
11/11/2012 17:00,4.8,1.5,79,17,25,102.12,2,412.538
11/11/2012 18:00,3.3,1.1,85,13,25,102.13,1,527.145
11/11/2012 19:00,1.9,0.2,88,17,25,102.14,1,339.035
11/11/2012 20:00,1.5,-0.1,89,15,25,102.15,1,230.859
11/11/2012 21:00,1.3,-0.3,89,15,25,102.13,1,78.5405
11/11/2012 22:00,1,-0.5,90,13,25,102.07,1,0.52471
11/11/2012 23:00,1.1,-0.3,90,15,25,102.04,1,1.44234
11/12/2012 0:00,0.9,-0.3,92,19,19.3,101.99,1,4.36869
11/12/2012 1:00,0.6,-0.8,90,17,25,101.97,1,31.3106
11/12/2012 2:00,0.4,-0.7,92,15,19.3,101.98,1,18.0814
11/12/2012 3:00,0.2,-0.9,92,15,19.3,101.94,1,137.765
11/12/2012 4:00,-0.3,-1.1,94,11,19.3,101.95,1,214.459
11/12/2012 5:00,-0.2,-1.2,93,11,19.3,101.91,1,226.438
11/12/2012 6:00,-0.3,-1.2,94,13,19.3,101.87,1,401.132
11/12/2012 7:00,-0.2,-1,94,11,16.1,101.9,1,476.307
11/12/2012 8:00,1,0,93,9,19.3,101.88,1,268.075
11/12/2012 9:00,4.2,1.8,84,7,19.3,101.83,1,166.99
11/12/2012 10:00,7.2,3.3,76,6,19.3,101.78,2,6.81405
11/12/2012 11:00,11.8,5.3,64,6,19.3,101.71,2,2.76849
11/12/2012 12:00,17.5,8.5,55,13,19.3,101.61,2,25.2933
11/12/2012 13:00,16.9,8.4,57,22,24.1,101.52,2,20.4774
11/12/2012 14:00,16.3,8.2,59,22,24.1,101.43,2,83.1661
11/12/2012 15:00,17,8.4,57,20,24.1,101.33,2,122.485
11/12/2012 16:00,16.7,8,56,22,24.1,101.21,2,359.432
11/12/2012 17:00,17.1,7.5,53,33,25,101.13,2,465.967
11/12/2012 18:00,17.1,7.3,52,35,25,101.09,1,443.91
11/12/2012 19:00,17.1,7.8,54,32,25,100.98,1,553.256
11/12/2012 20:00,16.4,7.5,56,33,25,100.91,2,388.106
11/12/2012 21:00,15.9,7.7,58,30,25,100.9,2,402.994
11/12/2012 22:00,16,8.2,60,26,25,100.87,2,0.19915
11/12/2012 23:00,15.6,8.9,64,24,25,100.84,2,4.4506
11/13/2012 0:00,14.8,10,73,48,25,100.94,3,0.03981
11/13/2012 1:00,9.1,7.4,89,37,12.9,101.25,3,0.97754
11/13/2012 2:00,8,6.2,88,35,25,101.36,3,47.3186
11/13/2012 3:00,7.9,5.6,85,41,25,101.45,3,27.0602
11/13/2012 4:00,6.2,4.1,86,28,25,101.53,3,250.843
11/13/2012 5:00,5.6,3.4,86,30,25,101.6,3,360.87
11/13/2012 6:00,5.7,3.3,85,30,25,101.76,2,669.317
11/13/2012 7:00,5.4,2.3,80,30,24.1,101.78,2,347.803
11/13/2012 8:00,5.2,0.9,74,33,24.1,101.89,2,389.229
11/13/2012 9:00,4.6,-1.2,66,32,24.1,101.95,2,134.597
11/13/2012 10:00,4.7,-1.3,65,37,24.1,102.07,2,29.934
11/13/2012 11:00,4.8,-2,61,30,48.3,102.09,2,0.58055
11/13/2012 12:00,6.1,-1.8,57,28,48.3,102.08,2,6.16273
11/13/2012 13:00,5.3,-3.2,54,33,48.3,102.13,2,22.7065
11/13/2012 14:00,5.6,-6.5,41,30,24.1,102.18,1,22.3121
11/13/2012 15:00,5.4,-2.9,55,28,24.1,102.25,1,87.3954
11/13/2012 16:00,4.9,-5.1,48,24,24.1,102.33,1,192.679
11/13/2012 17:00,3.7,-6.1,49,13,25,102.41,1,972.536
11/13/2012 18:00,2.5,-5.5,56,11,25,102.54,1,294.587
11/13/2012 19:00,0.8,-5.6,62,11,25,102.6,1,510.77
11/13/2012 20:00,-0.7,-6,67,9,25,102.68,1,208.662
11/13/2012 21:00,-1,-6,69,7,25,102.75,1,169.7
11/13/2012 22:00,-0.9,-5.7,70,7,25,102.81,1,5.16209
11/13/2012 23:00,-1.5,-5.9,72,7,25,102.84,1,0.60981
11/14/2012 0:00,-0.1,-6,64,4,25,102.91,1,8.66949
11/14/2012 1:00,-0.7,-5.7,69,6,25,102.91,1,22.2978
11/14/2012 2:00,-2.3,-6.1,75,6,25,102.97,1,6.04963
11/14/2012 3:00,-2.4,-6.7,72,6,25,102.99,1,95.3012
11/14/2012 4:00,-4,-7,80,4,25,103.01,1,319.335
11/14/2012 5:00,-4.7,-6.6,87,4,25,103.09,1,399.432
11/14/2012 6:00,-3.6,-6.1,83,4,25,103.15,1,509.042
11/14/2012 7:00,-5.2,-7,87,4,48.3,103.25,1,401.382
11/14/2012 8:00,-3,-4.9,87,4,48.3,103.29,1,207.679
11/14/2012 9:00,0.6,-3.1,76,6,24.1,103.31,1,170.023
11/14/2012 10:00,2.4,-4.3,61,2,24.1,103.34,1,0.1717
11/14/2012 11:00,4.6,-5,50,4,24.1,103.31,1,0.7377
11/14/2012 12:00,4.8,-6.4,44,7,24.1,103.25,1,0.58449
11/14/2012 13:00,4.8,-6.6,43,4,48.3,103.2,1,0.9191
11/14/2012 14:00,5.2,-6.2,44,6,48.3,103.15,1,33.631
11/14/2012 15:00,4.6,-7.4,41,6,48.3,103.15,1,117.506
11/14/2012 16:00,4.2,-7.4,43,6,48.3,103.16,1,272.534
11/14/2012 17:00,3.6,-7.2,45,7,24.1,103.15,1,459.493
11/14/2012 18:00,2.8,-6.3,51,7,25,103.16,1,572.234
11/14/2012 19:00,2.5,-5.9,54,9,25,103.17,1,299.125
11/14/2012 20:00,2.1,-5.8,56,11,25,103.18,1,266.525
11/14/2012 21:00,1.8,-6.1,56,7,25,103.16,1,238.534
11/14/2012 22:00,1.4,-5.7,59,13,25,103.15,1,13.3191
11/14/2012 23:00,0.4,-6.2,61,11,25,103.12,1,0.78731
11/15/2012 0:00,-1.4,-6.1,70,13,25,103.1,1,5.94211
11/15/2012 1:00,-2,-5.1,79,9,25,103.06,1,19.8919
11/15/2012 2:00,-2.3,-5.1,81,13,25,103,1,24.7424
11/15/2012 3:00,-2.9,-5.4,83,9,25,103.01,1,213.125
11/15/2012 4:00,-3.6,-6.3,82,9,25,103,1,238.66
11/15/2012 5:00,-2.9,-6,79,13,25,102.94,1,502.621
11/15/2012 6:00,-3.1,-6.1,80,15,25,102.91,1,569.584
11/15/2012 7:00,-2.9,-5.9,80,13,24.1,102.94,2,326.531
11/15/2012 8:00,-2.1,-5.1,80,11,24.1,102.99,2,270.624
11/15/2012 9:00,-1,-4.8,75,19,24.1,102.93,2,316.161
11/15/2012 10:00,0.3,-4.6,70,15,24.1,102.84,2,29.8628
11/15/2012 11:00,1.3,-4.8,64,11,24.1,102.79,2,0.15303
11/15/2012 12:00,1.8,-4.7,62,15,24.1,102.73,2,0.27337
11/15/2012 13:00,2.6,-5.6,55,13,24.1,102.65,2,37.1055
11/15/2012 14:00,2.6,-5.5,55,11,24.1,102.59,2,37.4934
11/15/2012 15:00,2.4,-5.8,55,13,24.1,102.55,1,52.9001
11/15/2012 16:00,1.8,-5.5,58,11,24.1,102.53,1,192.222
11/15/2012 17:00,1.2,-5.9,59,9,25,102.53,1,448.92
11/15/2012 18:00,1,-5.9,60,7,25,102.54,1,602.78
11/15/2012 19:00,0.5,-5.8,63,7,25,102.51,1,556.13
11/15/2012 20:00,-0.7,-5.7,69,4,25,102.46,1,286.953
11/15/2012 21:00,-2.9,-6.3,77,6,25,102.46,1,102.255
11/15/2012 22:00,-1.7,-5.2,77,4,25,102.42,1,33.2288
11/15/2012 23:00,-4.3,-6.3,86,6,25,102.44,1,14.7019
11/16/2012 0:00,-3.1,-5.5,83,4,25,102.42,1,15.4377
11/16/2012 1:00,-5.3,-6.9,88,4,19.3,102.4,1,0.87698
11/16/2012 2:00,-4.5,-6.3,87,0,19.3,102.42,1,22.8879
11/16/2012 3:00,-3.6,-5.1,89,0,19.3,102.4,1,53.478
11/16/2012 4:00,-6.7,-8.1,90,0,19.3,102.42,1,183.664
11/16/2012 5:00,-6.5,-7.7,91,4,19.3,102.48,1,423.554
11/16/2012 6:00,-5.4,-6.4,93,4,16.1,102.48,2,429.89
11/16/2012 7:00,-5.2,-6.5,91,4,16.1,102.49,2,456.18
11/16/2012 8:00,-3.2,-4.8,89,0,19.3,102.54,2,318.377
11/16/2012 9:00,0.4,-1.7,86,9,19.3,102.55,2,175.73
11/16/2012 10:00,2,-2,75,13,24.1,102.57,1,23.6765
11/16/2012 11:00,3.1,-2.5,67,15,24.1,102.53,2,29.1764
11/16/2012 12:00,3.9,-2.8,62,17,24.1,102.48,1,24.1993
11/16/2012 13:00,4.9,-2.6,58,15,24.1,102.49,1,3.72153
11/16/2012 14:00,5.3,-2.1,59,13,24.1,102.5,1,95.0896
11/16/2012 15:00,5.5,-1.9,59,9,24.1,102.5,2,145.831
11/16/2012 16:00,4.8,-2,61,13,24.1,102.55,2,197.062
11/16/2012 17:00,4.4,-1.3,66,13,25,102.61,2,318.576
11/16/2012 18:00,4.2,-1.5,66,15,25,102.66,2,511.037
11/16/2012 19:00,3.7,-1.7,68,13,25,102.69,2,377.757
11/16/2012 20:00,3.3,-1.7,70,9,25,102.75,2,363.87
11/16/2012 21:00,0.8,-2.5,79,9,25,102.79,1,132.535
11/16/2012 22:00,-0.9,-3.1,85,11,25,102.81,1,2.10312
11/16/2012 23:00,-1.5,-3.5,86,13,25,102.84,1,0.45729
11/17/2012 0:00,-1.1,-3.5,84,9,25,102.9,1,8.01219
11/17/2012 1:00,-1.3,-3.5,85,9,25,102.94,1,7.75839
11/17/2012 2:00,-2.4,-4.2,87,11,25,103.05,1,53.2339
11/17/2012 3:00,-2,-5,80,11,25,103.13,1,107.727
11/17/2012 4:00,-3.1,-6.5,77,17,25,103.17,1,267.954
11/17/2012 5:00,-2.2,-7.3,68,13,25,103.24,1,800.141
11/17/2012 6:00,-2.6,-8.2,65,13,25,103.28,1,511.001
11/17/2012 7:00,-3.2,-8.2,68,13,24.1,103.39,1,415.247
11/17/2012 8:00,-2.7,-8.2,66,15,24.1,103.47,1,199.112
11/17/2012 9:00,-2.1,-8.9,60,15,24.1,103.51,1,128.784
11/17/2012 10:00,-1,-8.9,55,7,48.3,103.52,2,23.7808
11/17/2012 11:00,-0.1,-9.1,51,4,48.3,103.5,2,1.31776
11/17/2012 12:00,1.2,-9,46,4,48.3,103.47,1,3.66924
11/17/2012 13:00,2.3,-8.3,45,4,48.3,103.43,1,0.74622
11/17/2012 14:00,2.8,-7.4,47,6,48.3,103.43,1,90.9436
11/17/2012 15:00,2.4,-7.4,48,6,48.3,103.43,1,157.083
11/17/2012 16:00,2,-7.3,50,4,48.3,103.46,1,125.659
11/17/2012 17:00,0.9,-7.7,53,4,25,103.46,1,416.228
11/17/2012 18:00,-1.7,-7.9,63,4,25,103.5,1,543.448
11/17/2012 19:00,-2.1,-7.2,68,4,25,103.51,1,539.158
11/17/2012 20:00,-0.1,-7,60,7,25,103.49,1,324.491
11/17/2012 21:00,-1.4,-6.5,68,7,25,103.51,1,66.7082
11/17/2012 22:00,-1,-6.3,67,7,25,103.54,1,25.0749
11/17/2012 23:00,-1.3,-6.7,67,9,25,103.56,1,0.59785
11/18/2012 0:00,-1.6,-6.2,71,0,25,103.58,1,16.7087
11/18/2012 1:00,-3.2,-6.9,76,0,25,103.59,1,16.3557
11/18/2012 2:00,-4.6,-6.9,84,0,25,103.63,1,30.2124
11/18/2012 3:00,-3.9,-6.1,85,7,25,103.61,1,88.686
11/18/2012 4:00,-4.8,-6.9,85,7,25,103.59,1,153.278
11/18/2012 5:00,-5,-7.4,83,7,25,103.61,1,636.673
11/18/2012 6:00,-5.4,-7.4,86,9,25,103.59,1,550.896
11/18/2012 7:00,-6.4,-8.4,86,9,24.1,103.63,2,421.068
11/18/2012 8:00,-4.5,-6.4,87,7,24.1,103.65,2,404.488
11/18/2012 9:00,-2.4,-5.4,80,9,24.1,103.65,2,296.902
11/18/2012 10:00,-0.5,-6.8,62,7,24.1,103.65,2,55.8865
11/18/2012 11:00,1.9,-6.5,54,7,48.3,103.59,2,0.05075
11/18/2012 12:00,4.1,-10.1,35,4,48.3,103.51,2,11.8691
11/18/2012 13:00,4,-11.6,31,6,48.3,103.46,2,6.31247
11/18/2012 14:00,4.5,-10.6,32,7,48.3,103.39,2,8.55389
11/18/2012 15:00,4.5,-11.9,29,9,48.3,103.38,2,69.8946
11/18/2012 16:00,2.7,-9.3,41,9,24.1,103.36,2,147.566
11/18/2012 17:00,1.5,-8.5,47,9,25,103.36,2,363.691
11/18/2012 18:00,2.6,-7.5,47,9,25,103.36,2,517.82
11/18/2012 19:00,1.1,-7,55,4,25,103.36,2,478.907
11/18/2012 20:00,-1.8,-6.8,69,6,25,103.3,2,279.091
11/18/2012 21:00,-0.6,-7.1,61,11,25,103.27,1,160.661
11/18/2012 22:00,-1.3,-6.9,66,11,25,103.25,2,71.9736
11/18/2012 23:00,-2.1,-6,75,11,25,103.22,2,0.2358
11/19/2012 0:00,-1.8,-5.7,75,7,25,103.2,2,1.34663
11/19/2012 1:00,-2.4,-5.9,77,6,25,103.15,2,26.5107
11/19/2012 2:00,-3.1,-6.4,78,13,25,103.11,2,25.2717
11/19/2012 3:00,-3.6,-6.9,78,9,25,103.11,2,104.872
11/19/2012 4:00,-3.7,-6.9,78,6,25,103.05,2,155.076
11/19/2012 5:00,-4,-7.1,79,9,25,103.03,1,317.996
11/19/2012 6:00,-4.3,-7,81,7,25,103.01,1,375.331
11/19/2012 7:00,-4.6,-7.1,83,9,16.1,102.99,1,424.779
11/19/2012 8:00,-2.8,-5.9,79,11,24.1,102.99,1,199.335
11/19/2012 9:00,-0.5,-4.5,74,7,24.1,102.92,1,87.8432
11/19/2012 10:00,1.3,-3.4,71,7,19.3,102.9,1,2.57908
11/19/2012 11:00,2.4,-3.4,65,6,24.1,102.83,1,0.02066
11/19/2012 12:00,4.9,-2.7,58,4,24.1,102.72,1,4.79803
11/19/2012 13:00,4.9,-0.4,69,6,19.3,102.64,1,31.0566
11/19/2012 14:00,5.9,-0.9,62,6,19.3,102.54,1,46.4803
11/19/2012 15:00,6.2,-1.2,59,4,24.1,102.5,1,111.753
11/19/2012 16:00,3.7,-2,66,6,24.1,102.45,1,492.833
11/19/2012 17:00,3,-1.5,72,4,25,102.42,1,478.214
11/19/2012 18:00,1.1,-1.9,80,4,19.3,102.39,1,430.427
11/19/2012 19:00,0.1,-2.9,80,4,25,102.33,1,287.732
11/19/2012 20:00,-1.4,-3.6,85,6,25,102.29,1,384.063
11/19/2012 21:00,-2.5,-3.8,91,4,19.3,102.23,1,174.955
11/19/2012 22:00,-3.3,-4.3,93,6,12.9,102.21,1,96.3741
11/19/2012 23:00,-0.7,-2.2,90,6,9.7,102.16,2,44.2418
11/20/2012 0:00,-3.3,-4.5,91,7,9.7,102.12,2,5.48967
11/20/2012 1:00,-3.6,-4.3,95,7,9.7,102.08,2,0.04505
11/20/2012 2:00,-1.8,-3.5,88,6,8,102.08,2,118.325
11/20/2012 3:00,-3.6,-4.5,93,6,9.7,102.08,2,148.729
11/20/2012 4:00,-2.9,-4.5,89,6,6.4,102.02,2,333.845
11/20/2012 5:00,-2.9,-4.5,89,6,6.4,102,2,382.049
11/20/2012 6:00,-2.9,-4.8,87,6,6.4,102.01,2,780.355
11/20/2012 7:00,-3.4,-5.2,87,7,4.8,102.02,2,375.054
11/20/2012 8:00,-2,-4.4,84,9,9.7,102.03,2,334.658
11/20/2012 9:00,-0.7,-3.6,81,6,9.7,102.01,2,219.244
11/20/2012 10:00,1.9,-1.9,76,9,12.9,102,2,20.3715
11/20/2012 11:00,3,-2.2,69,6,11.3,101.96,2,0.7203
11/20/2012 12:00,4.6,-1.9,63,2,11.3,101.88,2,2.66038
11/20/2012 13:00,5.5,-1,63,4,11.3,101.83,2,12.4828
11/20/2012 14:00,5.8,-1.6,59,6,12.9,101.77,2,12.8183
11/20/2012 15:00,5.9,-1.5,59,11,16.1,101.77,2,94.5976
11/20/2012 16:00,5.6,-1.6,60,6,16.1,101.78,2,251.874
11/20/2012 17:00,4.2,-0.4,72,7,16.1,101.79,2,338.62
11/20/2012 18:00,2.4,-0.9,79,6,19.3,101.82,2,682.34
11/20/2012 19:00,1.9,-1.1,80,7,16.1,101.85,2,279.506
11/20/2012 20:00,3.4,-2,68,9,19.3,101.86,2,343.686
11/20/2012 21:00,1.9,-2.5,73,9,25,101.84,2,195.543
11/20/2012 22:00,1.9,-2.3,74,7,25,101.81,2,51.6203
11/20/2012 23:00,2,-2.3,73,9,25,101.83,2,0.85572
11/21/2012 0:00,3.1,-2.1,69,6,25,101.8,2,1.18694
11/21/2012 1:00,0.6,-2.3,81,6,25,101.82,2,17.157
11/21/2012 2:00,0.4,-2.5,81,7,25,101.82,1,31.1362
11/21/2012 3:00,-0.7,-3.3,83,9,25,101.83,1,81.9646
11/21/2012 4:00,-1.9,-3.7,87,9,25,101.85,1,284.795
11/21/2012 5:00,-1.4,-3.4,86,11,25,101.86,2,652.306
11/21/2012 6:00,-1.6,-3.6,86,4,12.9,101.92,2,473.475
11/21/2012 7:00,-0.1,-2.8,82,11,9.7,102,2,435.298
11/21/2012 8:00,0.4,-2.2,83,7,12.9,102.01,2,215.449
11/21/2012 9:00,2.9,-1.6,72,7,16.1,102.01,2,98.277
11/21/2012 10:00,5.2,-1.5,62,4,19.3,101.98,1,41.4419
11/21/2012 11:00,6.3,-0.3,63,4,19.3,101.93,1,2.1749
11/21/2012 12:00,7.2,-0.4,58,6,19.3,101.89,1,3.89109
11/21/2012 13:00,7.4,-0.6,57,7,19.3,101.89,1,33.824
11/21/2012 14:00,8.3,-1.6,50,4,19.3,101.86,1,25.9827
11/21/2012 15:00,8.2,-2.1,48,4,19.3,101.87,1,304.988
11/21/2012 16:00,5.5,-1.5,61,7,24.1,101.86,1,329.388
11/21/2012 17:00,2.8,-2,71,7,25,101.85,1,490.912
11/21/2012 18:00,2.1,-1,80,6,25,101.89,1,514.169
11/21/2012 19:00,2.5,-0.8,79,4,25,101.89,1,287.439
11/21/2012 20:00,1.4,-0.9,85,6,25,101.9,2,184.801
11/21/2012 21:00,2.2,-0.5,82,6,25,101.88,1,149.403
11/21/2012 22:00,0.9,-1.4,85,4,19.3,101.88,2,35.8673
11/21/2012 23:00,1,-0.7,88,4,19.3,101.86,1,19.7034
11/22/2012 0:00,1.3,0.4,94,4,16.1,101.87,1,0.6893
11/22/2012 1:00,1.5,0.6,94,6,16.1,101.83,1,7.28948
11/22/2012 2:00,1.3,-0.1,90,4,16.1,101.85,1,25.2145
11/22/2012 3:00,1.1,-0.9,86,4,16.1,101.86,1,137.157
11/22/2012 4:00,-0.9,-2.3,90,4,12.9,101.84,1,363.313
11/22/2012 5:00,-1.4,-3.3,87,6,16.1,101.85,1,488.343
11/22/2012 6:00,-0.3,-2.6,84,9,19.3,101.84,1,425.095
11/22/2012 7:00,0.8,-2.6,78,4,24.1,101.85,1,359.019
11/22/2012 8:00,1.7,-1.9,77,4,24.1,101.87,1,372.462
11/22/2012 9:00,3.3,-0.8,74,6,24.1,101.81,1,107.964
11/22/2012 10:00,6.4,-1.2,58,0,24.1,101.8,1,8.64631
11/22/2012 11:00,8.4,-0.8,52,6,24.1,101.72,1,0.58537
11/22/2012 12:00,10.8,-1.5,42,13,24.1,101.6,1,11.8392
11/22/2012 13:00,11.6,-3.2,35,13,24.1,101.52,1,15.3143
11/22/2012 14:00,12.1,-2.6,36,9,24.1,101.45,1,20.5132
11/22/2012 15:00,10.7,-1.2,44,15,24.1,101.39,1,80.0346
11/22/2012 16:00,9.2,0.4,54,15,24.1,101.37,1,116.378
11/22/2012 17:00,7.1,0.1,61,15,25,101.35,1,425.375
11/22/2012 18:00,6.9,0.5,64,15,25,101.34,1,526.512
11/22/2012 19:00,6.3,0.6,67,6,25,101.3,1,536.167
11/22/2012 20:00,5.9,0.4,68,7,25,101.28,1,417.903
11/22/2012 21:00,5.6,0.8,71,17,25,101.24,1,113.73
11/22/2012 22:00,3.4,-0.9,73,13,25,101.16,1,25.5128
11/22/2012 23:00,4.4,-1.3,66,11,25,101.11,1,40.2626
11/23/2012 0:00,4.5,-1.5,65,15,25,101.06,1,3.3678
11/23/2012 1:00,2.7,-1,77,17,25,100.96,1,42.1885
11/23/2012 2:00,2.6,-1.3,75,11,25,100.96,1,60.7095
11/23/2012 3:00,2.8,-2.2,70,6,25,100.9,1,74.1954
11/23/2012 4:00,1.2,-2.5,76,11,25,100.79,1,347.529
11/23/2012 5:00,2.5,-2.4,70,11,25,100.69,2,340.656
11/23/2012 6:00,3.7,-2.1,66,13,25,100.61,2,516.119
11/23/2012 7:00,4.1,-1.5,67,13,48.3,100.54,2,395.61
11/23/2012 8:00,4.3,-1.1,68,17,48.3,100.47,2,246.292
11/23/2012 9:00,6.2,-1.2,59,20,48.3,100.34,2,185.85
11/23/2012 10:00,8.2,0.3,57,17,24.1,100.25,2,1.61647
11/23/2012 11:00,10.4,0.4,50,24,24.1,100.11,2,0.85529
11/23/2012 12:00,12.1,1.5,48,22,24.1,99.93,2,23.5086
11/23/2012 13:00,10.9,1.3,51,24,48.3,99.8,2,27.508
11/23/2012 14:00,10.4,1.5,54,24,48.3,99.71,2,86.7601
11/23/2012 15:00,10.4,2.5,58,17,16.1,99.79,3,378.903
11/23/2012 16:00,9.2,6.4,83,30,12.9,99.83,3,326.596
11/23/2012 17:00,8.8,6.8,87,22,16.1,99.78,3,405.931
11/23/2012 18:00,8.6,7,90,19,25,99.73,2,679.557
11/23/2012 19:00,8.7,6.6,87,20,25,99.7,2,376.863
11/23/2012 20:00,10,5.4,73,39,25,99.71,2,264.709
11/23/2012 21:00,9.3,4.1,70,39,25,99.72,2,22.197
11/23/2012 22:00,8.6,3,68,26,25,99.7,3,1.09602
11/23/2012 23:00,7.9,1.6,64,26,25,99.65,2,44.4069
11/24/2012 0:00,7.5,0.4,61,19,25,99.59,2,0.37417
11/24/2012 1:00,5.3,2.3,81,32,25,99.6,3,21.1194
11/24/2012 2:00,5.1,2.1,81,30,25,99.61,3,39.1975
11/24/2012 3:00,4.6,-0.6,69,28,25,99.59,2,179.316
11/24/2012 4:00,4.1,-2.2,63,37,25,99.56,2,166.775
11/24/2012 5:00,3,-1.9,70,35,25,99.57,1,413.265
11/24/2012 6:00,2.8,-1.8,72,28,25,99.58,2,420.955
11/24/2012 7:00,2.6,-1.7,73,32,25,99.54,2,544.534
11/24/2012 8:00,2.2,-2,74,30,25,99.57,2,284.621
11/24/2012 9:00,1.6,-0.9,83,33,24.1,99.58,3,39.4172
11/24/2012 10:00,1.8,-2.5,73,30,24.1,99.62,3,38.9091
11/24/2012 11:00,1.6,-3.7,68,33,24.1,99.6,3,3.49806
11/24/2012 12:00,1.8,-5,61,30,24.1,99.6,3,11.3977
11/24/2012 13:00,1.5,-7.4,52,37,24.1,99.64,2,36.6821
11/24/2012 14:00,1.3,-6.3,57,39,24.1,99.65,2,104.064
11/24/2012 15:00,0.7,-6.4,59,35,2.4,99.7,3,191.055
11/24/2012 16:00,-0.5,-5.1,71,28,24.1,99.74,2,377.107
11/24/2012 17:00,-0.6,-5.3,70,37,12.9,99.81,3,396.943
11/24/2012 18:00,-0.4,-5.5,68,28,25,99.85,3,434.307
11/24/2012 19:00,-0.9,-5,74,22,19.3,99.9,3,484.295
11/24/2012 20:00,-0.9,-5.8,69,32,25,99.92,2,305.01
11/24/2012 21:00,-1.5,-7.8,62,28,25,99.96,2,280.982
11/24/2012 22:00,-1.8,-8.3,61,24,25,100,2,19.5985
11/24/2012 23:00,-2.1,-8.8,60,32,25,100,2,32.1243
11/25/2012 0:00,-2.6,-9,61,30,25,100.04,2,15.9246
11/25/2012 1:00,-2.9,-9.3,61,26,25,100.08,1,4.05208
11/25/2012 2:00,-3.3,-9.4,63,33,25,100.15,1,9.63009
11/25/2012 3:00,-3.6,-9.8,62,26,25,100.19,1,172.021
11/25/2012 4:00,-4.1,-9.3,67,30,25,100.2,1,507.684
11/25/2012 5:00,-4.3,-10,64,32,25,100.25,1,565.81
11/25/2012 6:00,-4.3,-9.7,66,28,25,100.26,1,715.063
11/25/2012 7:00,-4.8,-9.5,70,26,25,100.27,1,427.289
11/25/2012 8:00,-4.3,-9.4,68,24,24.1,100.3,1,381.452
11/25/2012 9:00,-3.8,-9.4,65,33,24.1,100.33,1,129.73
11/25/2012 10:00,-3,-9.5,61,32,48.3,100.33,2,4.52029
11/25/2012 11:00,-2.9,-9.6,60,35,48.3,100.28,3,6.63063
11/25/2012 12:00,-2.5,-9.9,57,33,48.3,100.21,2,7.44035
11/25/2012 13:00,-2.1,-9.9,55,32,48.3,100.19,2,10.7857
11/25/2012 14:00,-1.8,-10.3,52,30,48.3,100.22,2,95.98
11/25/2012 15:00,-1.8,-10.9,50,28,48.3,100.22,2,119.024
11/25/2012 16:00,-2.1,-10.9,51,24,48.3,100.24,2,325.358
11/25/2012 17:00,-3.1,-11.8,51,24,25,100.27,1,498.385
11/25/2012 18:00,-3.4,-11.5,53,20,25,100.35,1,409.884
11/25/2012 19:00,-3.7,-11,57,22,25,100.39,1,359.347
11/25/2012 20:00,-3.7,-10.7,58,17,25,100.42,2,325.074
11/25/2012 21:00,-3.4,-10.3,59,15,25,100.46,2,97.375
11/25/2012 22:00,-3.6,-10.3,60,13,25,100.47,2,26.3739
11/25/2012 23:00,-4.2,-10.5,61,15,25,100.5,2,5.6936
11/26/2012 0:00,-4.9,-10.1,67,9,25,100.52,2,5.97641
11/26/2012 1:00,-6.5,-10.6,73,7,25,100.53,1,2.43015
11/26/2012 2:00,-5,-10,68,7,25,100.57,1,17.3861
11/26/2012 3:00,-4.5,-9.3,69,7,25,100.62,2,179.735
11/26/2012 4:00,-4.3,-9.3,68,9,25,100.66,2,210.662
11/26/2012 5:00,-4.3,-10.4,62,13,25,100.72,2,296.929
11/26/2012 6:00,-4.5,-10.9,61,11,25,100.77,2,571.737
11/26/2012 7:00,-4.7,-10.5,64,11,25,100.9,2,304.698
11/26/2012 8:00,-5.5,-10.6,67,19,24.1,101.03,1,460.341
11/26/2012 9:00,-4.2,-11,59,17,48.3,101.14,1,252.867
11/26/2012 10:00,-3.4,-11.3,54,19,48.3,101.25,1,135.81
11/26/2012 11:00,-2.5,-10.9,52,22,48.3,101.3,1,6.83946
11/26/2012 12:00,-1.3,-10.6,49,24,48.3,101.33,1,3.04431
11/26/2012 13:00,-1,-10.6,48,24,48.3,101.34,1,9.38784
11/26/2012 14:00,-0.8,-11.3,45,24,48.3,101.38,1,57.131
11/26/2012 15:00,-0.9,-9.9,50,26,48.3,101.48,1,210.204
11/26/2012 16:00,-1.8,-9,58,24,48.3,101.56,1,137.362
11/26/2012 17:00,-3,-9.5,61,20,25,101.67,1,521.268
11/26/2012 18:00,-3.4,-9.5,63,20,25,101.75,1,589.099
11/26/2012 19:00,-3.8,-10,62,15,25,101.81,1,634.122
11/26/2012 20:00,-4.6,-10,66,13,25,101.85,1,357.247
11/26/2012 21:00,-7.3,-10.3,79,7,25,101.87,1,119.269
11/26/2012 22:00,-5.4,-9.6,72,0,25,101.9,1,29.0261
11/26/2012 23:00,-5.8,-9.7,74,4,25,101.94,1,15.8961
11/27/2012 0:00,-7.4,-9.9,82,4,25,101.97,1,0.87756
11/27/2012 1:00,-9,-11,85,4,25,101.98,1,31.1986
11/27/2012 2:00,-7,-9.3,84,4,25,102.04,1,70.323
11/27/2012 3:00,-6.1,-8.5,83,7,25,102.03,2,205.354
11/27/2012 4:00,-4.8,-8.1,78,7,25,102.01,2,418.672
11/27/2012 5:00,-4.4,-9,70,7,25,102.02,2,517.33
11/27/2012 6:00,-4.4,-8.7,72,6,25,102.04,2,546.468
11/27/2012 7:00,-4.4,-8.8,71,9,24.1,102.05,2,479.413
11/27/2012 8:00,-5.2,-8.4,78,9,24.1,102.15,2,281.161
11/27/2012 9:00,-4.3,-8.6,72,9,24.1,102.13,2,164.222
11/27/2012 10:00,-3.1,-7.8,70,9,24.1,102.2,2,91.5198
11/27/2012 11:00,-2.4,-7.8,66,6,24.1,102.2,2,12.0457
11/27/2012 12:00,-0.7,-7.4,60,4,24.1,102.16,1,2.88141
11/27/2012 13:00,0.3,-7.2,57,7,24.1,102.12,1,18.6473
11/27/2012 14:00,0.5,-6.9,58,6,24.1,102.08,1,15.3381
11/27/2012 15:00,0.4,-6.8,58,7,24.1,102.07,1,93.4202
11/27/2012 16:00,-0.5,-6.9,62,7,24.1,102.08,1,287.091
11/27/2012 17:00,-2.2,-7,70,6,25,102.09,1,370.973
11/27/2012 18:00,-2.8,-7,73,4,25,102.15,1,480.33
11/27/2012 19:00,-2.8,-6.7,74,6,25,102.16,1,176.275
11/27/2012 20:00,-4.5,-7.5,80,6,25,102.14,1,333.963
11/27/2012 21:00,-3,-6.5,77,7,25,102.13,1,270.976
11/27/2012 22:00,-3.4,-6,82,7,25,102.1,2,3.81756
11/27/2012 23:00,-3.8,-6.5,81,7,25,102.07,2,4.31961
11/28/2012 0:00,-3.8,-6.2,83,7,25,102.03,1,1.02665
11/28/2012 1:00,-4,-6,86,6,25,101.99,1,45.7316
11/28/2012 2:00,-3.6,-6.1,83,4,25,101.99,2,104.692
11/28/2012 3:00,-3.4,-5.9,83,11,25,101.96,2,222.121
11/28/2012 4:00,-3.4,-5.5,85,4,25,101.93,2,278.321
11/28/2012 5:00,-3.2,-5,87,7,25,101.92,2,521.461
11/28/2012 6:00,-3.4,-5.2,87,11,25,101.89,2,522.194
11/28/2012 7:00,-3.1,-5.3,85,9,24.1,101.86,2,358.344
11/28/2012 8:00,-3.1,-5,87,4,24.1,101.85,2,294.101
11/28/2012 9:00,-1.1,-3.4,84,6,24.1,101.79,2,225.056
11/28/2012 10:00,0,-4.1,74,4,24.1,101.76,2,57.4948
11/28/2012 11:00,0.5,-4.2,71,6,24.1,101.66,2,15.7285
11/28/2012 12:00,1,-6.4,58,9,24.1,101.55,2,15.5629
11/28/2012 13:00,1.8,-4.3,64,20,19.3,101.47,2,28.323
11/28/2012 14:00,0.7,-1.3,86,19,3.2,101.42,3,41.9833
11/28/2012 15:00,0,-0.8,94,15,2.4,101.37,3,195.31
11/28/2012 16:00,0.6,-0.9,90,20,6.4,101.37,3,355.596
11/28/2012 17:00,0.4,-0.7,92,22,4.8,101.36,3,411.503
11/28/2012 18:00,0.8,-0.6,90,24,8,101.35,3,412.073
11/28/2012 19:00,1,-0.7,88,22,12.9,101.35,3,404.229
11/28/2012 20:00,0.9,-0.9,88,20,16.1,101.36,3,514.93
11/28/2012 21:00,0.4,-1.9,85,24,16.1,101.38,3,263.402
11/28/2012 22:00,-0.7,-6.1,67,30,25,101.45,2,21.6794
11/28/2012 23:00,-2.6,-7.5,69,20,25,101.56,1,28.904
11/29/2012 0:00,-3.9,-8.6,70,28,25,101.62,1,6.15095
11/29/2012 1:00,-5.1,-10.6,65,22,25,101.71,1,50.8807
11/29/2012 2:00,-6.3,-11.9,64,17,25,101.8,1,9.63505
11/29/2012 3:00,-7.4,-12.2,68,17,25,101.87,1,38.8075
11/29/2012 4:00,-8.4,-12.4,73,9,25,101.86,1,207.565
11/29/2012 5:00,-8.4,-11.7,77,6,25,101.85,1,273.337
11/29/2012 6:00,-6,-10.2,72,13,25,101.84,2,462.745
11/29/2012 7:00,-5,-10.6,65,11,24.1,101.81,2,318.474
11/29/2012 8:00,-4.8,-8.3,76,13,19.3,101.77,3,272.882
11/29/2012 9:00,-4.6,-7,83,19,9.7,101.67,3,135.043
11/29/2012 10:00,-4.7,-6.8,85,20,4.8,101.56,3,6.02325
11/29/2012 11:00,-3.5,-5.2,88,15,19.3,101.46,3,2.99477
11/29/2012 12:00,-1.8,-4.2,84,15,6.4,101.35,3,9.06548
11/29/2012 13:00,-1.4,-3.4,86,17,24.1,101.33,3,47.1214
11/29/2012 14:00,-0.8,-3.3,83,22,24.1,101.33,3,87.7526
11/29/2012 15:00,-1.2,-4.6,78,22,24.1,101.4,3,135.085
11/29/2012 16:00,-1.4,-5.4,74,15,24.1,101.5,2,404.466
11/29/2012 17:00,-2.2,-8.3,63,24,25,101.63,2,519.834
11/29/2012 18:00,-4.2,-11.8,55,28,25,101.78,3,484.528
11/29/2012 19:00,-4.9,-11.9,58,22,25,101.9,2,458.954
11/29/2012 20:00,-5.7,-12.1,61,20,25,102.08,2,356.76
11/29/2012 21:00,-6.4,-12.3,63,19,25,102.18,2,143.515
11/29/2012 22:00,-7.3,-14,59,17,25,102.29,2,18.7967
11/29/2012 23:00,-9.4,-15.3,62,20,25,102.42,1,0.01082
11/30/2012 0:00,-10.6,-16.1,64,19,25,102.52,1,13.981
11/30/2012 1:00,-12,-16.5,69,9,25,102.6,1,27.5964
11/30/2012 2:00,-13.5,-16.9,76,6,25,102.72,1,89.831
11/30/2012 3:00,-12.6,-16.7,71,4,25,102.78,1,164.774
11/30/2012 4:00,-12.4,-17,68,4,25,102.82,1,204.148
11/30/2012 5:00,-13.6,-17,75,6,25,102.9,1,373.326
11/30/2012 6:00,-13,-16.6,74,9,25,102.96,1,317.352
11/30/2012 7:00,-13.4,-17.3,72,9,24.1,103.03,1,361.903
11/30/2012 8:00,-12.8,-16.7,73,13,48.3,103.12,1,166.025
11/30/2012 9:00,-11.9,-16,72,7,48.3,103.16,1,91.0517
11/30/2012 10:00,-10.4,-16.3,62,11,48.3,103.2,2,9.18975
11/30/2012 11:00,-9.9,-15.9,61,9,48.3,103.18,2,0.14889
11/30/2012 12:00,-9.3,-15.2,62,0,48.3,103.16,2,9.51787
11/30/2012 13:00,-9,-15.2,61,6,48.3,103.15,2,29.6508
11/30/2012 14:00,-9,-15.6,59,6,48.3,103.15,2,21.9067
11/30/2012 15:00,-8.8,-15.8,57,11,48.3,103.14,2,53.7673
11/30/2012 16:00,-9.1,-15.8,58,11,24.1,103.16,2,212.226
11/30/2012 17:00,-9.3,-15.6,60,15,25,103.2,2,410.046
11/30/2012 18:00,-9.5,-15.5,62,13,25,103.24,2,585.233
11/30/2012 19:00,-9.7,-15.8,61,15,25,103.24,2,494.813
11/30/2012 20:00,-10,-16.3,60,15,25,103.26,2,371.108
11/30/2012 21:00,-10.4,-16.9,59,19,25,103.3,1,79.6197
11/30/2012 22:00,-10.7,-16.8,61,19,25,103.29,1,140.99
11/30/2012 23:00,-10.8,-16.1,65,17,25,103.25,1,1.21624
12/1/2012 0:00,-10.8,-16.2,64,9,25,103.26,1,7.05748
12/1/2012 1:00,-11,-16.5,64,13,25,103.25,1,22.9102
12/1/2012 2:00,-11.1,-16.5,64,20,25,103.21,1,52.8844
12/1/2012 3:00,-12.5,-15.7,77,15,25,103.27,1,166.541
12/1/2012 4:00,-11.8,-15.1,76,17,25,103.22,2,232.497
12/1/2012 5:00,-11.9,-14.6,80,20,25,103.19,2,397.807
12/1/2012 6:00,-11.8,-15,77,26,25,103.18,2,436.68
12/1/2012 7:00,-11.3,-14.2,79,24,24.1,103.19,2,386.234
12/1/2012 8:00,-10.9,-15.3,70,19,24.1,103.23,2,258.422
12/1/2012 9:00,-10.6,-15.9,65,24,24.1,103.18,2,263.608
12/1/2012 10:00,-10.9,-15.7,68,24,24.1,103.18,2,6.52539
12/1/2012 11:00,-10.3,-15.1,68,20,24.1,103.08,2,0.41104
12/1/2012 12:00,-9.4,-14.6,66,24,24.1,102.97,2,9.95175
12/1/2012 13:00,-8.9,-14.6,63,22,24.1,102.9,2,21.4791
12/1/2012 14:00,-8.3,-13.6,66,22,24.1,102.86,2,69.1094
12/1/2012 15:00,-8.3,-13.5,66,17,24.1,102.84,2,148.762
12/1/2012 16:00,-7.9,-12.4,70,20,24.1,102.82,2,205.94
12/1/2012 17:00,-7.5,-12,70,20,19.3,102.73,3,438.014
12/1/2012 18:00,-6.9,-11.3,71,19,25,102.71,3,525.725
12/1/2012 19:00,-6.6,-10.8,72,17,25,102.63,2,381.913
12/1/2012 20:00,-6,-10,73,17,25,102.55,2,398.26
12/1/2012 21:00,-5.9,-9.6,75,17,25,102.49,2,45.9865
12/1/2012 22:00,-4.8,-8.4,76,13,19.3,102.36,3,11.493
12/1/2012 23:00,-4.7,-8,78,19,16.1,102.28,2,31.8516
12/2/2012 0:00,-4.3,-7.3,80,15,24.1,102.18,2,19.5979
12/2/2012 1:00,-4.2,-6.8,82,15,24.1,102.11,2,33.4868
12/2/2012 2:00,-3.9,-6.5,82,15,25,102.06,2,104.975
12/2/2012 3:00,-3.5,-5.8,84,13,25,102.02,3,191.096
12/2/2012 4:00,-3.2,-5.3,85,13,25,101.86,2,228.972
12/2/2012 5:00,-2.7,-5.1,84,11,25,101.75,2,368.339
12/2/2012 6:00,-1.9,-4,86,9,25,101.67,2,651.001
12/2/2012 7:00,-0.3,-2.3,86,6,25,101.58,2,468.56
12/2/2012 8:00,4.7,2.4,85,28,25,101.46,2,274.832
12/2/2012 9:00,5.1,2.6,84,32,24.1,101.34,2,174.975
12/2/2012 10:00,5.7,3,83,28,19.3,101.27,2,102.414
12/2/2012 11:00,6.2,3.2,81,28,24.1,101.16,2,0.02981
12/2/2012 12:00,6.6,3.3,79,28,24.1,101,3,0.3407
12/2/2012 13:00,6.2,4.3,88,19,12.9,100.89,3,0.10675
12/2/2012 14:00,6,4.5,90,19,9.7,100.82,3,5.22216
12/2/2012 15:00,5.6,4.9,95,22,4.8,100.75,3,50.6288
12/2/2012 16:00,5.5,4.9,96,20,6.4,100.68,3,322.274
12/2/2012 17:00,5.5,5,97,17,6.4,100.65,3,338.123
12/2/2012 18:00,5.8,5.6,99,15,4.8,100.65,3,800.869
12/2/2012 19:00,5.9,5.9,100,15,3.6,100.67,3,453.255
12/2/2012 20:00,6.6,6.5,99,13,3.2,100.68,3,340.816
12/2/2012 21:00,6.7,6.6,99,11,8,100.7,2,272.28
12/2/2012 22:00,7.1,6.9,99,15,8,100.71,3,12.5447
12/2/2012 23:00,8.2,7.7,97,19,8,100.72,3,5.91518
12/3/2012 0:00,8.1,7.5,96,15,9.7,100.78,3,20.0385
12/3/2012 1:00,7.8,6.8,93,22,12.9,100.85,2,26.8679
12/3/2012 2:00,6.8,5.3,90,28,25,100.99,2,76.7595
12/3/2012 3:00,5.5,2.9,83,26,25,101.22,2,202.779
12/3/2012 4:00,4.1,1.6,84,13,25,101.35,2,439.359
12/3/2012 5:00,3.2,0.6,83,13,25,101.48,2,366.512
12/3/2012 6:00,1.8,-0.1,87,11,25,101.58,1,356.645
12/3/2012 7:00,1.2,-0.6,88,9,25,101.7,1,429.486
12/3/2012 8:00,2.2,0,85,11,24.1,101.78,1,320.606
12/3/2012 9:00,3.6,1,83,11,48.3,101.87,2,181.583
12/3/2012 10:00,3.9,1.2,83,13,24.1,101.99,2,5.0709
12/3/2012 11:00,3.7,1.1,83,11,24.1,101.96,2,0.21109
12/3/2012 12:00,3.9,1.3,83,9,24.1,101.96,2,1.05632
12/3/2012 13:00,4,1.2,82,9,24.1,101.95,2,8.84245
12/3/2012 14:00,4.2,0.8,79,13,24.1,101.95,2,31.1425
12/3/2012 15:00,4,1,81,9,24.1,101.98,2,113.584
12/3/2012 16:00,3.7,-0.1,76,4,24.1,102.01,2,385.625
12/3/2012 17:00,2.9,1.1,88,4,25,102.03,2,437.875
12/3/2012 18:00,3,0.6,84,4,25,102.03,2,355.399
12/3/2012 19:00,3.4,0.5,81,6,25,102.01,2,394.333
12/3/2012 20:00,3.5,0.7,82,0,25,101.99,2,247.686
12/3/2012 21:00,3.1,1.2,87,6,25,101.99,2,250.576
12/3/2012 22:00,3.7,1.3,84,11,25,101.94,2,21.9283
12/3/2012 23:00,3.7,1.1,83,13,25,101.91,2,0.00843
12/4/2012 0:00,3.7,1.3,84,13,25,101.92,2,16.0598
12/4/2012 1:00,3.6,1.4,86,7,25,101.86,2,1.62475
12/4/2012 2:00,3.9,1.1,82,6,25,101.81,2,54.9691
12/4/2012 3:00,3.8,1.2,83,19,25,101.71,2,203.641
12/4/2012 4:00,3.1,1.3,88,20,25,101.56,1,164.443
12/4/2012 5:00,2.9,1.5,90,13,25,101.52,2,622.822
12/4/2012 6:00,4.2,2.6,89,15,25,101.41,2,615.753
12/4/2012 7:00,5.1,3.4,89,13,25,101.35,2,380.547
12/4/2012 8:00,5.5,3.9,89,9,19.3,101.29,3,258.746
12/4/2012 9:00,5.9,4.8,93,11,19.3,101.23,3,84.9505
12/4/2012 10:00,8,6.3,89,19,19.3,101.16,2,127.723
12/4/2012 11:00,10.1,7.7,85,17,24.1,101.06,2,0.62698
12/4/2012 12:00,11.5,8.3,81,19,24.1,100.92,2,4.05949
12/4/2012 13:00,11.9,8.4,79,17,24.1,100.84,2,13.9698
12/4/2012 14:00,11.3,8.1,81,24,24.1,100.74,2,46.4431
12/4/2012 15:00,11,7.9,81,24,24.1,100.66,2,103.609
12/4/2012 16:00,10.7,7.9,83,24,19.3,100.64,2,229.51
12/4/2012 17:00,10.8,8.1,83,30,25,100.55,2,470.844
12/4/2012 18:00,10.7,8.2,85,32,25,100.5,2,747.537
12/4/2012 19:00,10.7,8.4,86,7,25,100.57,3,199.356
12/4/2012 20:00,9.9,9.1,95,15,12.9,100.53,3,227.284
12/4/2012 21:00,10.4,9.7,95,9,6.4,100.56,3,270.92
12/4/2012 22:00,9.8,9.3,97,6,12.9,100.57,3,34.4858
12/4/2012 23:00,9.7,9.1,96,19,9.7,100.63,3,25.0712
12/5/2012 0:00,9.5,8,90,19,12.9,100.56,3,3.8527
12/5/2012 1:00,9,7.3,89,30,16.1,100.45,3,3.20108
12/5/2012 2:00,8.7,7.1,90,24,16.1,100.5,3,36.3113
12/5/2012 3:00,7.8,6.7,93,24,9.7,100.53,3,226.008
12/5/2012 4:00,7.2,4.8,85,15,25,100.55,1,202.54
12/5/2012 5:00,6.6,4.1,84,17,25,100.62,2,539.037
12/5/2012 6:00,5.7,2.7,81,24,25,100.68,2,319.079
12/5/2012 7:00,5.2,0.4,71,30,25,100.74,2,244.488
12/5/2012 8:00,4.2,-0.5,71,26,24.1,100.85,2,247.653
12/5/2012 9:00,3.6,-1.5,69,26,24.1,100.95,2,345.506
12/5/2012 10:00,2.1,-1.8,75,28,19.3,101.09,3,6.17463
12/5/2012 11:00,2.2,-2.5,71,30,24.1,101.17,3,6.5125
12/5/2012 12:00,1.1,-4.8,65,26,24.1,101.23,3,13.6412
12/5/2012 13:00,1.3,-7,54,30,24.1,101.29,2,6.00206
12/5/2012 14:00,0.8,-6.7,57,35,24.1,101.34,2,73.5596
12/5/2012 15:00,0.1,-7.6,56,26,24.1,101.47,2,146.875
12/5/2012 16:00,-0.4,-9.4,51,30,24.1,101.58,2,257.578
12/5/2012 17:00,-0.7,-8.3,56,30,25,101.66,2,263.16
12/5/2012 18:00,-0.8,-8,58,22,25,101.76,2,409.154
12/5/2012 19:00,-1,-8.5,57,28,25,101.84,3,220.255
12/5/2012 20:00,-1.4,-8.6,58,19,25,101.88,2,282.964
12/5/2012 21:00,-1.9,-8.7,60,24,25,101.93,2,236.316
12/5/2012 22:00,-1.6,-9.5,55,26,25,102.01,2,5.77824
12/5/2012 23:00,-1.8,-9.7,55,20,25,102.07,2,2.564
12/6/2012 0:00,-2.1,-9.7,56,20,25,102.1,2,0.00249
12/6/2012 1:00,-2.3,-9.3,59,17,25,102.12,2,6.08321
12/6/2012 2:00,-2.9,-9.4,61,17,25,102.21,2,7.92641
12/6/2012 3:00,-3.4,-9.1,65,15,25,102.26,2,341.871
12/6/2012 4:00,-3.9,-9,68,11,25,102.33,2,199.635
12/6/2012 5:00,-5.2,-9.7,71,9,25,102.38,1,274.958
12/6/2012 6:00,-5.7,-9.7,73,13,25,102.45,1,428.041
12/6/2012 7:00,-5.9,-10,73,11,24.1,102.47,1,320.256
12/6/2012 8:00,-4.6,-8.8,72,7,24.1,102.52,1,361.797
12/6/2012 9:00,-3.4,-8.9,66,9,48.3,102.53,2,112.708
12/6/2012 10:00,-2.6,-8.4,64,13,48.3,102.56,2,24.2999
12/6/2012 11:00,-1.8,-8.9,58,13,48.3,102.46,1,2.98989
12/6/2012 12:00,-1.8,-9.4,56,6,48.3,102.37,1,1.04976
12/6/2012 13:00,-1,-8.3,58,7,48.3,102.27,1,46.5265
12/6/2012 14:00,-0.9,-8.7,55,13,48.3,102.21,1,15.9467
12/6/2012 15:00,-1.2,-7.9,60,11,48.3,102.18,1,312.651
12/6/2012 16:00,-2.8,-7.9,68,7,48.3,102.11,1,180.555
12/6/2012 17:00,-2.8,-7.6,69,7,25,102.1,1,481.578
12/6/2012 18:00,-2.7,-6.8,73,13,25,102.06,2,496.747
12/6/2012 19:00,-2.8,-7.4,71,9,25,102.05,2,898.072
12/6/2012 20:00,-1.9,-7.4,66,7,25,101.95,2,396.955
12/6/2012 21:00,-1.7,-7,67,11,25,101.88,2,229.974
12/6/2012 22:00,-1.4,-7.2,65,17,25,101.8,2,39.532
12/6/2012 23:00,-1.1,-6,69,7,25,101.73,2,0.10678
12/7/2012 0:00,-1.3,-5.9,71,13,25,101.67,2,22.6256
12/7/2012 1:00,-1.5,-5.7,73,7,25,101.58,2,12.5362
12/7/2012 2:00,-1.3,-5.3,74,9,25,101.51,1,38.8424
12/7/2012 3:00,-1.8,-5.3,77,9,25,101.46,1,101.169
12/7/2012 4:00,-2.7,-5.7,80,11,25,101.38,2,206.353
12/7/2012 5:00,-2.2,-5.5,78,11,25,101.3,2,477.063
12/7/2012 6:00,-2.9,-5.5,82,7,25,101.27,2,588.575
12/7/2012 7:00,-2.8,-5.3,83,11,24.1,101.3,2,311.883
12/7/2012 8:00,-3.3,-5.4,85,7,24.1,101.29,2,235.861
12/7/2012 9:00,-2.1,-4.7,82,7,24.1,101.32,2,160.93
12/7/2012 10:00,1.2,-5.8,60,9,48.3,101.26,2,6.53971
12/7/2012 11:00,2.6,-5,57,4,48.3,101.24,2,2.27446
12/7/2012 12:00,3,-5,56,4,24.1,101.2,2,0.65574
12/7/2012 13:00,3.7,-4.3,56,6,48.3,101.15,2,16.0921
12/7/2012 14:00,3.9,-4.3,55,11,48.3,101.09,2,26.2234
12/7/2012 15:00,3.9,-3.3,59,11,48.3,101.11,2,199.444
12/7/2012 16:00,3.5,-3.8,59,9,24.1,101.13,2,209.835
12/7/2012 17:00,2.8,-3.3,64,11,25,101.14,2,224.577
12/7/2012 18:00,2.2,-3.5,66,7,25,101.13,2,558.314
12/7/2012 19:00,2.2,-3.3,67,6,25,101.17,2,317.717
12/7/2012 20:00,2.1,-3.1,68,4,25,101.18,2,298.646
12/7/2012 21:00,2,-3.1,69,6,25,101.18,2,171.9
12/7/2012 22:00,2.3,-2.5,71,4,25,101.19,2,49.8057
12/7/2012 23:00,1.5,-2.2,76,4,19.3,101.22,3,3.71126
12/8/2012 0:00,1.8,-1.4,79,4,25,101.2,3,0.02014
12/8/2012 1:00,2,-1.3,79,6,25,101.17,2,4.31731
12/8/2012 2:00,2,-1.9,75,7,25,101.17,2,98.9955
12/8/2012 3:00,2.1,-1.5,77,6,25,101.18,2,283.174
12/8/2012 4:00,2.5,-1.2,77,0,25,101.13,2,274.778
12/8/2012 5:00,2.7,-1,77,9,25,101.07,2,451.158
12/8/2012 6:00,2.4,0.3,86,9,25,101.05,2,358.158
12/8/2012 7:00,2.3,1,91,6,8,101.09,2,293.918
12/8/2012 8:00,2.7,1.6,92,7,6.4,101.06,3,349.922
12/8/2012 9:00,2.7,1.8,94,11,4.8,100.98,3,207.224
12/8/2012 10:00,3.2,2.1,92,11,8,100.95,3,8.98786
12/8/2012 11:00,2.2,1.5,95,17,8,100.83,3,17.4939
12/8/2012 12:00,2.1,1.6,96,15,4.8,100.74,3,4.69858
12/8/2012 13:00,1.9,1.3,96,17,3.6,100.59,3,20.0933
12/8/2012 14:00,2.1,1.2,94,15,6.4,100.52,3,23.1504
12/8/2012 15:00,2,1,93,17,4.8,100.48,3,89.8199
12/8/2012 16:00,1.8,0.8,93,17,4.8,100.49,3,258.967
12/8/2012 17:00,1.6,0.6,93,9,8,100.46,3,626.279
12/8/2012 18:00,1.1,0.5,96,9,6.4,100.54,3,414.579
12/8/2012 19:00,0.9,0.2,95,9,6.4,100.61,3,1012.02
12/8/2012 20:00,0.8,0.3,96,9,6.4,100.67,3,275.258
12/8/2012 21:00,0.8,0.3,96,9,6.4,100.73,3,52.3823
12/8/2012 22:00,1.2,0.6,96,13,6.4,100.84,2,19.8951
12/8/2012 23:00,1.3,0.6,95,17,8,100.96,3,0.95423
12/9/2012 0:00,1.5,0.7,94,20,9.7,101.07,2,17.7638
12/9/2012 1:00,1.9,0.7,92,17,16.1,101.22,2,2.89884
12/9/2012 2:00,1.8,0.1,88,17,19.3,101.37,2,49.1879
12/9/2012 3:00,1.5,-0.5,87,17,25,101.47,1,204.675
12/9/2012 4:00,1.5,-0.3,88,13,25,101.59,2,237.962
12/9/2012 5:00,1.1,-0.9,86,15,25,101.72,2,283.547
12/9/2012 6:00,0.8,-1.5,85,11,25,101.84,2,494.22
12/9/2012 7:00,0.2,-2.3,83,20,24.1,102.02,2,388.252
12/9/2012 8:00,-0.5,-2.9,84,11,24.1,102.16,2,245.315
12/9/2012 9:00,-0.9,-3.9,80,20,24.1,102.24,2,166.98
12/9/2012 10:00,-1.5,-4.5,80,20,24.1,102.35,2,21.3492
12/9/2012 11:00,-1.7,-4.8,79,17,24.1,102.35,2,16.9888
12/9/2012 12:00,-1.9,-5.1,79,17,12.9,102.32,3,1.14107
12/9/2012 13:00,-2.3,-5.4,79,9,24.1,102.28,2,11.6018
12/9/2012 14:00,-1.9,-5.1,79,7,24.1,102.28,2,9.01275
12/9/2012 15:00,-1.9,-4.9,80,6,24.1,102.33,2,115.73
12/9/2012 16:00,-1.6,-5.2,76,4,24.1,102.31,2,307.156
12/9/2012 17:00,-1.2,-5.7,71,15,25,102.31,2,357.403
12/9/2012 18:00,-1.4,-5.9,71,19,25,102.25,2,473.361
12/9/2012 19:00,-1.7,-6.2,71,22,24.1,102.22,2,395.807
12/9/2012 20:00,-2.2,-7.2,69,28,25,102.11,2,234.519
12/9/2012 21:00,-2.4,-6.5,73,20,25,101.91,2,254.758
12/9/2012 22:00,-3,-8.2,67,28,25,101.78,2,0.00089
12/9/2012 23:00,-3.6,-8.6,68,32,25,101.64,2,0.57815
12/10/2012 0:00,-3.9,-8.1,73,20,25,101.54,2,0.1202
12/10/2012 1:00,-5,-6.2,91,32,1.6,101.31,3,32.3783
12/10/2012 2:00,-4.7,-6.2,89,33,4,101.1,3,11.8894
12/10/2012 3:00,-4.3,-5.9,89,33,2.8,100.96,3,53.5327
12/10/2012 4:00,-3.3,-4.4,92,28,3.6,100.73,3,179.551
12/10/2012 5:00,-1.9,-2.8,94,33,4,100.55,3,372.435
12/10/2012 6:00,0.1,-0.9,93,22,8,100.3,3,403.483
12/10/2012 7:00,1,0,93,19,8,100.09,3,481.268
12/10/2012 8:00,1.7,0.8,94,17,6.4,99.98,3,330.746
12/10/2012 9:00,2.2,1.5,95,19,6.4,99.78,3,57.4383
12/10/2012 10:00,2.2,1.6,96,17,2.4,99.7,3,0.22844
12/10/2012 11:00,1.9,1.5,97,15,3.2,99.6,3,0.30376
12/10/2012 12:00,1.4,0.8,96,15,4.8,99.44,3,8.75886
12/10/2012 13:00,0.6,0.3,98,19,2.4,99.34,3,24.1695
12/10/2012 14:00,0.1,-0.2,98,15,2.4,99.32,3,21.2529
12/10/2012 15:00,0,-0.5,96,9,4,99.34,3,198.791
12/10/2012 16:00,0,-0.5,96,6,4,99.41,3,167.221
12/10/2012 17:00,0.1,-0.3,97,4,4.8,99.42,3,450.405
12/10/2012 18:00,1.5,1.1,97,15,12.9,99.57,2,715.223
12/10/2012 19:00,2.6,0.9,89,22,25,99.54,2,512.127
12/10/2012 20:00,2.5,-0.5,81,24,25,99.58,2,353.869
12/10/2012 21:00,2.2,-1.3,78,24,25,99.63,2,81.5994
12/10/2012 22:00,1.7,-1.3,80,20,25,99.73,2,4.60815
12/10/2012 23:00,1.2,-2.1,79,20,25,99.78,2,5.97798
12/11/2012 0:00,0.7,-2.7,78,17,25,99.89,2,18.5356
12/11/2012 1:00,0,-3.6,77,28,25,99.99,2,16.2548
12/11/2012 2:00,-1.1,-5.2,74,22,25,100.09,2,70.7981
12/11/2012 3:00,-2.5,-6,77,24,25,100.27,2,66.1616
12/11/2012 4:00,-4.5,-8,76,20,25,100.38,1,267.215
12/11/2012 5:00,-5.9,-9.6,75,17,25,100.51,1,341.042
12/11/2012 6:00,-7.3,-10.3,79,15,25,100.62,1,540.907
12/11/2012 7:00,-8,-11.5,76,15,24.1,100.78,1,493.21
12/11/2012 8:00,-8.4,-12,75,17,24.1,100.91,1,291.549
12/11/2012 9:00,-7.9,-12,72,19,24.1,101.03,1,199.171
12/11/2012 10:00,-7.1,-12,68,9,24.1,101.12,1,126.285
12/11/2012 11:00,-6.6,-12.2,64,7,24.1,101.1,1,1.69035
12/11/2012 12:00,-6.1,-12.4,61,11,24.1,101.13,1,1.29152
12/11/2012 13:00,-5.5,-11.1,65,17,24.1,101.18,1,0.14722
12/11/2012 14:00,-5.2,-11,64,17,24.1,101.21,1,62.7686
12/11/2012 15:00,-5.7,-11.5,64,13,24.1,101.29,1,229.589
12/11/2012 16:00,-6.1,-11.6,65,15,24.1,101.35,1,302.197
12/11/2012 17:00,-6.8,-11.7,68,11,24.1,101.45,1,528.775
12/11/2012 18:00,-6.9,-11.5,70,13,25,101.51,1,415.257
12/11/2012 19:00,-7.9,-11,78,13,25,101.6,1,435.166
12/11/2012 20:00,-7.9,-11.3,77,15,25,101.68,1,282.872
12/11/2012 21:00,-8.7,-11.6,79,9,25,101.74,1,76.6518
12/11/2012 22:00,-9.1,-11.4,83,6,25,101.78,1,4.48053
12/11/2012 23:00,-8.3,-11.2,80,9,25,101.84,1,6.51869
12/12/2012 0:00,-9.2,-11.6,83,7,25,101.87,1,2.4001
12/12/2012 1:00,-9.4,-11.5,85,7,25,101.91,1,16.7112
12/12/2012 2:00,-10.3,-12,87,4,25,101.96,1,35.0165
12/12/2012 3:00,-9.6,-11.3,87,4,25,102,1,79.8924
12/12/2012 4:00,-10.1,-11.6,89,6,25,102.04,1,206.714
12/12/2012 5:00,-10.3,-11.7,89,4,25,102.06,1,606.088
12/12/2012 6:00,-9.5,-11.3,87,4,25,102.1,1,376.786
12/12/2012 7:00,-11.2,-12.4,91,4,24.1,102.19,1,401.075
12/12/2012 8:00,-7.3,-9.2,86,11,24.1,102.14,2,288.777
12/12/2012 9:00,-6.1,-9,80,4,24.1,102.21,3,190.116
12/12/2012 10:00,-4.7,-7.6,80,9,24.1,102.2,3,53.8007
12/12/2012 11:00,-3.7,-6.8,79,7,19.3,102.15,2,0.0104
12/12/2012 12:00,-2.7,-6.5,75,7,19.3,102.14,2,0.3257
12/12/2012 13:00,-3,-6.7,76,6,19.3,102.14,1,40.4723
12/12/2012 14:00,-2.9,-6.5,76,7,16.1,102.16,2,32.017
12/12/2012 15:00,-3.2,-6.7,77,6,19.3,102.17,2,169.242
12/12/2012 16:00,-2.8,-6.2,77,4,12.9,102.2,2,317.756
12/12/2012 17:00,-3.2,-6,81,7,9.7,102.25,3,525.691
12/12/2012 18:00,-3.6,-5.7,85,7,12.9,102.28,3,707.404
12/12/2012 19:00,-4,-6.1,85,11,12.9,102.3,2,367.376
12/12/2012 20:00,-4.4,-6.4,86,7,16.1,102.36,3,181.867
12/12/2012 21:00,-3.9,-5.9,86,6,16.1,102.37,3,72.9881
12/12/2012 22:00,-3.8,-5.6,87,4,11.3,102.4,3,32.9518
12/12/2012 23:00,-4.3,-5.8,89,4,16.1,102.45,1,1.97838
12/13/2012 0:00,-6.1,-7.4,90,6,12.9,102.44,1,7.07224
12/13/2012 1:00,-4.3,-5.3,93,11,12.9,102.49,1,22.9071
12/13/2012 2:00,-5.9,-6.6,95,6,11.3,102.57,1,78.9631
12/13/2012 3:00,-6.1,-7,93,11,11.3,102.61,1,203.005
12/13/2012 4:00,-5.4,-6.2,94,6,8,102.61,2,315.752
12/13/2012 5:00,-6,-6.8,94,4,9.7,102.63,2,224.887
12/13/2012 6:00,-6.4,-7.5,92,4,9.7,102.66,2,559.799
12/13/2012 7:00,-6.1,-7.4,90,4,9.7,102.69,2,624.073
12/13/2012 8:00,-6,-7.1,92,4,8,102.67,2,623.689
12/13/2012 9:00,-4.7,-6,91,4,8,102.68,2,133.63
12/13/2012 10:00,-2.3,-4.2,87,4,6.4,102.64,2,4.91701
12/13/2012 11:00,-0.7,-3.1,84,9,9.7,102.55,2,7.61877
12/13/2012 12:00,-0.4,-2.9,83,9,9.7,102.46,2,13.9546
12/13/2012 13:00,0.1,-2.5,83,9,12.9,102.36,2,65.6833
12/13/2012 14:00,1.1,-2.1,79,11,19.3,102.28,2,53.425
12/13/2012 15:00,2.1,-1.9,75,7,19.3,102.25,1,29.6299
12/13/2012 16:00,1.3,-2.1,78,9,19.3,102.21,1,229.508
12/13/2012 17:00,1.4,-1.8,79,19,25,102.1,1,357.968
12/13/2012 18:00,1.1,-2,80,19,25,102.01,2,487.922
12/13/2012 19:00,1.7,-2.5,74,15,25,101.99,1,388.641
12/13/2012 20:00,0.4,-2.5,81,11,25,101.98,1,212.273
12/13/2012 21:00,0.6,-2.3,81,15,25,101.9,2,185.89
12/13/2012 22:00,0.2,-2.5,82,15,25,101.84,2,48.9485
12/13/2012 23:00,0.7,-2.3,80,17,25,101.77,2,0.01352
12/14/2012 0:00,0.8,-2.6,78,15,25,101.71,2,10.7854
12/14/2012 1:00,0,-3,80,17,25,101.62,2,28.6799
12/14/2012 2:00,-0.6,-3.2,83,15,25,101.59,2,123.023
12/14/2012 3:00,-0.8,-3.4,83,15,25,101.51,2,115.429
12/14/2012 4:00,-0.2,-3.5,78,20,25,101.44,2,234.761
12/14/2012 5:00,0.3,-3.3,77,11,25,101.4,2,549.54
12/14/2012 6:00,0.5,-3.5,75,15,25,101.36,2,327.091
12/14/2012 7:00,2,-3.6,66,20,48.3,101.3,1,223.517
12/14/2012 8:00,1.5,-3.5,69,13,48.3,101.32,2,269.975
12/14/2012 9:00,2.3,-3.1,67,26,48.3,101.32,2,51.2185
12/14/2012 10:00,2.8,-2.4,69,22,24.1,101.34,2,9.41034
12/14/2012 11:00,2.6,-2,72,22,24.1,101.35,3,13.5853
12/14/2012 12:00,2.8,-1.5,73,17,24.1,101.33,2,7.99686
12/14/2012 13:00,3.3,-1.2,72,22,24.1,101.33,2,12.5831
12/14/2012 14:00,3.2,-1.1,73,19,24.1,101.38,2,8.35921
12/14/2012 15:00,3,-1,75,15,24.1,101.44,2,44.7567
12/14/2012 16:00,2.8,-1,76,17,24.1,101.53,2,281.536
12/14/2012 17:00,2.5,-0.6,80,13,25,101.61,2,786.245
12/14/2012 18:00,2.3,-1.3,77,17,25,101.7,2,454.244
12/14/2012 19:00,1.8,-3.6,67,19,25,101.76,2,696.272
12/14/2012 20:00,0.8,-4.7,67,15,25,101.85,2,239.95
12/14/2012 21:00,-1.5,-6.4,69,22,25,101.96,1,70.0824
12/14/2012 22:00,-2.9,-7.4,71,20,25,102.06,1,3.32205
12/14/2012 23:00,-4.3,-8.6,72,22,25,102.13,1,0.06706
12/15/2012 0:00,-5.3,-10.5,67,20,25,102.18,1,3.05691
12/15/2012 1:00,-6.5,-11.4,68,17,25,102.27,1,5.51192
12/15/2012 2:00,-7.1,-11.8,69,19,25,102.36,1,0.05684
12/15/2012 3:00,-8,-13.2,66,17,25,102.41,1,297.624
12/15/2012 4:00,-8.5,-13.8,66,15,25,102.42,1,209.147
12/15/2012 5:00,-9.3,-14.2,67,20,25,102.47,1,732.781
12/15/2012 6:00,-9.9,-14.5,69,17,25,102.58,1,353.252
12/15/2012 7:00,-10.2,-15.1,67,19,48.3,102.63,1,407.441
12/15/2012 8:00,-10.7,-15.6,67,13,48.3,102.69,1,193.233
12/15/2012 9:00,-10.4,-15.9,64,19,48.3,102.74,1,162.603
12/15/2012 10:00,-9.9,-15.2,65,13,48.3,102.78,1,15.8119
12/15/2012 11:00,-9.3,-14.9,64,19,48.3,102.74,1,10.6704
12/15/2012 12:00,-9.1,-15.1,62,19,48.3,102.71,1,8.7212
12/15/2012 13:00,-8.4,-14.7,60,19,48.3,102.64,1,23.461
12/15/2012 14:00,-8,-14.2,61,13,48.3,102.59,1,42.3547
12/15/2012 15:00,-7.8,-13.7,63,15,48.3,102.55,1,118.086
12/15/2012 16:00,-8.5,-14.8,60,20,48.3,102.54,1,266.631
12/15/2012 17:00,-8.7,-15.3,59,15,25,102.53,1,547.481
12/15/2012 18:00,-9.1,-15.1,62,17,25,102.54,1,767.513
12/15/2012 19:00,-9.1,-14.7,64,20,25,102.58,1,306.786
12/15/2012 20:00,-8.7,-15.1,60,20,25,102.5,1,273.808
12/15/2012 21:00,-9,-15.5,59,24,25,102.46,1,177.51
12/15/2012 22:00,-9.5,-15,64,19,25,102.47,2,25.508
12/15/2012 23:00,-9.9,-15,66,26,25,102.38,2,0.04428
12/16/2012 0:00,-10,-14.9,67,24,25,102.31,2,14.8878
12/16/2012 1:00,-10.1,-14.8,68,24,25,102.27,2,5.67389
12/16/2012 2:00,-10.1,-14.6,70,28,25,102.17,2,53.2531
12/16/2012 3:00,-10.1,-14.5,70,28,25,102.15,2,120.237
12/16/2012 4:00,-10.1,-14.5,70,24,25,102.08,2,326.943
12/16/2012 5:00,-10,-14.4,70,22,25,102,2,605.515
12/16/2012 6:00,-9.9,-14.6,68,35,25,101.93,2,495.969
12/16/2012 7:00,-9.8,-14.9,66,32,25,101.89,2,737.185
12/16/2012 8:00,-9.5,-14.8,65,32,48.3,101.85,2,383.276
12/16/2012 9:00,-9.4,-14.7,65,33,19.3,101.82,3,153.624
12/16/2012 10:00,-7.7,-13.8,62,32,24.1,101.8,2,15.4586
12/16/2012 11:00,-8.2,-13.9,63,35,24.1,101.71,3,0.00822
12/16/2012 12:00,-8.5,-12.2,75,32,4.8,101.62,3,2.25106
12/16/2012 13:00,-8,-11.2,78,26,12.9,101.54,3,29.7185
12/16/2012 14:00,-7.7,-10.2,82,32,4.8,101.45,3,76.6334
12/16/2012 15:00,-7.6,-9.4,87,32,3.2,101.38,3,162.34
12/16/2012 16:00,-7,-8.7,88,35,4,101.33,3,280.501
12/16/2012 17:00,-6.4,-8,88,30,4.8,101.28,3,432.564
12/16/2012 18:00,-5.9,-7.4,89,30,4,101.25,3,468.194
12/16/2012 19:00,-5.1,-6.6,89,22,16.1,101.2,3,334.72
12/16/2012 20:00,-4.7,-6,91,28,12.9,101.18,3,185.82
12/16/2012 21:00,-4,-5.4,90,24,16.1,101.17,3,218.287
12/16/2012 22:00,-3.6,-4.7,92,22,9.7,101.12,3,130.107
12/16/2012 23:00,-3.1,-4.2,92,24,12.9,101.09,2,4.99061
12/17/2012 0:00,-2.3,-3.3,93,24,12.9,101.02,3,1.3331
12/17/2012 1:00,-2.3,-3.3,93,26,9.7,101.01,3,52.7534
12/17/2012 2:00,-2.2,-3.3,92,24,11.3,101,3,65.26
12/17/2012 3:00,-2.6,-3.7,92,28,8,100.95,3,109.438
12/17/2012 4:00,-3,-4.1,92,24,6.4,100.91,3,320.563
12/17/2012 5:00,-3,-4.2,91,24,8,100.89,3,766.414
12/17/2012 6:00,-2.1,-3.2,92,19,8,100.88,3,632.049
12/17/2012 7:00,-0.3,-1.3,93,13,12.9,100.88,2,608.192
12/17/2012 8:00,0.3,-0.5,94,20,3.2,100.84,3,201.041
12/17/2012 9:00,0.4,-0.7,92,20,4,100.79,3,244.715
12/17/2012 10:00,0.5,-0.8,91,20,3.6,100.78,3,21.013
12/17/2012 11:00,0.4,-0.4,94,19,1.6,100.76,3,19.4961
12/17/2012 12:00,0.4,-0.3,95,22,2,100.71,3,0.29132
12/17/2012 13:00,0.6,-0.1,95,17,4.8,100.66,3,33.7543
12/17/2012 14:00,0.8,0.1,95,19,4,100.65,3,13.1223
12/17/2012 15:00,0.9,0.2,95,19,11.3,100.63,3,227.216
12/17/2012 16:00,1.3,0.4,94,15,12.9,100.62,3,354.499
12/17/2012 17:00,1.9,0.7,92,17,16.1,100.57,2,522.397
12/17/2012 18:00,2,0.6,90,19,16.1,100.61,3,624.896
12/17/2012 19:00,2.1,0.4,88,15,16.1,100.63,3,358.844
12/17/2012 20:00,2.3,0.5,88,19,16.1,100.64,3,195.451
12/17/2012 21:00,1.7,0.3,90,20,16.1,100.58,2,55.233
12/17/2012 22:00,1.9,0.1,88,13,19.3,100.56,2,8.40755
12/17/2012 23:00,1.2,-0.1,91,20,16.1,100.5,2,16.6593
12/18/2012 0:00,0.6,-0.5,92,19,16.1,100.44,2,5.29986
12/18/2012 1:00,0.1,-0.9,93,24,19.3,100.37,2,32.7776
12/18/2012 2:00,0.4,-0.9,91,24,19.3,100.32,2,81.4802
12/18/2012 3:00,0.4,-0.9,91,24,16.1,100.24,3,144.341
12/18/2012 4:00,0.5,-0.8,91,24,11.3,100.15,3,438.896
12/18/2012 5:00,0.6,-0.6,92,24,9.7,100.12,3,644.838
12/18/2012 6:00,0.5,-0.4,94,24,3.6,100.07,3,604.175
12/18/2012 7:00,0.5,-0.2,95,24,3.2,100,3,423.692
12/18/2012 8:00,0.7,0,95,24,2.8,99.92,3,247.244
12/18/2012 9:00,0.7,0.1,96,22,2,99.88,3,140.361
12/18/2012 10:00,0.6,0,96,24,1.2,99.86,3,52.6143
12/18/2012 11:00,0.5,-0.2,95,22,1.2,99.76,3,0.92268
12/18/2012 12:00,0.8,0,94,32,4.8,99.64,3,0.81033
12/18/2012 13:00,1,0,93,26,4,99.56,3,7.77238
12/18/2012 14:00,1,0.2,94,24,4,99.53,3,10.455
12/18/2012 15:00,1.1,0.2,94,22,4.8,99.51,3,330.499
12/18/2012 16:00,1.1,0.1,93,26,8,99.48,3,197.267
12/18/2012 17:00,1.2,0.3,94,22,8,99.48,3,603.185
12/18/2012 18:00,1.4,0.5,94,22,8,99.49,3,276.94
12/18/2012 19:00,1.4,0.7,95,15,8,99.53,3,437.713
12/18/2012 20:00,1.3,0.7,96,15,6.4,99.54,3,342.129
12/18/2012 21:00,1,0.6,97,13,3.2,99.58,3,333.453
12/18/2012 22:00,0.8,0.4,97,15,3.2,99.6,3,89.3188
12/18/2012 23:00,0.8,0.5,98,11,3.2,99.64,3,2.12559
12/19/2012 0:00,0.6,0.2,97,9,4,99.65,3,0.37143
12/19/2012 1:00,0.5,0.1,97,7,6.4,99.71,3,37.7137
12/19/2012 2:00,0.4,0.1,98,7,8,99.78,3,25.2565
12/19/2012 3:00,0.4,0,97,9,4.8,99.82,3,149.653
12/19/2012 4:00,0.4,0,97,11,4,99.87,3,307.686
12/19/2012 5:00,0.3,-0.1,97,11,3.2,99.95,3,570.203
12/19/2012 6:00,0.4,-0.1,96,9,2.4,100.05,3,479.862
12/19/2012 7:00,0.4,0,97,11,3.2,100.15,3,340.538
12/19/2012 8:00,0.5,0.1,97,11,2.4,100.24,3,319.17
12/19/2012 9:00,0.6,0.2,97,13,2.4,100.33,3,298.594
12/19/2012 10:00,0.6,0.2,97,15,2.4,100.42,3,74.9472
12/19/2012 11:00,0.8,0.2,96,11,9.7,100.44,2,0.08277
12/19/2012 12:00,0.8,0,94,17,19.3,100.53,2,0.83205
12/19/2012 13:00,1,-0.2,92,11,24.1,100.61,2,4.45144
12/19/2012 14:00,1.1,-0.1,92,13,24.1,100.72,2,26.2286
12/19/2012 15:00,1.3,-0.1,90,9,24.1,100.83,3,186.424
12/19/2012 16:00,1.3,-0.4,88,7,24.1,100.96,2,300.067
12/19/2012 17:00,1.1,-0.2,91,6,16.1,101.04,3,583.023
12/19/2012 18:00,1.2,0.1,92,9,9.7,101.15,3,506.578
12/19/2012 19:00,0.8,0.3,96,11,4.8,101.26,3,478.53
12/19/2012 20:00,0.7,0.1,96,11,6.4,101.32,3,230.131
12/19/2012 21:00,0.6,-0.1,95,13,11.3,101.38,3,83.0429
12/19/2012 22:00,0.6,-0.5,92,9,25,101.42,2,4.25047
12/19/2012 23:00,0.6,-0.9,90,13,25,101.5,3,5.10306
12/20/2012 0:00,0.4,-2.1,83,20,25,101.57,3,10.3983
12/20/2012 1:00,0.1,-2.2,84,17,25,101.6,2,10.9028
12/20/2012 2:00,-0.2,-2.4,85,19,25,101.68,2,7.77532
12/20/2012 3:00,-0.5,-2.9,84,17,25,101.69,2,135.889
12/20/2012 4:00,-0.7,-3.4,82,15,25,101.72,2,350.062
12/20/2012 5:00,-1.1,-3.9,81,13,25,101.78,2,429.508
12/20/2012 6:00,-1.6,-4.2,82,15,25,101.82,3,316.506
12/20/2012 7:00,-1.8,-4.9,79,20,25,101.88,2,806.554
12/20/2012 8:00,-1.9,-4.6,82,15,24.1,101.91,2,527.605
12/20/2012 9:00,-1.7,-4.5,81,13,24.1,101.98,2,77.1145
12/20/2012 10:00,-1.4,-4.2,81,7,24.1,101.97,2,58.0797
12/20/2012 11:00,-1.1,-4,81,4,24.1,101.92,3,1.20948
12/20/2012 12:00,-1,-3.9,81,6,24.1,101.83,2,2.20118
12/20/2012 13:00,-0.9,-4,79,15,24.1,101.65,2,25.7535
12/20/2012 14:00,-1,-4.3,78,15,24.1,101.62,2,103.99
12/20/2012 15:00,-0.5,-3.8,78,13,24.1,101.55,2,82.0514
12/20/2012 16:00,-0.3,-3.3,80,13,24.1,101.56,2,273.926
12/20/2012 17:00,-0.3,-3.2,81,19,25,101.38,2,434.396
12/20/2012 18:00,0.2,-3,79,19,25,101.25,2,462.428
12/20/2012 19:00,0.3,-2.7,80,17,25,101.23,2,519.612
12/20/2012 20:00,0.1,-2.4,83,20,25,101.12,2,306.14
12/20/2012 21:00,0.7,-2.3,80,22,25,101,2,121.032
12/20/2012 22:00,1.1,-2.4,77,20,25,100.88,2,3.84201
12/20/2012 23:00,1.2,-2.1,79,28,25,100.69,2,0.70148
12/21/2012 0:00,1.9,-2.1,75,26,25,100.6,3,25.5379
12/21/2012 1:00,1.1,-0.7,88,17,6.4,100.47,3,6.73176
12/21/2012 2:00,1,-0.3,91,20,6.4,100.35,3,35.4543
12/21/2012 3:00,0.9,0,94,28,4.8,100.12,3,280.166
12/21/2012 4:00,1.1,-0.1,92,22,6.4,99.98,3,168.951
12/21/2012 5:00,1.3,0.1,92,26,6.4,99.85,3,559.224
12/21/2012 6:00,1,0,93,22,4,99.76,3,563.936
12/21/2012 7:00,0.9,-0.1,93,32,6.4,99.64,3,452.636
12/21/2012 8:00,0.8,-0.2,93,32,2.4,99.5,3,239.818
12/21/2012 9:00,0.8,-0.2,93,33,2.4,99.38,3,102.363
12/21/2012 10:00,1,0,93,32,12.9,99.24,3,12.7244
12/21/2012 11:00,0.9,0,94,30,2,99.01,3,1.9763
12/21/2012 12:00,1.3,0.3,93,41,9.7,98.67,3,6.28317
12/21/2012 13:00,1.8,0.3,90,41,19.3,98.36,3,2.50415
12/21/2012 14:00,2.1,0.4,88,41,19.3,98.16,3,35.1278
12/21/2012 15:00,1.8,0.2,89,33,12.9,98.1,3,89.4853
12/21/2012 16:00,1.4,0.2,92,43,9.7,97.93,3,291.993
12/21/2012 17:00,1.3,0.2,92,46,12.9,97.76,3,628.946
12/21/2012 18:00,1.4,0.3,92,46,25,97.56,3,637.45
12/21/2012 19:00,2.3,1.1,92,37,11.3,97.52,3,414.03
12/21/2012 20:00,2.4,1.7,95,15,9.7,97.58,3,658.105
12/21/2012 21:00,1.3,0.4,94,22,9.7,97.64,3,90.2567
12/21/2012 22:00,0.7,0,95,28,3.6,97.75,3,3.28945
12/21/2012 23:00,1.1,0,92,30,9.7,97.79,3,5.05268
12/22/2012 0:00,1.1,-0.1,92,32,9.7,97.81,3,0.2034
12/22/2012 1:00,1.2,0.1,92,30,12.9,97.84,3,51.6389
12/22/2012 2:00,1.1,0.1,93,30,8,97.89,3,37.3254
12/22/2012 3:00,1.1,0.1,93,28,9.7,97.93,3,225.583
12/22/2012 4:00,0.6,-0.6,92,35,11.3,97.98,3,217.668
12/22/2012 5:00,-0.9,-1.9,93,35,4.8,98.07,3,375.707
12/22/2012 6:00,-1.6,-3,90,41,4,98.19,3,264.157
12/22/2012 7:00,-2.2,-3.7,89,35,4.8,98.32,3,741.587
12/22/2012 8:00,-2.5,-4.5,86,41,4,98.44,3,163.07
12/22/2012 9:00,-3,-5,86,35,3.2,98.58,3,111.23
12/22/2012 10:00,-3.6,-5,90,37,1.6,98.7,3,21.4818
12/22/2012 11:00,-4.3,-5.4,92,35,1.2,98.78,3,5.71822
12/22/2012 12:00,-4.5,-5.9,90,33,1.6,98.86,3,3.75275
12/22/2012 13:00,-4.7,-6.9,85,37,4,98.96,3,10.9122
12/22/2012 14:00,-5,-7.6,82,32,4,99.08,3,0.77195
12/22/2012 15:00,-5.4,-7.1,88,35,1.6,99.24,3,109.904
12/22/2012 16:00,-5.9,-7.8,86,41,1.6,99.37,3,258.384
12/22/2012 17:00,-5.7,-8.5,81,32,6.4,99.5,3,642.036
12/22/2012 18:00,-6,-8.7,81,33,4.8,99.62,3,572.381
12/22/2012 19:00,-6.7,-9.1,83,32,6.4,99.75,3,683.449
12/22/2012 20:00,-6.9,-10.6,75,32,16.1,99.83,3,317.495
12/22/2012 21:00,-7.2,-11.6,71,28,16.1,99.96,3,119.125
12/22/2012 22:00,-7.4,-11.9,70,35,16.1,100,3,143.815
12/22/2012 23:00,-7.8,-12.6,68,39,19.3,100.12,2,0.42203
12/23/2012 0:00,-7.8,-11.6,74,32,19.3,100.19,3,7.44247
12/23/2012 1:00,-7.9,-11.8,74,32,25,100.27,3,9.08182
12/23/2012 2:00,-8.2,-12.5,71,30,25,100.36,2,18.3886
12/23/2012 3:00,-8.2,-12.4,72,30,25,100.4,2,347.585
12/23/2012 4:00,-8.3,-12.7,71,28,25,100.43,2,249.362
12/23/2012 5:00,-8.5,-13.2,69,30,25,100.49,2,528.94
12/23/2012 6:00,-8.4,-12.3,73,26,25,100.51,2,670.233
12/23/2012 7:00,-8.5,-12.1,75,20,19.3,100.52,3,469.48
12/23/2012 8:00,-8.7,-12,77,20,19.3,100.54,3,219.913
12/23/2012 9:00,-8.7,-12.2,76,22,24.1,100.52,2,130.232
12/23/2012 10:00,-8.6,-12.5,73,24,24.1,100.54,2,8.96177
12/23/2012 11:00,-8.3,-12.6,71,26,24.1,100.5,2,0.20418
12/23/2012 12:00,-7.9,-12.6,69,24,24.1,100.44,2,14.6215
12/23/2012 13:00,-7.4,-12.4,67,20,24.1,100.37,2,8.2562
12/23/2012 14:00,-6.9,-11.9,67,11,24.1,100.33,2,95.8359
12/23/2012 15:00,-6.8,-11.1,71,13,24.1,100.34,3,109.066
12/23/2012 16:00,-7,-9.6,82,13,9.7,100.35,3,227.869
12/23/2012 17:00,-7.1,-9.4,84,9,12.9,100.36,3,277.9
12/23/2012 18:00,-7.2,-10,80,11,12.9,100.4,3,796.267
12/23/2012 19:00,-7.2,-10.1,80,9,25,100.46,3,341.633
12/23/2012 20:00,-7.2,-10.4,78,9,25,100.55,2,258.316
12/23/2012 21:00,-8,-11.2,78,9,25,100.62,1,179.601
12/23/2012 22:00,-9,-11.7,81,9,25,100.68,1,9.40578
12/23/2012 23:00,-8.3,-10.9,81,9,25,100.76,2,25.1592
12/24/2012 0:00,-8.5,-10.7,84,15,25,100.8,2,17.809
12/24/2012 1:00,-8.4,-10.7,83,17,25,100.85,2,38.0801
12/24/2012 2:00,-8.8,-11.4,81,17,25,100.91,2,28.5818
12/24/2012 3:00,-8.9,-12.3,76,20,25,100.99,2,85.4605
12/24/2012 4:00,-10,-12.7,81,24,25,101.02,2,260.88
12/24/2012 5:00,-10.4,-13.3,79,19,25,101.07,2,675.394
12/24/2012 6:00,-10.9,-14,78,15,25,101.13,1,656.572
12/24/2012 7:00,-11.1,-13.9,80,15,25,101.23,1,457.57
12/24/2012 8:00,-11,-13.9,79,13,25,101.32,1,272.553
12/24/2012 9:00,-10.5,-13.7,77,13,24.1,101.41,1,150.797
12/24/2012 10:00,-9.9,-13.4,76,11,48.3,101.45,1,24.6582
12/24/2012 11:00,-9,-13.7,69,11,48.3,101.44,1,0
12/24/2012 12:00,-7.9,-13.3,65,9,48.3,101.43,1,6.30357
12/24/2012 13:00,-7.6,-13.1,65,15,48.3,101.45,1,10.4603
12/24/2012 14:00,-7.8,-13.7,63,15,48.3,101.46,1,4.49918
12/24/2012 15:00,-7.5,-13.3,63,13,48.3,101.49,1,133.607
12/24/2012 16:00,-8.2,-13.3,67,11,24.1,101.45,1,311.074
12/24/2012 17:00,-9.7,-13.7,73,6,25,101.49,1,586.373
12/24/2012 18:00,-10.4,-13.8,76,9,25,101.45,1,589.271
12/24/2012 19:00,-9.7,-13.1,76,7,25,101.43,1,495.89
12/24/2012 20:00,-9.6,-12.8,77,6,25,101.43,1,233.426
12/24/2012 21:00,-9.4,-13.2,74,7,25,101.44,1,267.452
12/24/2012 22:00,-9.8,-13.2,76,4,25,101.44,2,10.2458
12/24/2012 23:00,-10.5,-12.8,83,4,25,101.48,2,0.49404
12/25/2012 0:00,-9,-12.5,76,11,25,101.44,2,16.7175
12/25/2012 1:00,-10.5,-13,82,6,25,101.51,2,3.23819
12/25/2012 2:00,-10.6,-13.1,82,13,25,101.51,2,60.8157
12/25/2012 3:00,-10.5,-12.6,85,19,25,101.47,2,168.841
12/25/2012 4:00,-10.1,-13.2,78,15,24.1,101.49,2,242.222
12/25/2012 5:00,-10.8,-13.1,83,17,25,101.49,2,539.79
12/25/2012 6:00,-10.6,-13.6,79,13,25,101.59,2,611.303
12/25/2012 7:00,-11.3,-14.1,80,11,25,101.72,2,332.066
12/25/2012 8:00,-11.3,-14.4,78,11,24.1,101.79,2,250.144
12/25/2012 9:00,-11,-14.2,77,13,24.1,101.87,2,240.915
12/25/2012 10:00,-10.1,-14.3,71,15,24.1,101.95,2,6.37303
12/25/2012 11:00,-9.6,-14.4,68,9,24.1,101.93,2,6.42947
12/25/2012 12:00,-9.4,-14.4,67,9,24.1,101.92,2,5.29223
12/25/2012 13:00,-8.7,-14.5,63,7,24.1,101.92,2,23.9319
12/25/2012 14:00,-7.7,-14.1,60,6,48.3,101.95,1,46.8843
12/25/2012 15:00,-7.1,-13.7,59,17,48.3,101.98,1,73.9789
12/25/2012 16:00,-7.5,-13.9,60,11,48.3,102.03,1,249.852
12/25/2012 17:00,-8.3,-13.4,67,13,25,102.1,1,356.157
12/25/2012 18:00,-8.9,-13.4,70,13,25,102.16,1,701.185
12/25/2012 19:00,-8.8,-12.6,74,19,25,102.27,1,364.867
12/25/2012 20:00,-9.4,-12.6,77,13,25,102.3,1,221.913
12/25/2012 21:00,-9.7,-12.5,80,4,25,102.28,1,111.791
12/25/2012 22:00,-10.9,-13.2,83,4,25,102.34,1,139.852
12/25/2012 23:00,-10.4,-12.7,83,11,25,102.45,1,1.11792
12/26/2012 0:00,-11.8,-13.5,87,4,25,102.41,1,2.36234
12/26/2012 1:00,-11.2,-12.9,87,6,25,102.42,1,29.9072
12/26/2012 2:00,-12.7,-14.4,87,4,25,102.45,1,58.5361
12/26/2012 3:00,-14.2,-15.8,88,6,25,102.52,1,195.949
12/26/2012 4:00,-13.1,-14.7,88,6,25,102.55,1,293.215
12/26/2012 5:00,-12.7,-14.1,89,4,25,102.48,1,281.272
12/26/2012 6:00,-13.4,-14.8,89,4,25,102.47,1,461.884
12/26/2012 7:00,-13,-14.4,89,7,25,102.46,1,276.823
12/26/2012 8:00,-13.7,-15.2,88,4,16.1,102.53,2,347.207
12/26/2012 9:00,-11.3,-12.7,89,15,4,102.52,3,129.201
12/26/2012 10:00,-11,-13.2,84,15,24.1,102.54,1,33.165
12/26/2012 11:00,-11.3,-14.5,77,20,48.3,102.5,1,6.29039
12/26/2012 12:00,-10.6,-14.3,74,20,48.3,102.36,1,1.61393
12/26/2012 13:00,-10.3,-14,74,15,24.1,102.35,2,21.3381
12/26/2012 14:00,-10,-14,72,19,24.1,102.27,2,19.255
12/26/2012 15:00,-10,-14.2,71,19,24.1,102.28,2,195.019
12/26/2012 16:00,-10.3,-14.1,74,19,25,102.17,2,382.466
12/26/2012 17:00,-10.2,-13.9,74,22,25,102.16,2,589.857
12/26/2012 18:00,-10,-13.8,74,24,25,102.14,2,566.606
12/26/2012 19:00,-9.6,-13.1,76,39,25,102.03,2,261.476
12/26/2012 20:00,-10.3,-12.9,81,28,25,101.88,2,288.672
12/26/2012 21:00,-9.8,-12.5,81,22,25,101.87,2,86.9181
12/26/2012 22:00,-9.7,-12.8,78,37,25,101.7,2,119.142
12/26/2012 23:00,-9.7,-12.3,81,24,25,101.61,2,6.31867
12/27/2012 0:00,-9.8,-12.5,81,30,25,101.46,2,10.6943
12/27/2012 1:00,-9.4,-12.2,80,26,25,101.37,2,18.6183
12/27/2012 2:00,-8.5,-11.3,80,30,25,101.31,2,4.25047
12/27/2012 3:00,-8.1,-10.2,85,37,2.4,101.21,3,157.455
12/27/2012 4:00,-7.9,-9.5,88,33,2,101.03,3,329.327
12/27/2012 5:00,-7.5,-9.1,88,43,1.2,100.95,3,429.113
12/27/2012 6:00,-6.8,-8.1,90,39,1.2,100.83,3,610.431
12/27/2012 7:00,-6.5,-7.6,92,44,1.2,100.73,3,411.573
12/27/2012 8:00,-6.3,-7.4,92,39,0.8,100.65,3,221.405
12/27/2012 9:00,-5.7,-6.7,93,37,0.8,100.67,3,175.592
12/27/2012 10:00,-5.4,-6.4,93,41,0.6,100.64,3,4.34117
12/27/2012 11:00,-5.2,-6.4,91,39,0.6,100.62,3,2.62996
12/27/2012 12:00,-5.5,-6.6,92,39,0.6,100.5,3,7.59007
12/27/2012 13:00,-5.4,-6.7,91,48,0.6,100.36,3,39.558
12/27/2012 14:00,-5.2,-6.7,89,46,0.6,100.35,3,22.8781
12/27/2012 15:00,-5,-6.2,91,37,0.6,100.37,3,133.701
12/27/2012 16:00,-4.5,-6.2,88,37,2,100.44,3,326.382
12/27/2012 17:00,-4.2,-5.9,88,32,3.2,100.47,3,371.785
12/27/2012 18:00,-4,-5.7,88,28,8,100.49,3,575.555
12/27/2012 19:00,-3.9,-5.6,88,26,9.7,100.52,3,316.366
12/27/2012 20:00,-3.7,-5.3,89,37,16.1,100.58,3,747.339
12/27/2012 21:00,-3.7,-4.8,92,24,4.8,100.62,3,223.748
12/27/2012 22:00,-3.8,-4.6,94,20,4.8,100.65,3,32.3631
12/27/2012 23:00,-4,-5.6,89,24,9.7,100.7,3,7.33182
12/28/2012 0:00,-4.2,-5.7,89,19,8,100.78,3,4.94338
12/28/2012 1:00,-4.4,-6.6,85,15,6.4,100.83,3,25.3281
12/28/2012 2:00,-4.3,-6.3,86,11,12.9,100.93,3,20.2926
12/28/2012 3:00,-4.6,-5.9,91,13,4,101.01,3,99.9117
12/28/2012 4:00,-4.9,-5.9,93,9,9.7,101,3,156.903
12/28/2012 5:00,-5,-6.1,92,7,25,101.01,2,552.279
12/28/2012 6:00,-4.8,-6.6,87,9,25,101.04,2,373.398
12/28/2012 7:00,-5,-6.5,89,9,25,101.07,2,633.872
12/28/2012 8:00,-5.2,-7,87,17,24.1,101.15,2,250.749
12/28/2012 9:00,-5.5,-8,83,17,24.1,101.23,2,47.22
12/28/2012 10:00,-6.1,-8.6,82,19,24.1,101.27,1,17.8729
12/28/2012 11:00,-6.2,-8.8,82,24,48.3,101.24,1,2.27944
12/28/2012 12:00,-7.2,-9.9,81,24,48.3,101.22,1,5.30771
12/28/2012 13:00,-6.8,-9.8,79,20,48.3,101.17,1,25.2687
12/28/2012 14:00,-6.5,-9.9,77,22,48.3,101.17,1,23.6988
12/28/2012 15:00,-6.8,-10.3,76,24,48.3,101.22,1,158.12
12/28/2012 16:00,-7.7,-11,77,30,48.3,101.25,1,394.917
12/28/2012 17:00,-8.6,-12,76,26,25,101.34,1,533.732
12/28/2012 18:00,-9,-12.2,78,24,25,101.37,1,570.408
12/28/2012 19:00,-9.4,-12.3,79,22,25,101.37,1,310.979
12/28/2012 20:00,-9.8,-12.6,80,20,25,101.35,1,366.703
12/28/2012 21:00,-9.8,-12.5,81,19,25,101.36,1,228.993
12/28/2012 22:00,-9.9,-12.5,81,17,25,101.38,1,7.66937
12/28/2012 23:00,-10.9,-13.2,83,13,25,101.38,1,21.5583
12/29/2012 0:00,-11.6,-13.5,86,13,25,101.35,1,0.0265
12/29/2012 1:00,-11.9,-13.6,87,11,25,101.31,1,30.1397
12/29/2012 2:00,-11.8,-13.1,90,13,25,101.33,1,5.98596
12/29/2012 3:00,-13.4,-15.2,86,4,4.8,101.33,2,103.289
12/29/2012 4:00,-16,-17.2,90,6,9.7,101.25,2,403.94
12/29/2012 5:00,-14.8,-15.9,91,4,6.4,101.25,2,390.076
12/29/2012 6:00,-13.8,-15.3,88,4,9.7,101.25,2,335.537
12/29/2012 7:00,-14.8,-16.4,88,7,8,101.22,2,501.751
12/29/2012 8:00,-13.6,-15.1,88,11,12.9,101.19,2,296.256
12/29/2012 9:00,-13.2,-14.8,88,11,12.9,101.13,2,180.106
12/29/2012 10:00,-12,-13.3,90,7,6.4,101.15,2,7.05839
12/29/2012 11:00,-10.9,-12.2,90,7,6.4,101.09,3,1.35544
12/29/2012 12:00,-10.5,-11.6,92,11,8,100.93,3,10.5036
12/29/2012 13:00,-10,-11.1,92,22,9.7,100.63,3,11.8401
12/29/2012 14:00,-9.3,-10.5,91,22,4.8,100.6,3,14.8106
12/29/2012 15:00,-8.8,-10,91,20,1.2,100.55,3,69.324
12/29/2012 16:00,-8.5,-9.9,90,24,1.2,100.49,3,465.273
12/29/2012 17:00,-9,-10.4,90,19,2.4,100.46,3,717.301
12/29/2012 18:00,-9.3,-10.9,88,26,6.4,100.38,3,547.367
12/29/2012 19:00,-9.5,-11.2,87,26,3.2,100.33,3,614.125
12/29/2012 20:00,-9.7,-11.6,86,24,9.7,100.25,3,220.827
12/29/2012 21:00,-9.8,-11.8,85,24,8,100.24,3,122.557
12/29/2012 22:00,-10.1,-11.6,89,15,2.4,100.2,3,46.7906
12/29/2012 23:00,-10,-12,85,20,6.4,100.19,3,0.16198
12/30/2012 0:00,-9.6,-11.3,87,13,3.2,100.23,3,1.57736
12/30/2012 1:00,-9.4,-10.5,92,9,2.4,100.22,3,15.5098
12/30/2012 2:00,-9.3,-10.4,92,9,4,100.28,3,15.5301
12/30/2012 3:00,-9.1,-10.4,90,11,3.6,100.3,3,50.3976
12/30/2012 4:00,-9.3,-10.6,90,13,9.7,100.28,3,321.014
12/30/2012 5:00,-9.1,-10.4,90,11,4,100.32,3,503.846
12/30/2012 6:00,-9.3,-10.8,89,17,8,100.39,3,609.832
12/30/2012 7:00,-9.9,-13.2,77,19,25,100.48,2,458.453
12/30/2012 8:00,-11.3,-14.5,77,20,24.1,100.57,2,354.547
12/30/2012 9:00,-11.7,-15,76,19,24.1,100.69,2,226.98
12/30/2012 10:00,-12.4,-16,74,24,24.1,100.82,2,7.19556
12/30/2012 11:00,-11.9,-15.4,75,32,24.1,100.89,2,2.27083
12/30/2012 12:00,-12.2,-15.7,75,26,48.3,100.91,2,0.09005
12/30/2012 13:00,-12.4,-16.2,73,37,48.3,100.92,2,28.8248
12/30/2012 14:00,-11.8,-16.1,70,37,48.3,100.96,1,123.366
12/30/2012 15:00,-11.3,-15.6,70,32,48.3,101.05,1,188.578
12/30/2012 16:00,-11.4,-15.5,72,26,48.3,101.15,1,356.941
12/30/2012 17:00,-12.1,-15.8,74,28,25,101.26,1,459.402
12/30/2012 18:00,-12.6,-16,76,24,25,101.36,1,345.623
12/30/2012 19:00,-13.4,-16.5,77,26,25,101.47,1,651.6
12/30/2012 20:00,-13.8,-16.5,80,24,25,101.52,1,291.108
12/30/2012 21:00,-13.8,-16.5,80,20,25,101.5,1,134.946
12/30/2012 22:00,-13.7,-16.3,81,19,25,101.54,1,4.54599
12/30/2012 23:00,-12.1,-15.1,78,28,25,101.52,2,7.21845
12/31/2012 0:00,-11.1,-14.4,77,26,25,101.51,2,9.50147
12/31/2012 1:00,-10.7,-14,77,15,25,101.5,2,18.1531
12/31/2012 2:00,-10.1,-13.4,77,9,25,101.45,2,11.294
12/31/2012 3:00,-11.8,-14.4,81,6,25,101.42,2,243.23
12/31/2012 4:00,-10.5,-12.8,83,11,25,101.34,2,327.274
12/31/2012 5:00,-10.2,-12.4,84,6,25,101.28,2,783.675
12/31/2012 6:00,-9.7,-11.7,85,4,25,101.23,2,460.039
12/31/2012 7:00,-9.3,-11.3,85,0,19.3,101.19,3,578.413
12/31/2012 8:00,-8.6,-10.3,87,4,3.2,101.14,3,222.544
12/31/2012 9:00,-8.1,-9.6,89,4,2.4,101.09,3,264.913
12/31/2012 10:00,-7.4,-8.9,89,4,6.4,101.05,3,69.0747
12/31/2012 11:00,-6.7,-7.9,91,9,9.7,100.93,3,3.15451
12/31/2012 12:00,-5.8,-7.5,88,4,12.9,100.78,3,5.14758
12/31/2012 13:00,-4.6,-6.6,86,4,12.9,100.63,3,24.3795
12/31/2012 14:00,-3.4,-5.7,84,6,11.3,100.57,3,39.3477
12/31/2012 15:00,-2.3,-4.6,84,9,9.7,100.47,3,170.641
12/31/2012 16:00,-1.4,-4,82,13,12.9,100.4,3,194.522
12/31/2012 17:00,-1.1,-3.3,85,19,9.7,100.3,3,269.781
12/31/2012 18:00,-1.3,-3.1,88,17,9.7,100.19,3,661.474
12/31/2012 19:00,0.1,-2.7,81,30,9.7,100.13,3,443.541
12/31/2012 20:00,0.2,-2.4,83,24,9.7,100.03,3,452.43
12/31/2012 21:00,-0.5,-1.5,93,28,4.8,99.95,3,81.3453
12/31/2012 22:00,-0.2,-1.8,89,28,9.7,99.91,3,16.4857
12/31/2012 23:00,0,-2.1,86,30,11.3,99.89,3,0.1343
